{"type": "FeatureCollection", "name": "bagnarelli", "crs_note": "EPSG:4326 (GeoJSON siempre en WGS84). El layout está en EPSG:25833", "generado_por": "tools/geojson_activo.py", "que_es": "La planta como ACTIVO: parcela, seguidores con su montaje, NCU, HSU, repetidores y caminos. No confundir con <planta>_real.geojson, que es la malla de radio medida.", "montaje": {"tipo": "SingleAxisTrackerMount", "axis_tilt": 0, "axis_azimuth": 23.7, "max_angle": 55, "backtrack": true, "gcr": 0.397, "cross_axis_tilt": 0, "module_height": null, "night_stow_deg": 5, "pitch": null, "cuerda": null, "modulos_en_vertical": null}, "montaje_origen": {"pitch": null, "cuerda": "null · esta planta no trae bloque `mesa` ni plantilla del fabricante", "gcr": "canon · CANONICAL_GCR del proyecto, no medido en esta planta", "axis_azimuth": "medido · rot de los 17 seguidores", "tipo": "del layout · la planta es de seguidores", "axis_tilt": "canon · el eje se genera horizontal; el terreno se aplica aparte (bt3d)", "max_angle": "declarado por la casa · 55° en TODAS las plantas (2026-08-21). Coincide con el CANONICAL_MAX_ANGLE_DEG del core y con lo unico medido, la plantilla TCU de El Burgo", "backtrack": "canon · CANONICAL_BACKTRACK, y es lo que ejecutan las fichas", "cross_axis_tilt": "canon · 0, que es lo que pasa el JS a singleaxis", "module_height": "null · no se ha medido la altura del tubo en ninguna planta", "night_stow_deg": "canon · 5° al este, dato de proyecto", "modulos_en_vertical": "null · el bloque no dice la V"}, "meteo_nota": null, "reps_nota": null, "features": [{"type": "Feature", "geometry": {"type": "Polygon", "coordinates": [[[15.2691353, 41.5168937], [15.2690508, 41.5168597], [15.2688457, 41.5165114], [15.2681523, 41.5163905], [15.2674444, 41.5161217], [15.2674227, 41.5160851], [15.2691353, 41.5168937]]]}, "properties": {"rol": "parcela", "origen": "vallado del DWG"}}, {"type": "Feature", "geometry": {"type": "Polygon", "coordinates": [[[15.2689273, 41.5169205], [15.2689855, 41.5168391], [15.2688265, 41.5165691], [15.2687728, 41.5165357], [15.2681357, 41.5164247], [15.2674076, 41.5161481], [15.2655328, 41.512987], [15.2656695, 41.5128283], [15.2664558, 41.5125678], [15.2662731, 41.5122575], [15.2689273, 41.5169205]]]}, "properties": {"rol": "parcela", "origen": "vallado del DWG"}}, {"type": "Feature", "geometry": {"type": "Polygon", "coordinates": [[[15.2663254, 41.5122574], [15.2664996, 41.5125533], [15.2664115, 41.5126341], [15.2663634, 41.5126377], [15.265702, 41.5128568], [15.2656808, 41.5128816], [15.2663254, 41.5122574]]]}, "properties": {"rol": "parcela", "origen": "vallado del DWG"}}, {"type": "Feature", "geometry": {"type": "Point", "coordinates": [15.2673974, 41.5158094]}, "properties": {"rol": "seguidor", "id": "TK001", "tipo": "completo", "axis_azimuth": 23.7, "punto": "eje de unidad (no el motor)", "ncu": 1, "gw": 1, "axis_tilt": 0, "max_angle": 55, "backtrack": true, "gcr": 0.397, "cross_axis_tilt": 0}}, {"type": "Feature", "geometry": {"type": "Point", "coordinates": [15.2671221, 41.5153419]}, "properties": {"rol": "seguidor", "id": "TK002", "tipo": "completo", "axis_azimuth": 23.7, "punto": "eje de unidad (no el motor)", "ncu": 1, "gw": 1, "axis_tilt": 0, "max_angle": 55, "backtrack": true, "gcr": 0.397, "cross_axis_tilt": 0}}, {"type": "Feature", "geometry": {"type": "Point", "coordinates": [15.2676374, 41.5159724]}, "properties": {"rol": "seguidor", "id": "TK003", "tipo": "medio", "axis_azimuth": 23.7, "punto": "eje de unidad (no el motor)", "ncu": 1, "gw": 1, "axis_tilt": 0, "max_angle": 55, "backtrack": true, "gcr": 0.397, "cross_axis_tilt": 0}}, {"type": "Feature", "geometry": {"type": "Point", "coordinates": [15.2674321, 41.5156235]}, "properties": {"rol": "seguidor", "id": "TK004", "tipo": "completo", "axis_azimuth": 23.7, "punto": "eje de unidad (no el motor)", "ncu": 1, "gw": 1, "axis_tilt": 0, "max_angle": 55, "backtrack": true, "gcr": 0.397, "cross_axis_tilt": 0}}, {"type": "Feature", "geometry": {"type": "Point", "coordinates": [15.2671568, 41.5151559]}, "properties": {"rol": "seguidor", "id": "TK005", "tipo": "completo", "axis_azimuth": 23.7, "punto": "eje de unidad (no el motor)", "ncu": 1, "gw": 1, "axis_tilt": 0, "max_angle": 55, "backtrack": true, "gcr": 0.397, "cross_axis_tilt": 0}}, {"type": "Feature", "geometry": {"type": "Point", "coordinates": [15.2677814, 41.5159721]}, "properties": {"rol": "seguidor", "id": "TK006", "tipo": "medio", "axis_azimuth": 23.7, "punto": "eje de unidad (no el motor)", "ncu": 1, "gw": 1, "axis_tilt": 0, "max_angle": 55, "backtrack": true, "gcr": 0.397, "cross_axis_tilt": 0}}, {"type": "Feature", "geometry": {"type": "Point", "coordinates": [15.267576, 41.5156232]}, "properties": {"rol": "seguidor", "id": "TK007", "tipo": "completo", "axis_azimuth": 23.7, "punto": "eje de unidad (no el motor)", "ncu": 1, "gw": 1, "axis_tilt": 0, "max_angle": 55, "backtrack": true, "gcr": 0.397, "cross_axis_tilt": 0}}, {"type": "Feature", "geometry": {"type": "Point", "coordinates": [15.2673008, 41.5151556]}, "properties": {"rol": "seguidor", "id": "TK008", "tipo": "completo", "axis_azimuth": 23.7, "punto": "eje de unidad (no el motor)", "ncu": 1, "gw": 1, "axis_tilt": 0, "max_angle": 55, "backtrack": true, "gcr": 0.397, "cross_axis_tilt": 0}}, {"type": "Feature", "geometry": {"type": "Point", "coordinates": [15.2679255, 41.5159719]}, "properties": {"rol": "seguidor", "id": "TK009", "tipo": "medio", "axis_azimuth": 23.7, "punto": "eje de unidad (no el motor)", "ncu": 1, "gw": 1, "axis_tilt": 0, "max_angle": 55, "backtrack": true, "gcr": 0.397, "cross_axis_tilt": 0}}, {"type": "Feature", "geometry": {"type": "Point", "coordinates": [15.2677201, 41.5156229]}, "properties": {"rol": "seguidor", "id": "TK010", "tipo": "completo", "axis_azimuth": 23.7, "punto": "eje de unidad (no el motor)", "ncu": 1, "gw": 1, "axis_tilt": 0, "max_angle": 55, "backtrack": true, "gcr": 0.397, "cross_axis_tilt": 0}}, {"type": "Feature", "geometry": {"type": "Point", "coordinates": [15.2674448, 41.5151554]}, "properties": {"rol": "seguidor", "id": "TK011", "tipo": "completo", "axis_azimuth": 23.7, "punto": "eje de unidad (no el motor)", "ncu": 1, "gw": 1, "axis_tilt": 0, "max_angle": 55, "backtrack": true, "gcr": 0.397, "cross_axis_tilt": 0}}, {"type": "Feature", "geometry": {"type": "Point", "coordinates": [15.2681393, 41.5160903]}, "properties": {"rol": "seguidor", "id": "TK012", "tipo": "completo", "axis_azimuth": 23.7, "punto": "eje de unidad (no el motor)", "ncu": 1, "gw": 1, "axis_tilt": 0, "max_angle": 55, "backtrack": true, "gcr": 0.397, "cross_axis_tilt": 0}}, {"type": "Feature", "geometry": {"type": "Point", "coordinates": [15.267864, 41.5156227]}, "properties": {"rol": "seguidor", "id": "TK013", "tipo": "completo", "axis_azimuth": 23.7, "punto": "eje de unidad (no el motor)", "ncu": 1, "gw": 1, "axis_tilt": 0, "max_angle": 55, "backtrack": true, "gcr": 0.397, "cross_axis_tilt": 0}}, {"type": "Feature", "geometry": {"type": "Point", "coordinates": [15.2675888, 41.515155]}, "properties": {"rol": "seguidor", "id": "TK014", "tipo": "completo", "axis_azimuth": 23.7, "punto": "eje de unidad (no el motor)", "ncu": 1, "gw": 1, "axis_tilt": 0, "max_angle": 55, "backtrack": true, "gcr": 0.397, "cross_axis_tilt": 0}}, {"type": "Feature", "geometry": {"type": "Point", "coordinates": [15.2682833, 41.51609]}, "properties": {"rol": "seguidor", "id": "TK015", "tipo": "completo", "axis_azimuth": 23.7, "punto": "eje de unidad (no el motor)", "ncu": 1, "gw": 1, "axis_tilt": 0, "max_angle": 55, "backtrack": true, "gcr": 0.397, "cross_axis_tilt": 0}}, {"type": "Feature", "geometry": {"type": "Point", "coordinates": [15.268008, 41.5156224]}, "properties": {"rol": "seguidor", "id": "TK016", "tipo": "completo", "axis_azimuth": 23.7, "punto": "eje de unidad (no el motor)", "ncu": 1, "gw": 1, "axis_tilt": 0, "max_angle": 55, "backtrack": true, "gcr": 0.397, "cross_axis_tilt": 0}}, {"type": "Feature", "geometry": {"type": "Point", "coordinates": [15.2677328, 41.5151548]}, "properties": {"rol": "seguidor", "id": "TK017", "tipo": "completo", "axis_azimuth": 23.7, "punto": "eje de unidad (no el motor)", "ncu": 1, "gw": 1, "axis_tilt": 0, "max_angle": 55, "backtrack": true, "gcr": 0.397, "cross_axis_tilt": 0}}, {"type": "Feature", "geometry": {"type": "Point", "coordinates": [15.2668209, 41.5148861]}, "properties": {"rol": "NCU", "nombre": "NCU 1"}}, {"type": "Feature", "geometry": {"type": "Point", "coordinates": [15.2668209, 41.5148861]}, "properties": {"rol": "HSU", "nombre": "HSU 1", "ncu": 1, "ncu_origen": "única NCU de la planta («NCU 1»): no se deduce, se constata", "gw": 1, "gw_origen": "único gateway de la planta: sus 17 seguidores usan el GW 1 y no hay otro. No se deduce, se constata", "esclavo": null, "esclavo_origen": null}}, {"type": "Feature", "geometry": {"type": "Point", "coordinates": [15.2685477, 41.5163596]}, "properties": {"rol": "HSU", "nombre": "HSU 2", "ncu": 1, "ncu_origen": "única NCU de la planta («NCU 1»): no se deduce, se constata", "gw": 1, "gw_origen": "único gateway de la planta: sus 17 seguidores usan el GW 1 y no hay otro. No se deduce, se constata", "esclavo": null, "esclavo_origen": null}}]}