{"type": "FeatureCollection", "name": "elburgo", "crs_note": "EPSG:4326 (GeoJSON siempre en WGS84). El layout está en EPSG:25830", "generado_por": "tools/geojson_activo.py", "que_es": "La planta como ACTIVO: parcela, seguidores con su montaje, NCU, HSU y caminos. No confundir con <planta>_real.geojson, que es la malla de radio medida.", "montaje": {"tipo": "SingleAxisTrackerMount", "axis_tilt": 0, "axis_azimuth": 0, "max_angle": 55, "backtrack": true, "gcr": 0.397, "cross_axis_tilt": 0, "module_height": null, "night_stow_deg": 5, "pitch": 6, "cuerda": 2.382, "modulos_en_vertical": null}, "montaje_origen": {"pitch": "medido · geometria.pasoEntreFilas", "cuerda": "medido · panelWidth de TCU_Template_V1.4_23003_El_Burgo_I_v01.xlsm", "gcr": "derivado · cuerda 2.382 / paso 6", "axis_azimuth": "canon · eje N-S (0), que es lo que mide el DWG", "tipo": "del layout · la planta es de seguidores", "axis_tilt": "canon · el eje se genera horizontal; el terreno se aplica aparte (bt3d)", "max_angle": "medido · plantilla del fabricante TCU_Template_V1.4: west_sw_limit 55 / east_sw_limit -55", "backtrack": "canon · CANONICAL_BACKTRACK, y es lo que ejecutan las fichas", "cross_axis_tilt": "canon · 0, que es lo que pasa el JS a singleaxis", "module_height": "null · no se ha medido la altura del tubo en ninguna planta", "night_stow_deg": "canon · 5° al este, dato de proyecto", "modulos_en_vertical": "null · el bloque no dice la V"}, "features": [{"type": "Feature", "geometry": {"type": "Polygon", "coordinates": [[[-0.7991576, 41.5789017], [-0.7991981, 41.577712], [-0.8011978, 41.5777503], [-0.8014373, 41.5776959], [-0.8016981, 41.5774399], [-0.8021841, 41.5771882], [-0.8027249, 41.5771058], [-0.8028424, 41.5767311], [-0.7958118, 41.5731073], [-0.7954512, 41.5737701], [-0.795354, 41.5753002], [-0.7955052, 41.5757081], [-0.795647, 41.5759335], [-0.7958085, 41.576124], [-0.7949693, 41.5776178], [-0.7957124, 41.5780397], [-0.7983539, 41.5788863], [-0.7991576, 41.5789017]]]}, "properties": {"rol": "parcela", "origen": "vallado del DWG"}}, {"type": "Feature", "geometry": {"type": "Point", "coordinates": [-0.7982283, 41.5769449]}, "properties": {"rol": "seguidor", "id": "56", "tipo": "Medio sin rotula", "axis_azimuth": 0, "punto": "eje de unidad (no el motor)", "ncu": 1, "gw": 1, "desig": "1.10.56", "axis_tilt": 0, "max_angle": 55, "backtrack": true, "gcr": 0.397, "cross_axis_tilt": 0}}, {"type": "Feature", "geometry": {"type": "Point", "coordinates": [-0.7980845, 41.5769421]}, "properties": {"rol": "seguidor", "id": "59", "tipo": "Medio sin rotula", "axis_azimuth": 0, "punto": "eje de unidad (no el motor)", "ncu": 1, "gw": 2, "desig": "1.10.59", "axis_tilt": 0, "max_angle": 55, "backtrack": true, "gcr": 0.397, "cross_axis_tilt": 0}}, {"type": "Feature", "geometry": {"type": "Point", "coordinates": [-0.8013828, 41.5773022]}, "properties": {"rol": "seguidor", "id": "5", "tipo": "Medio sin rotula", "axis_azimuth": 0, "punto": "eje de unidad (no el motor)", "ncu": 1, "gw": 1, "desig": "1.1.5", "axis_tilt": 0, "max_angle": 55, "backtrack": true, "gcr": 0.397, "cross_axis_tilt": 0}}, {"type": "Feature", "geometry": {"type": "Point", "coordinates": [-0.8012389, 41.5772995]}, "properties": {"rol": "seguidor", "id": "7", "tipo": "Medio sin rotula", "axis_azimuth": 0, "punto": "eje de unidad (no el motor)", "ncu": 1, "gw": 1, "desig": "1.2.7", "axis_tilt": 0, "max_angle": 55, "backtrack": true, "gcr": 0.397, "cross_axis_tilt": 0}}, {"type": "Feature", "geometry": {"type": "Point", "coordinates": [-0.7964723, 41.5777935]}, "properties": {"rol": "seguidor", "id": "90", "tipo": "Medio sin rotula", "axis_azimuth": 0, "punto": "eje de unidad (no el motor)", "ncu": 1, "gw": 2, "desig": "1.16.90", "axis_tilt": 0, "max_angle": 55, "backtrack": true, "gcr": 0.397, "cross_axis_tilt": 0}}, {"type": "Feature", "geometry": {"type": "Point", "coordinates": [-0.7963284, 41.5777907]}, "properties": {"rol": "seguidor", "id": "93", "tipo": "Medio sin rotula", "axis_azimuth": 0, "punto": "eje de unidad (no el motor)", "ncu": 1, "gw": 2, "desig": "1.16.93", "axis_tilt": 0, "max_angle": 55, "backtrack": true, "gcr": 0.397, "cross_axis_tilt": 0}}, {"type": "Feature", "geometry": {"type": "Point", "coordinates": [-0.7961846, 41.577788]}, "properties": {"rol": "seguidor", "id": "96", "tipo": "Medio sin rotula", "axis_azimuth": 0, "punto": "eje de unidad (no el motor)", "ncu": 1, "gw": 2, "desig": "1.17.96", "axis_tilt": 0, "max_angle": 55, "backtrack": true, "gcr": 0.397, "cross_axis_tilt": 0}}, {"type": "Feature", "geometry": {"type": "Point", "coordinates": [-0.7960407, 41.5777852]}, "properties": {"rol": "seguidor", "id": "99", "tipo": "Medio sin rotula", "axis_azimuth": 0, "punto": "eje de unidad (no el motor)", "ncu": 1, "gw": 2, "desig": "1.17.99", "axis_tilt": 0, "max_angle": 55, "backtrack": true, "gcr": 0.397, "cross_axis_tilt": 0}}, {"type": "Feature", "geometry": {"type": "Point", "coordinates": [-0.7958969, 41.5777825]}, "properties": {"rol": "seguidor", "id": "102", "tipo": "Medio sin rotula", "axis_azimuth": 0, "punto": "eje de unidad (no el motor)", "ncu": 1, "gw": 2, "desig": "1.18.102", "axis_tilt": 0, "max_angle": 55, "backtrack": true, "gcr": 0.397, "cross_axis_tilt": 0}}, {"type": "Feature", "geometry": {"type": "Point", "coordinates": [-0.795753, 41.5777797]}, "properties": {"rol": "seguidor", "id": "105", "tipo": "Medio sin rotula", "axis_azimuth": 0, "punto": "eje de unidad (no el motor)", "ncu": 1, "gw": 2, "desig": "1.18.105", "axis_tilt": 0, "max_angle": 55, "backtrack": true, "gcr": 0.397, "cross_axis_tilt": 0}}, {"type": "Feature", "geometry": {"type": "Point", "coordinates": [-0.8012708, 41.5763583]}, "properties": {"rol": "seguidor", "id": "1", "tipo": "Medio sin rotula", "axis_azimuth": 0, "punto": "eje de unidad (no el motor)", "ncu": 2, "gw": 1, "desig": "2.1.1", "axis_tilt": 0, "max_angle": 55, "backtrack": true, "gcr": 0.397, "cross_axis_tilt": 0}}, {"type": "Feature", "geometry": {"type": "Point", "coordinates": [-0.801127, 41.5763556]}, "properties": {"rol": "seguidor", "id": "2", "tipo": "Medio sin rotula", "axis_azimuth": 0, "punto": "eje de unidad (no el motor)", "ncu": 2, "gw": 1, "desig": "2.1.2", "axis_tilt": 0, "max_angle": 55, "backtrack": true, "gcr": 0.397, "cross_axis_tilt": 0}}, {"type": "Feature", "geometry": {"type": "Point", "coordinates": [-0.7988653, 41.5751415]}, "properties": {"rol": "seguidor", "id": "27", "tipo": "Medio sin rotula", "axis_azimuth": 0, "punto": "eje de unidad (no el motor)", "ncu": 2, "gw": 1, "desig": "2.5.27", "axis_tilt": 0, "max_angle": 55, "backtrack": true, "gcr": 0.397, "cross_axis_tilt": 0}}, {"type": "Feature", "geometry": {"type": "Point", "coordinates": [-0.7987215, 41.5751388]}, "properties": {"rol": "seguidor", "id": "30", "tipo": "Medio sin rotula", "axis_azimuth": 0, "punto": "eje de unidad (no el motor)", "ncu": 2, "gw": 1, "desig": "2.5.30", "axis_tilt": 0, "max_angle": 55, "backtrack": true, "gcr": 0.397, "cross_axis_tilt": 0}}, {"type": "Feature", "geometry": {"type": "Point", "coordinates": [-0.7975933, 41.5744557]}, "properties": {"rol": "seguidor", "id": "55", "tipo": "Medio sin rotula", "axis_azimuth": 0, "punto": "eje de unidad (no el motor)", "ncu": 2, "gw": 2, "desig": "2.16.55", "axis_tilt": 0, "max_angle": 55, "backtrack": true, "gcr": 0.397, "cross_axis_tilt": 0}}, {"type": "Feature", "geometry": {"type": "Point", "coordinates": [-0.7974494, 41.574453]}, "properties": {"rol": "seguidor", "id": "59", "tipo": "Medio sin rotula", "axis_azimuth": 0, "punto": "eje de unidad (no el motor)", "ncu": 2, "gw": 2, "desig": "2.16.59", "axis_tilt": 0, "max_angle": 55, "backtrack": true, "gcr": 0.397, "cross_axis_tilt": 0}}, {"type": "Feature", "geometry": {"type": "Point", "coordinates": [-0.7963186, 41.5738459]}, "properties": {"rol": "seguidor", "id": "92", "tipo": "Medio sin rotula", "axis_azimuth": 0, "punto": "eje de unidad (no el motor)", "ncu": 2, "gw": 2, "desig": "2.17.92", "axis_tilt": 0, "max_angle": 55, "backtrack": true, "gcr": 0.397, "cross_axis_tilt": 0}}, {"type": "Feature", "geometry": {"type": "Point", "coordinates": [-0.7961748, 41.5738431]}, "properties": {"rol": "seguidor", "id": "97", "tipo": "Medio sin rotula", "axis_azimuth": 0, "punto": "eje de unidad (no el motor)", "ncu": 2, "gw": 2, "desig": "2.17.97", "axis_tilt": 0, "max_angle": 55, "backtrack": true, "gcr": 0.397, "cross_axis_tilt": 0}}, {"type": "Feature", "geometry": {"type": "Point", "coordinates": [-0.8019731, 41.5768724]}, "properties": {"rol": "seguidor", "id": "1", "tipo": "Exterior sin rótula", "axis_azimuth": 0, "punto": "eje de unidad (no el motor)", "ncu": 1, "gw": 1, "desig": "1.1.1", "axis_tilt": 0, "max_angle": 55, "backtrack": true, "gcr": 0.397, "cross_axis_tilt": 0}}, {"type": "Feature", "geometry": {"type": "Point", "coordinates": [-0.7998572, 41.5756017]}, "properties": {"rol": "seguidor", "id": "12", "tipo": "Exterior sin rótula", "axis_azimuth": 0, "punto": "eje de unidad (no el motor)", "ncu": 2, "gw": 1, "desig": "2.2.12", "axis_tilt": 0, "max_angle": 55, "backtrack": true, "gcr": 0.397, "cross_axis_tilt": 0}}, {"type": "Feature", "geometry": {"type": "Point", "coordinates": [-0.7985825, 41.5749919]}, "properties": {"rol": "seguidor", "id": "33", "tipo": "Exterior sin rótula", "axis_azimuth": 0, "punto": "eje de unidad (no el motor)", "ncu": 2, "gw": 1, "desig": "2.6.33", "axis_tilt": 0, "max_angle": 55, "backtrack": true, "gcr": 0.397, "cross_axis_tilt": 0}}, {"type": "Feature", "geometry": {"type": "Point", "coordinates": [-0.7973105, 41.574306]}, "properties": {"rol": "seguidor", "id": "63", "tipo": "Exterior sin rótula", "axis_azimuth": 0, "punto": "eje de unidad (no el motor)", "ncu": 2, "gw": 2, "desig": "2.16.63", "axis_tilt": 0, "max_angle": 55, "backtrack": true, "gcr": 0.397, "cross_axis_tilt": 0}}, {"type": "Feature", "geometry": {"type": "Point", "coordinates": [-0.8009881, 41.5762087]}, "properties": {"rol": "seguidor", "id": "3", "tipo": "Exterior sin rótula", "axis_azimuth": 0, "punto": "eje de unidad (no el motor)", "ncu": 2, "gw": 1, "desig": "2.1.3", "axis_tilt": 0, "max_angle": 55, "backtrack": true, "gcr": 0.397, "cross_axis_tilt": 0}}, {"type": "Feature", "geometry": {"type": "Point", "coordinates": [-0.7956242, 41.5773361]}, "properties": {"rol": "seguidor", "id": "108", "tipo": "Exterior sin rótula", "axis_azimuth": 0, "punto": "eje de unidad (no el motor)", "ncu": 1, "gw": 2, "desig": "1.18.108", "axis_tilt": 0, "max_angle": 55, "backtrack": true, "gcr": 0.397, "cross_axis_tilt": 0}}, {"type": "Feature", "geometry": {"type": "Point", "coordinates": [-0.7966112, 41.5779404]}, "properties": {"rol": "seguidor", "id": "87", "tipo": "Exterior con rótula", "axis_azimuth": 0, "punto": "eje de unidad (no el motor)", "ncu": 1, "gw": 2, "desig": "1.15.87", "axis_tilt": 0, "max_angle": 55, "backtrack": true, "gcr": 0.397, "cross_axis_tilt": 0}}, {"type": "Feature", "geometry": {"type": "Point", "coordinates": [-0.7989127, 41.5779845]}, "properties": {"rol": "seguidor", "id": "39", "tipo": "Exterior con rótula", "axis_azimuth": 0, "punto": "eje de unidad (no el motor)", "ncu": 1, "gw": 1, "desig": "1.7.39", "axis_tilt": 0, "max_angle": 55, "backtrack": true, "gcr": 0.397, "cross_axis_tilt": 0}}, {"type": "Feature", "geometry": {"type": "Point", "coordinates": [-0.8010902, 41.5774408]}, "properties": {"rol": "seguidor", "id": "9", "tipo": "Exterior con rótula", "axis_azimuth": 0, "punto": "eje de unidad (no el motor)", "ncu": 1, "gw": 1, "desig": "1.2.9", "axis_tilt": 0, "max_angle": 55, "backtrack": true, "gcr": 0.397, "cross_axis_tilt": 0}}, {"type": "Feature", "geometry": {"type": "Point", "coordinates": [-0.7957879, 41.5767539]}, "properties": {"rol": "seguidor", "id": "107", "tipo": "Exterior con rótula", "axis_azimuth": 0, "punto": "eje de unidad (no el motor)", "ncu": 1, "gw": 2, "desig": "1.18.107", "axis_tilt": 0, "max_angle": 55, "backtrack": true, "gcr": 0.397, "cross_axis_tilt": 0}}, {"type": "Feature", "geometry": {"type": "Point", "coordinates": [-0.7960975, 41.576115]}, "properties": {"rol": "seguidor", "id": "93", "tipo": "Exterior con rótula", "axis_azimuth": 0, "punto": "eje de unidad (no el motor)", "ncu": 2, "gw": 2, "desig": "2.14.93", "axis_tilt": 0, "max_angle": 55, "backtrack": true, "gcr": 0.397, "cross_axis_tilt": 0}}, {"type": "Feature", "geometry": {"type": "Point", "coordinates": [-0.7958298, 41.5755245]}, "properties": {"rol": "seguidor", "id": "102", "tipo": "Exterior con rótula", "axis_azimuth": 0, "punto": "eje de unidad (no el motor)", "ncu": 2, "gw": 2, "desig": "2.15.102", "axis_tilt": 0, "max_angle": 55, "backtrack": true, "gcr": 0.397, "cross_axis_tilt": 0}}, {"type": "Feature", "geometry": {"type": "Point", "coordinates": [-0.7958497, 41.5749395]}, "properties": {"rol": "seguidor", "id": "103", "tipo": "Exterior con rótula", "axis_azimuth": 0, "punto": "eje de unidad (no el motor)", "ncu": 2, "gw": 2, "desig": "2.15.103", "axis_tilt": 0, "max_angle": 55, "backtrack": true, "gcr": 0.397, "cross_axis_tilt": 0}}, {"type": "Feature", "geometry": {"type": "Point", "coordinates": [-0.7957283, 41.5742757]}, "properties": {"rol": "seguidor", "id": "106", "tipo": "Exterior con rótula", "axis_azimuth": 0, "punto": "eje de unidad (no el motor)", "ncu": 2, "gw": 2, "desig": "2.18.106", "axis_tilt": 0, "max_angle": 55, "backtrack": true, "gcr": 0.397, "cross_axis_tilt": 0}}, {"type": "Feature", "geometry": {"type": "Point", "coordinates": [-0.7957482, 41.5736907]}, "properties": {"rol": "seguidor", "id": "107", "tipo": "Exterior con rótula", "axis_azimuth": 0, "punto": "eje de unidad (no el motor)", "ncu": 2, "gw": 2, "desig": "2.18.107", "axis_tilt": 0, "max_angle": 55, "backtrack": true, "gcr": 0.397, "cross_axis_tilt": 0}}, {"type": "Feature", "geometry": {"type": "Point", "coordinates": [-0.7960359, 41.5736963]}, "properties": {"rol": "seguidor", "id": "101", "tipo": "Exterior con rótula", "axis_azimuth": 0, "punto": "eje de unidad (no el motor)", "ncu": 2, "gw": 2, "desig": "2.18.101", "axis_tilt": 0, "max_angle": 55, "backtrack": true, "gcr": 0.397, "cross_axis_tilt": 0}}, {"type": "Feature", "geometry": {"type": "Point", "coordinates": [-0.7983771, 41.5768035]}, "properties": {"rol": "seguidor", "id": "53", "tipo": "Exterior sin rótula", "axis_azimuth": 0, "punto": "eje de unidad (no el motor)", "ncu": 1, "gw": 1, "desig": "1.9.53", "axis_tilt": 0, "max_angle": 55, "backtrack": true, "gcr": 0.397, "cross_axis_tilt": 0}}, {"type": "Feature", "geometry": {"type": "Point", "coordinates": [-0.7979455, 41.5767953]}, "properties": {"rol": "seguidor", "id": "62", "tipo": "Exterior sin rótula", "axis_azimuth": 0, "punto": "eje de unidad (no el motor)", "ncu": 1, "gw": 2, "desig": "1.11.62", "axis_tilt": 0, "max_angle": 55, "backtrack": true, "gcr": 0.397, "cross_axis_tilt": 0}}, {"type": "Feature", "geometry": {"type": "Point", "coordinates": [-0.795892, 41.5736935]}, "properties": {"rol": "seguidor", "id": "105", "tipo": "Interior con rótula", "axis_azimuth": 0, "punto": "eje de unidad (no el motor)", "ncu": 2, "gw": 2, "desig": "2.18.105", "axis_tilt": 0, "max_angle": 55, "backtrack": true, "gcr": 0.397, "cross_axis_tilt": 0}}, {"type": "Feature", "geometry": {"type": "Point", "coordinates": [-0.7959935, 41.5749423]}, "properties": {"rol": "seguidor", "id": "99", "tipo": "Interior con rótula", "axis_azimuth": 0, "punto": "eje de unidad (no el motor)", "ncu": 2, "gw": 2, "desig": "2.15.99", "axis_tilt": 0, "max_angle": 55, "backtrack": true, "gcr": 0.397, "cross_axis_tilt": 0}}, {"type": "Feature", "geometry": {"type": "Point", "coordinates": [-0.796425, 41.5749506]}, "properties": {"rol": "seguidor", "id": "86", "tipo": "Interior con rótula", "axis_azimuth": 0, "punto": "eje de unidad (no el motor)", "ncu": 2, "gw": 2, "desig": "2.13.86", "axis_tilt": 0, "max_angle": 55, "backtrack": true, "gcr": 0.397, "cross_axis_tilt": 0}}, {"type": "Feature", "geometry": {"type": "Point", "coordinates": [-0.7965688, 41.5749533]}, "properties": {"rol": "seguidor", "id": "82", "tipo": "Interior con rótula", "axis_azimuth": 0, "punto": "eje de unidad (no el motor)", "ncu": 2, "gw": 2, "desig": "2.13.82", "axis_tilt": 0, "max_angle": 55, "backtrack": true, "gcr": 0.397, "cross_axis_tilt": 0}}, {"type": "Feature", "geometry": {"type": "Point", "coordinates": [-0.7967127, 41.5749561]}, "properties": {"rol": "seguidor", "id": "78", "tipo": "Interior con rótula", "axis_azimuth": 0, "punto": "eje de unidad (no el motor)", "ncu": 2, "gw": 2, "desig": "2.12.78", "axis_tilt": 0, "max_angle": 55, "backtrack": true, "gcr": 0.397, "cross_axis_tilt": 0}}, {"type": "Feature", "geometry": {"type": "Point", "coordinates": [-0.7968565, 41.5749589]}, "properties": {"rol": "seguidor", "id": "74", "tipo": "Interior con rótula", "axis_azimuth": 0, "punto": "eje de unidad (no el motor)", "ncu": 2, "gw": 2, "desig": "2.12.74", "axis_tilt": 0, "max_angle": 55, "backtrack": true, "gcr": 0.397, "cross_axis_tilt": 0}}, {"type": "Feature", "geometry": {"type": "Point", "coordinates": [-0.7970003, 41.5749616]}, "properties": {"rol": "seguidor", "id": "70", "tipo": "Interior con rótula", "axis_azimuth": 0, "punto": "eje de unidad (no el motor)", "ncu": 2, "gw": 2, "desig": "2.11.70", "axis_tilt": 0, "max_angle": 55, "backtrack": true, "gcr": 0.397, "cross_axis_tilt": 0}}, {"type": "Feature", "geometry": {"type": "Point", "coordinates": [-0.7971442, 41.5749644]}, "properties": {"rol": "seguidor", "id": "66", "tipo": "Interior con rótula", "axis_azimuth": 0, "punto": "eje de unidad (no el motor)", "ncu": 2, "gw": 2, "desig": "2.11.66", "axis_tilt": 0, "max_angle": 55, "backtrack": true, "gcr": 0.397, "cross_axis_tilt": 0}}, {"type": "Feature", "geometry": {"type": "Point", "coordinates": [-0.797288, 41.5749671]}, "properties": {"rol": "seguidor", "id": "62", "tipo": "Interior con rótula", "axis_azimuth": 0, "punto": "eje de unidad (no el motor)", "ncu": 2, "gw": 2, "desig": "2.10.62", "axis_tilt": 0, "max_angle": 55, "backtrack": true, "gcr": 0.397, "cross_axis_tilt": 0}}, {"type": "Feature", "geometry": {"type": "Point", "coordinates": [-0.7959736, 41.5755273]}, "properties": {"rol": "seguidor", "id": "98", "tipo": "Interior con rótula", "axis_azimuth": 0, "punto": "eje de unidad (no el motor)", "ncu": 2, "gw": 2, "desig": "2.15.98", "axis_tilt": 0, "max_angle": 55, "backtrack": true, "gcr": 0.397, "cross_axis_tilt": 0}}, {"type": "Feature", "geometry": {"type": "Point", "coordinates": [-0.7966928, 41.575541]}, "properties": {"rol": "seguidor", "id": "77", "tipo": "Interior con rótula", "axis_azimuth": 0, "punto": "eje de unidad (no el motor)", "ncu": 2, "gw": 2, "desig": "2.12.77", "axis_tilt": 0, "max_angle": 55, "backtrack": true, "gcr": 0.397, "cross_axis_tilt": 0}}, {"type": "Feature", "geometry": {"type": "Point", "coordinates": [-0.7968366, 41.5755438]}, "properties": {"rol": "seguidor", "id": "73", "tipo": "Interior con rótula", "axis_azimuth": 0, "punto": "eje de unidad (no el motor)", "ncu": 2, "gw": 2, "desig": "2.12.73", "axis_tilt": 0, "max_angle": 55, "backtrack": true, "gcr": 0.397, "cross_axis_tilt": 0}}, {"type": "Feature", "geometry": {"type": "Point", "coordinates": [-0.7969805, 41.5755466]}, "properties": {"rol": "seguidor", "id": "69", "tipo": "Interior con rótula", "axis_azimuth": 0, "punto": "eje de unidad (no el motor)", "ncu": 2, "gw": 2, "desig": "2.11.69", "axis_tilt": 0, "max_angle": 55, "backtrack": true, "gcr": 0.397, "cross_axis_tilt": 0}}, {"type": "Feature", "geometry": {"type": "Point", "coordinates": [-0.7971243, 41.5755493]}, "properties": {"rol": "seguidor", "id": "65", "tipo": "Interior con rótula", "axis_azimuth": 0, "punto": "eje de unidad (no el motor)", "ncu": 2, "gw": 2, "desig": "2.11.65", "axis_tilt": 0, "max_angle": 55, "backtrack": true, "gcr": 0.397, "cross_axis_tilt": 0}}, {"type": "Feature", "geometry": {"type": "Point", "coordinates": [-0.7972681, 41.5755521]}, "properties": {"rol": "seguidor", "id": "61", "tipo": "Interior con rótula", "axis_azimuth": 0, "punto": "eje de unidad (no el motor)", "ncu": 2, "gw": 2, "desig": "2.10.61", "axis_tilt": 0, "max_angle": 55, "backtrack": true, "gcr": 0.397, "cross_axis_tilt": 0}}, {"type": "Feature", "geometry": {"type": "Point", "coordinates": [-0.797412, 41.5755548]}, "properties": {"rol": "seguidor", "id": "57", "tipo": "Interior con rótula", "axis_azimuth": 0, "punto": "eje de unidad (no el motor)", "ncu": 2, "gw": 2, "desig": "2.10.57", "axis_tilt": 0, "max_angle": 55, "backtrack": true, "gcr": 0.397, "cross_axis_tilt": 0}}, {"type": "Feature", "geometry": {"type": "Point", "coordinates": [-0.7975558, 41.5755576]}, "properties": {"rol": "seguidor", "id": "53", "tipo": "Interior con rótula", "axis_azimuth": 0, "punto": "eje de unidad (no el motor)", "ncu": 2, "gw": 2, "desig": "2.9.53", "axis_tilt": 0, "max_angle": 55, "backtrack": true, "gcr": 0.397, "cross_axis_tilt": 0}}, {"type": "Feature", "geometry": {"type": "Point", "coordinates": [-0.7976996, 41.5755603]}, "properties": {"rol": "seguidor", "id": "50", "tipo": "Interior con rótula", "axis_azimuth": 0, "punto": "eje de unidad (no el motor)", "ncu": 2, "gw": 2, "desig": "2.9.50", "axis_tilt": 0, "max_angle": 55, "backtrack": true, "gcr": 0.397, "cross_axis_tilt": 0}}, {"type": "Feature", "geometry": {"type": "Point", "coordinates": [-0.7962414, 41.5761177]}, "properties": {"rol": "seguidor", "id": "88", "tipo": "Interior con rótula", "axis_azimuth": 0, "punto": "eje de unidad (no el motor)", "ncu": 2, "gw": 2, "desig": "2.14.88", "axis_tilt": 0, "max_angle": 55, "backtrack": true, "gcr": 0.397, "cross_axis_tilt": 0}}, {"type": "Feature", "geometry": {"type": "Point", "coordinates": [-0.7963852, 41.5761205]}, "properties": {"rol": "seguidor", "id": "84", "tipo": "Interior con rótula", "axis_azimuth": 0, "punto": "eje de unidad (no el motor)", "ncu": 2, "gw": 2, "desig": "2.13.84", "axis_tilt": 0, "max_angle": 55, "backtrack": true, "gcr": 0.397, "cross_axis_tilt": 0}}, {"type": "Feature", "geometry": {"type": "Point", "coordinates": [-0.796529, 41.5761232]}, "properties": {"rol": "seguidor", "id": "80", "tipo": "Interior con rótula", "axis_azimuth": 0, "punto": "eje de unidad (no el motor)", "ncu": 2, "gw": 2, "desig": "2.13.80", "axis_tilt": 0, "max_angle": 55, "backtrack": true, "gcr": 0.397, "cross_axis_tilt": 0}}, {"type": "Feature", "geometry": {"type": "Point", "coordinates": [-0.7966729, 41.576126]}, "properties": {"rol": "seguidor", "id": "76", "tipo": "Interior con rótula", "axis_azimuth": 0, "punto": "eje de unidad (no el motor)", "ncu": 2, "gw": 2, "desig": "2.12.76", "axis_tilt": 0, "max_angle": 55, "backtrack": true, "gcr": 0.397, "cross_axis_tilt": 0}}, {"type": "Feature", "geometry": {"type": "Point", "coordinates": [-0.7985428, 41.5761618]}, "properties": {"rol": "seguidor", "id": "31", "tipo": "Interior con rótula", "axis_azimuth": 0, "punto": "eje de unidad (no el motor)", "ncu": 2, "gw": 1, "desig": "2.6.31", "axis_tilt": 0, "max_angle": 55, "backtrack": true, "gcr": 0.397, "cross_axis_tilt": 0}}, {"type": "Feature", "geometry": {"type": "Point", "coordinates": [-0.7986866, 41.5761646]}, "properties": {"rol": "seguidor", "id": "28", "tipo": "Interior con rótula", "axis_azimuth": 0, "punto": "eje de unidad (no el motor)", "ncu": 2, "gw": 1, "desig": "2.5.28", "axis_tilt": 0, "max_angle": 55, "backtrack": true, "gcr": 0.397, "cross_axis_tilt": 0}}, {"type": "Feature", "geometry": {"type": "Point", "coordinates": [-0.7988305, 41.5761673]}, "properties": {"rol": "seguidor", "id": "25", "tipo": "Interior con rótula", "axis_azimuth": 0, "punto": "eje de unidad (no el motor)", "ncu": 2, "gw": 1, "desig": "2.5.25", "axis_tilt": 0, "max_angle": 55, "backtrack": true, "gcr": 0.397, "cross_axis_tilt": 0}}, {"type": "Feature", "geometry": {"type": "Point", "coordinates": [-0.7989743, 41.5761701]}, "properties": {"rol": "seguidor", "id": "23", "tipo": "Interior con rótula", "axis_azimuth": 0, "punto": "eje de unidad (no el motor)", "ncu": 2, "gw": 1, "desig": "2.4.23", "axis_tilt": 0, "max_angle": 55, "backtrack": true, "gcr": 0.397, "cross_axis_tilt": 0}}, {"type": "Feature", "geometry": {"type": "Point", "coordinates": [-0.7991181, 41.5761729]}, "properties": {"rol": "seguidor", "id": "21", "tipo": "Interior con rótula", "axis_azimuth": 0, "punto": "eje de unidad (no el motor)", "ncu": 2, "gw": 1, "desig": "2.4.21", "axis_tilt": 0, "max_angle": 55, "backtrack": true, "gcr": 0.397, "cross_axis_tilt": 0}}, {"type": "Feature", "geometry": {"type": "Point", "coordinates": [-0.799262, 41.5761756]}, "properties": {"rol": "seguidor", "id": "19", "tipo": "Interior con rótula", "axis_azimuth": 0, "punto": "eje de unidad (no el motor)", "ncu": 2, "gw": 1, "desig": "2.4.19", "axis_tilt": 0, "max_angle": 55, "backtrack": true, "gcr": 0.397, "cross_axis_tilt": 0}}, {"type": "Feature", "geometry": {"type": "Point", "coordinates": [-0.7994058, 41.5761784]}, "properties": {"rol": "seguidor", "id": "17", "tipo": "Interior con rótula", "axis_azimuth": 0, "punto": "eje de unidad (no el motor)", "ncu": 2, "gw": 1, "desig": "2.3.17", "axis_tilt": 0, "max_angle": 55, "backtrack": true, "gcr": 0.397, "cross_axis_tilt": 0}}, {"type": "Feature", "geometry": {"type": "Point", "coordinates": [-0.7995497, 41.5761811]}, "properties": {"rol": "seguidor", "id": "15", "tipo": "Interior con rótula", "axis_azimuth": 0, "punto": "eje de unidad (no el motor)", "ncu": 2, "gw": 1, "desig": "2.3.15", "axis_tilt": 0, "max_angle": 55, "backtrack": true, "gcr": 0.397, "cross_axis_tilt": 0}}, {"type": "Feature", "geometry": {"type": "Point", "coordinates": [-0.7996935, 41.5761839]}, "properties": {"rol": "seguidor", "id": "13", "tipo": "Interior con rótula", "axis_azimuth": 0, "punto": "eje de unidad (no el motor)", "ncu": 2, "gw": 1, "desig": "2.3.13", "axis_tilt": 0, "max_angle": 55, "backtrack": true, "gcr": 0.397, "cross_axis_tilt": 0}}, {"type": "Feature", "geometry": {"type": "Point", "coordinates": [-0.7998373, 41.5761866]}, "properties": {"rol": "seguidor", "id": "11", "tipo": "Interior con rótula", "axis_azimuth": 0, "punto": "eje de unidad (no el motor)", "ncu": 2, "gw": 1, "desig": "2.2.11", "axis_tilt": 0, "max_angle": 55, "backtrack": true, "gcr": 0.397, "cross_axis_tilt": 0}}, {"type": "Feature", "geometry": {"type": "Point", "coordinates": [-0.7999812, 41.5761894]}, "properties": {"rol": "seguidor", "id": "10", "tipo": "Interior con rótula", "axis_azimuth": 0, "punto": "eje de unidad (no el motor)", "ncu": 2, "gw": 1, "desig": "2.2.10", "axis_tilt": 0, "max_angle": 55, "backtrack": true, "gcr": 0.397, "cross_axis_tilt": 0}}, {"type": "Feature", "geometry": {"type": "Point", "coordinates": [-0.7998155, 41.5768311]}, "properties": {"rol": "seguidor", "id": "28", "tipo": "Interior con rótula", "axis_azimuth": 0, "punto": "eje de unidad (no el motor)", "ncu": 1, "gw": 1, "desig": "1.5.28", "axis_tilt": 0, "max_angle": 55, "backtrack": true, "gcr": 0.397, "cross_axis_tilt": 0}}, {"type": "Feature", "geometry": {"type": "Point", "coordinates": [-0.7999593, 41.5768338]}, "properties": {"rol": "seguidor", "id": "26", "tipo": "Interior con rótula", "axis_azimuth": 0, "punto": "eje de unidad (no el motor)", "ncu": 1, "gw": 1, "desig": "1.5.26", "axis_tilt": 0, "max_angle": 55, "backtrack": true, "gcr": 0.397, "cross_axis_tilt": 0}}, {"type": "Feature", "geometry": {"type": "Point", "coordinates": [-0.8001031, 41.5768366]}, "properties": {"rol": "seguidor", "id": "24", "tipo": "Interior con rótula", "axis_azimuth": 0, "punto": "eje de unidad (no el motor)", "ncu": 1, "gw": 1, "desig": "1.4.24", "axis_tilt": 0, "max_angle": 55, "backtrack": true, "gcr": 0.397, "cross_axis_tilt": 0}}, {"type": "Feature", "geometry": {"type": "Point", "coordinates": [-0.800247, 41.5768393]}, "properties": {"rol": "seguidor", "id": "22", "tipo": "Interior con rótula", "axis_azimuth": 0, "punto": "eje de unidad (no el motor)", "ncu": 1, "gw": 1, "desig": "1.4.22", "axis_tilt": 0, "max_angle": 55, "backtrack": true, "gcr": 0.397, "cross_axis_tilt": 0}}, {"type": "Feature", "geometry": {"type": "Point", "coordinates": [-0.8003908, 41.5768421]}, "properties": {"rol": "seguidor", "id": "20", "tipo": "Interior con rótula", "axis_azimuth": 0, "punto": "eje de unidad (no el motor)", "ncu": 1, "gw": 1, "desig": "1.4.20", "axis_tilt": 0, "max_angle": 55, "backtrack": true, "gcr": 0.397, "cross_axis_tilt": 0}}, {"type": "Feature", "geometry": {"type": "Point", "coordinates": [-0.8005347, 41.5768448]}, "properties": {"rol": "seguidor", "id": "18", "tipo": "Interior con rótula", "axis_azimuth": 0, "punto": "eje de unidad (no el motor)", "ncu": 1, "gw": 1, "desig": "1.3.18", "axis_tilt": 0, "max_angle": 55, "backtrack": true, "gcr": 0.397, "cross_axis_tilt": 0}}, {"type": "Feature", "geometry": {"type": "Point", "coordinates": [-0.8006785, 41.5768476]}, "properties": {"rol": "seguidor", "id": "16", "tipo": "Interior con rótula", "axis_azimuth": 0, "punto": "eje de unidad (no el motor)", "ncu": 1, "gw": 1, "desig": "1.3.16", "axis_tilt": 0, "max_angle": 55, "backtrack": true, "gcr": 0.397, "cross_axis_tilt": 0}}, {"type": "Feature", "geometry": {"type": "Point", "coordinates": [-0.7959318, 41.5767567]}, "properties": {"rol": "seguidor", "id": "104", "tipo": "Interior con rótula", "axis_azimuth": 0, "punto": "eje de unidad (no el motor)", "ncu": 1, "gw": 2, "desig": "1.18.104", "axis_tilt": 0, "max_angle": 55, "backtrack": true, "gcr": 0.397, "cross_axis_tilt": 0}}, {"type": "Feature", "geometry": {"type": "Point", "coordinates": [-0.7962195, 41.5767622]}, "properties": {"rol": "seguidor", "id": "98", "tipo": "Interior con rótula", "axis_azimuth": 0, "punto": "eje de unidad (no el motor)", "ncu": 1, "gw": 2, "desig": "1.17.98", "axis_tilt": 0, "max_angle": 55, "backtrack": true, "gcr": 0.397, "cross_axis_tilt": 0}}, {"type": "Feature", "geometry": {"type": "Point", "coordinates": [-0.7963633, 41.5767649]}, "properties": {"rol": "seguidor", "id": "95", "tipo": "Interior con rótula", "axis_azimuth": 0, "punto": "eje de unidad (no el motor)", "ncu": 1, "gw": 2, "desig": "1.16.95", "axis_tilt": 0, "max_angle": 55, "backtrack": true, "gcr": 0.397, "cross_axis_tilt": 0}}, {"type": "Feature", "geometry": {"type": "Point", "coordinates": [-0.7965071, 41.5767677]}, "properties": {"rol": "seguidor", "id": "92", "tipo": "Interior con rótula", "axis_azimuth": 0, "punto": "eje de unidad (no el motor)", "ncu": 1, "gw": 2, "desig": "1.16.92", "axis_tilt": 0, "max_angle": 55, "backtrack": true, "gcr": 0.397, "cross_axis_tilt": 0}}, {"type": "Feature", "geometry": {"type": "Point", "coordinates": [-0.796651, 41.5767704]}, "properties": {"rol": "seguidor", "id": "89", "tipo": "Interior con rótula", "axis_azimuth": 0, "punto": "eje de unidad (no el motor)", "ncu": 1, "gw": 2, "desig": "1.15.89", "axis_tilt": 0, "max_angle": 55, "backtrack": true, "gcr": 0.397, "cross_axis_tilt": 0}}, {"type": "Feature", "geometry": {"type": "Point", "coordinates": [-0.7967948, 41.5767732]}, "properties": {"rol": "seguidor", "id": "86", "tipo": "Interior con rótula", "axis_azimuth": 0, "punto": "eje de unidad (no el motor)", "ncu": 1, "gw": 2, "desig": "1.15.86", "axis_tilt": 0, "max_angle": 55, "backtrack": true, "gcr": 0.397, "cross_axis_tilt": 0}}, {"type": "Feature", "geometry": {"type": "Point", "coordinates": [-0.7969387, 41.576776]}, "properties": {"rol": "seguidor", "id": "83", "tipo": "Interior con rótula", "axis_azimuth": 0, "punto": "eje de unidad (no el motor)", "ncu": 1, "gw": 2, "desig": "1.14.83", "axis_tilt": 0, "max_angle": 55, "backtrack": true, "gcr": 0.397, "cross_axis_tilt": 0}}, {"type": "Feature", "geometry": {"type": "Point", "coordinates": [-0.8009463, 41.5774381]}, "properties": {"rol": "seguidor", "id": "11", "tipo": "Interior con rótula", "axis_azimuth": 0, "punto": "eje de unidad (no el motor)", "ncu": 1, "gw": 1, "desig": "1.2.11", "axis_tilt": 0, "max_angle": 55, "backtrack": true, "gcr": 0.397, "cross_axis_tilt": 0}}, {"type": "Feature", "geometry": {"type": "Point", "coordinates": [-0.8008025, 41.5774353]}, "properties": {"rol": "seguidor", "id": "13", "tipo": "Interior con rótula", "axis_azimuth": 0, "punto": "eje de unidad (no el motor)", "ncu": 1, "gw": 1, "desig": "1.3.13", "axis_tilt": 0, "max_angle": 55, "backtrack": true, "gcr": 0.397, "cross_axis_tilt": 0}}, {"type": "Feature", "geometry": {"type": "Point", "coordinates": [-0.8006587, 41.5774325]}, "properties": {"rol": "seguidor", "id": "15", "tipo": "Interior con rótula", "axis_azimuth": 0, "punto": "eje de unidad (no el motor)", "ncu": 1, "gw": 1, "desig": "1.3.15", "axis_tilt": 0, "max_angle": 55, "backtrack": true, "gcr": 0.397, "cross_axis_tilt": 0}}, {"type": "Feature", "geometry": {"type": "Point", "coordinates": [-0.7974941, 41.5773719]}, "properties": {"rol": "seguidor", "id": "70", "tipo": "Interior con rótula", "axis_azimuth": 0, "punto": "eje de unidad (no el motor)", "ncu": 1, "gw": 2, "desig": "1.12.70", "axis_tilt": 0, "max_angle": 55, "backtrack": true, "gcr": 0.397, "cross_axis_tilt": 0}}, {"type": "Feature", "geometry": {"type": "Point", "coordinates": [-0.7973503, 41.5773692]}, "properties": {"rol": "seguidor", "id": "73", "tipo": "Interior con rótula", "axis_azimuth": 0, "punto": "eje de unidad (no el motor)", "ncu": 1, "gw": 2, "desig": "1.13.73", "axis_tilt": 0, "max_angle": 55, "backtrack": true, "gcr": 0.397, "cross_axis_tilt": 0}}, {"type": "Feature", "geometry": {"type": "Point", "coordinates": [-0.7972065, 41.5773664]}, "properties": {"rol": "seguidor", "id": "76", "tipo": "Interior con rótula", "axis_azimuth": 0, "punto": "eje de unidad (no el motor)", "ncu": 1, "gw": 2, "desig": "1.13.76", "axis_tilt": 0, "max_angle": 55, "backtrack": true, "gcr": 0.397, "cross_axis_tilt": 0}}, {"type": "Feature", "geometry": {"type": "Point", "coordinates": [-0.7970626, 41.5773637]}, "properties": {"rol": "seguidor", "id": "79", "tipo": "Interior con rótula", "axis_azimuth": 0, "punto": "eje de unidad (no el motor)", "ncu": 1, "gw": 2, "desig": "1.14.79", "axis_tilt": 0, "max_angle": 55, "backtrack": true, "gcr": 0.397, "cross_axis_tilt": 0}}, {"type": "Feature", "geometry": {"type": "Point", "coordinates": [-0.7969188, 41.5773609]}, "properties": {"rol": "seguidor", "id": "82", "tipo": "Interior con rótula", "axis_azimuth": 0, "punto": "eje de unidad (no el motor)", "ncu": 1, "gw": 2, "desig": "1.14.82", "axis_tilt": 0, "max_angle": 55, "backtrack": true, "gcr": 0.397, "cross_axis_tilt": 0}}, {"type": "Feature", "geometry": {"type": "Point", "coordinates": [-0.7967749, 41.5773582]}, "properties": {"rol": "seguidor", "id": "85", "tipo": "Interior con rótula", "axis_azimuth": 0, "punto": "eje de unidad (no el motor)", "ncu": 1, "gw": 2, "desig": "1.15.85", "axis_tilt": 0, "max_angle": 55, "backtrack": true, "gcr": 0.397, "cross_axis_tilt": 0}}, {"type": "Feature", "geometry": {"type": "Point", "coordinates": [-0.7966311, 41.5773554]}, "properties": {"rol": "seguidor", "id": "88", "tipo": "Interior con rótula", "axis_azimuth": 0, "punto": "eje de unidad (no el motor)", "ncu": 1, "gw": 2, "desig": "1.15.88", "axis_tilt": 0, "max_angle": 55, "backtrack": true, "gcr": 0.397, "cross_axis_tilt": 0}}, {"type": "Feature", "geometry": {"type": "Point", "coordinates": [-0.7964872, 41.5773526]}, "properties": {"rol": "seguidor", "id": "91", "tipo": "Interior con rótula", "axis_azimuth": 0, "punto": "eje de unidad (no el motor)", "ncu": 1, "gw": 2, "desig": "1.16.91", "axis_tilt": 0, "max_angle": 55, "backtrack": true, "gcr": 0.397, "cross_axis_tilt": 0}}, {"type": "Feature", "geometry": {"type": "Point", "coordinates": [-0.7963434, 41.5773499]}, "properties": {"rol": "seguidor", "id": "94", "tipo": "Interior con rótula", "axis_azimuth": 0, "punto": "eje de unidad (no el motor)", "ncu": 1, "gw": 2, "desig": "1.16.94", "axis_tilt": 0, "max_angle": 55, "backtrack": true, "gcr": 0.397, "cross_axis_tilt": 0}}, {"type": "Feature", "geometry": {"type": "Point", "coordinates": [-0.7961996, 41.5773471]}, "properties": {"rol": "seguidor", "id": "97", "tipo": "Interior con rótula", "axis_azimuth": 0, "punto": "eje de unidad (no el motor)", "ncu": 1, "gw": 2, "desig": "1.17.97", "axis_tilt": 0, "max_angle": 55, "backtrack": true, "gcr": 0.397, "cross_axis_tilt": 0}}, {"type": "Feature", "geometry": {"type": "Point", "coordinates": [-0.7960557, 41.5773444]}, "properties": {"rol": "seguidor", "id": "100", "tipo": "Interior con rótula", "axis_azimuth": 0, "punto": "eje de unidad (no el motor)", "ncu": 1, "gw": 2, "desig": "1.17.100", "axis_tilt": 0, "max_angle": 55, "backtrack": true, "gcr": 0.397, "cross_axis_tilt": 0}}, {"type": "Feature", "geometry": {"type": "Point", "coordinates": [-0.796755, 41.5779432]}, "properties": {"rol": "seguidor", "id": "84", "tipo": "Interior con rótula", "axis_azimuth": 0, "punto": "eje de unidad (no el motor)", "ncu": 1, "gw": 2, "desig": "1.15.84", "axis_tilt": 0, "max_angle": 55, "backtrack": true, "gcr": 0.397, "cross_axis_tilt": 0}}, {"type": "Feature", "geometry": {"type": "Point", "coordinates": [-0.7968989, 41.577946]}, "properties": {"rol": "seguidor", "id": "81", "tipo": "Interior con rótula", "axis_azimuth": 0, "punto": "eje de unidad (no el motor)", "ncu": 1, "gw": 2, "desig": "1.14.81", "axis_tilt": 0, "max_angle": 55, "backtrack": true, "gcr": 0.397, "cross_axis_tilt": 0}}, {"type": "Feature", "geometry": {"type": "Point", "coordinates": [-0.7970427, 41.5779487]}, "properties": {"rol": "seguidor", "id": "78", "tipo": "Interior con rótula", "axis_azimuth": 0, "punto": "eje de unidad (no el motor)", "ncu": 1, "gw": 2, "desig": "1.14.78", "axis_tilt": 0, "max_angle": 55, "backtrack": true, "gcr": 0.397, "cross_axis_tilt": 0}}, {"type": "Feature", "geometry": {"type": "Point", "coordinates": [-0.7973304, 41.5779542]}, "properties": {"rol": "seguidor", "id": "72", "tipo": "Interior con rótula", "axis_azimuth": 0, "punto": "eje de unidad (no el motor)", "ncu": 1, "gw": 2, "desig": "1.13.72", "axis_tilt": 0, "max_angle": 55, "backtrack": true, "gcr": 0.397, "cross_axis_tilt": 0}}, {"type": "Feature", "geometry": {"type": "Point", "coordinates": [-0.7974742, 41.577957]}, "properties": {"rol": "seguidor", "id": "69", "tipo": "Interior con rótula", "axis_azimuth": 0, "punto": "eje de unidad (no el motor)", "ncu": 1, "gw": 2, "desig": "1.12.69", "axis_tilt": 0, "max_angle": 55, "backtrack": true, "gcr": 0.397, "cross_axis_tilt": 0}}, {"type": "Feature", "geometry": {"type": "Point", "coordinates": [-0.7979058, 41.5779653]}, "properties": {"rol": "seguidor", "id": "60", "tipo": "Interior con rótula", "axis_azimuth": 0, "punto": "eje de unidad (no el motor)", "ncu": 1, "gw": 2, "desig": "1.11.60", "axis_tilt": 0, "max_angle": 55, "backtrack": true, "gcr": 0.397, "cross_axis_tilt": 0}}, {"type": "Feature", "geometry": {"type": "Point", "coordinates": [-0.7987688, 41.5779818]}, "properties": {"rol": "seguidor", "id": "42", "tipo": "Interior sin rótula", "axis_azimuth": 0, "punto": "eje de unidad (no el motor)", "ncu": 1, "gw": 1, "desig": "1.8.42", "axis_tilt": 0, "max_angle": 55, "backtrack": true, "gcr": 0.397, "cross_axis_tilt": 0}}, {"type": "Feature", "geometry": {"type": "Point", "coordinates": [-0.798625, 41.577979]}, "properties": {"rol": "seguidor", "id": "45", "tipo": "Interior sin rótula", "axis_azimuth": 0, "punto": "eje de unidad (no el motor)", "ncu": 1, "gw": 1, "desig": "1.8.45", "axis_tilt": 0, "max_angle": 55, "backtrack": true, "gcr": 0.397, "cross_axis_tilt": 0}}, {"type": "Feature", "geometry": {"type": "Point", "coordinates": [-0.7984811, 41.5779763]}, "properties": {"rol": "seguidor", "id": "48", "tipo": "Interior sin rótula", "axis_azimuth": 0, "punto": "eje de unidad (no el motor)", "ncu": 1, "gw": 1, "desig": "1.9.48", "axis_tilt": 0, "max_angle": 55, "backtrack": true, "gcr": 0.397, "cross_axis_tilt": 0}}, {"type": "Feature", "geometry": {"type": "Point", "coordinates": [-0.7983373, 41.5779735]}, "properties": {"rol": "seguidor", "id": "51", "tipo": "Interior sin rótula", "axis_azimuth": 0, "punto": "eje de unidad (no el motor)", "ncu": 1, "gw": 1, "desig": "1.9.51", "axis_tilt": 0, "max_angle": 55, "backtrack": true, "gcr": 0.397, "cross_axis_tilt": 0}}, {"type": "Feature", "geometry": {"type": "Point", "coordinates": [-0.7981935, 41.5779708]}, "properties": {"rol": "seguidor", "id": "54", "tipo": "Interior sin rótula", "axis_azimuth": 0, "punto": "eje de unidad (no el motor)", "ncu": 1, "gw": 1, "desig": "1.10.54", "axis_tilt": 0, "max_angle": 55, "backtrack": true, "gcr": 0.397, "cross_axis_tilt": 0}}, {"type": "Feature", "geometry": {"type": "Point", "coordinates": [-0.7980496, 41.577968]}, "properties": {"rol": "seguidor", "id": "57", "tipo": "Interior sin rótula", "axis_azimuth": 0, "punto": "eje de unidad (no el motor)", "ncu": 1, "gw": 2, "desig": "1.10.57", "axis_tilt": 0, "max_angle": 55, "backtrack": true, "gcr": 0.397, "cross_axis_tilt": 0}}, {"type": "Feature", "geometry": {"type": "Point", "coordinates": [-0.7977619, 41.5779625]}, "properties": {"rol": "seguidor", "id": "63", "tipo": "Interior sin rótula", "axis_azimuth": 0, "punto": "eje de unidad (no el motor)", "ncu": 1, "gw": 2, "desig": "1.11.63", "axis_tilt": 0, "max_angle": 55, "backtrack": true, "gcr": 0.397, "cross_axis_tilt": 0}}, {"type": "Feature", "geometry": {"type": "Point", "coordinates": [-0.7976181, 41.5779597]}, "properties": {"rol": "seguidor", "id": "66", "tipo": "Interior sin rótula", "axis_azimuth": 0, "punto": "eje de unidad (no el motor)", "ncu": 1, "gw": 2, "desig": "1.12.66", "axis_tilt": 0, "max_angle": 55, "backtrack": true, "gcr": 0.397, "cross_axis_tilt": 0}}, {"type": "Feature", "geometry": {"type": "Point", "coordinates": [-0.7971866, 41.5779515]}, "properties": {"rol": "seguidor", "id": "75", "tipo": "Interior sin rótula", "axis_azimuth": 0, "punto": "eje de unidad (no el motor)", "ncu": 1, "gw": 2, "desig": "1.13.75", "axis_tilt": 0, "max_angle": 55, "backtrack": true, "gcr": 0.397, "cross_axis_tilt": 0}}, {"type": "Feature", "geometry": {"type": "Point", "coordinates": [-0.7959119, 41.5773416]}, "properties": {"rol": "seguidor", "id": "103", "tipo": "Interior sin rótula", "axis_azimuth": 0, "punto": "eje de unidad (no el motor)", "ncu": 1, "gw": 2, "desig": "1.18.103", "axis_tilt": 0, "max_angle": 55, "backtrack": true, "gcr": 0.397, "cross_axis_tilt": 0}}, {"type": "Feature", "geometry": {"type": "Point", "coordinates": [-0.795768, 41.5773389]}, "properties": {"rol": "seguidor", "id": "106", "tipo": "Interior sin rótula", "axis_azimuth": 0, "punto": "eje de unidad (no el motor)", "ncu": 1, "gw": 2, "desig": "1.18.106", "axis_tilt": 0, "max_angle": 55, "backtrack": true, "gcr": 0.397, "cross_axis_tilt": 0}}, {"type": "Feature", "geometry": {"type": "Point", "coordinates": [-0.797638, 41.5773747]}, "properties": {"rol": "seguidor", "id": "67", "tipo": "Interior sin rótula", "axis_azimuth": 0, "punto": "eje de unidad (no el motor)", "ncu": 1, "gw": 2, "desig": "1.12.67", "axis_tilt": 0, "max_angle": 55, "backtrack": true, "gcr": 0.397, "cross_axis_tilt": 0}}, {"type": "Feature", "geometry": {"type": "Point", "coordinates": [-0.7977818, 41.5773775]}, "properties": {"rol": "seguidor", "id": "64", "tipo": "Interior sin rótula", "axis_azimuth": 0, "punto": "eje de unidad (no el motor)", "ncu": 1, "gw": 2, "desig": "1.11.64", "axis_tilt": 0, "max_angle": 55, "backtrack": true, "gcr": 0.397, "cross_axis_tilt": 0}}, {"type": "Feature", "geometry": {"type": "Point", "coordinates": [-0.7979257, 41.5773802]}, "properties": {"rol": "seguidor", "id": "61", "tipo": "Interior sin rótula", "axis_azimuth": 0, "punto": "eje de unidad (no el motor)", "ncu": 1, "gw": 2, "desig": "1.11.61", "axis_tilt": 0, "max_angle": 55, "backtrack": true, "gcr": 0.397, "cross_axis_tilt": 0}}, {"type": "Feature", "geometry": {"type": "Point", "coordinates": [-0.7980695, 41.577383]}, "properties": {"rol": "seguidor", "id": "58", "tipo": "Interior sin rótula", "axis_azimuth": 0, "punto": "eje de unidad (no el motor)", "ncu": 1, "gw": 2, "desig": "1.10.58", "axis_tilt": 0, "max_angle": 55, "backtrack": true, "gcr": 0.397, "cross_axis_tilt": 0}}, {"type": "Feature", "geometry": {"type": "Point", "coordinates": [-0.7982133, 41.5773857]}, "properties": {"rol": "seguidor", "id": "55", "tipo": "Interior sin rótula", "axis_azimuth": 0, "punto": "eje de unidad (no el motor)", "ncu": 1, "gw": 1, "desig": "1.10.55", "axis_tilt": 0, "max_angle": 55, "backtrack": true, "gcr": 0.397, "cross_axis_tilt": 0}}, {"type": "Feature", "geometry": {"type": "Point", "coordinates": [-0.7983572, 41.5773885]}, "properties": {"rol": "seguidor", "id": "52", "tipo": "Interior sin rótula", "axis_azimuth": 0, "punto": "eje de unidad (no el motor)", "ncu": 1, "gw": 1, "desig": "1.9.52", "axis_tilt": 0, "max_angle": 55, "backtrack": true, "gcr": 0.397, "cross_axis_tilt": 0}}, {"type": "Feature", "geometry": {"type": "Point", "coordinates": [-0.798501, 41.5773912]}, "properties": {"rol": "seguidor", "id": "49", "tipo": "Interior sin rótula", "axis_azimuth": 0, "punto": "eje de unidad (no el motor)", "ncu": 1, "gw": 1, "desig": "1.9.49", "axis_tilt": 0, "max_angle": 55, "backtrack": true, "gcr": 0.397, "cross_axis_tilt": 0}}, {"type": "Feature", "geometry": {"type": "Point", "coordinates": [-0.7986449, 41.577394]}, "properties": {"rol": "seguidor", "id": "46", "tipo": "Interior sin rótula", "axis_azimuth": 0, "punto": "eje de unidad (no el motor)", "ncu": 1, "gw": 1, "desig": "1.8.46", "axis_tilt": 0, "max_angle": 55, "backtrack": true, "gcr": 0.397, "cross_axis_tilt": 0}}, {"type": "Feature", "geometry": {"type": "Point", "coordinates": [-0.7987887, 41.5773967]}, "properties": {"rol": "seguidor", "id": "43", "tipo": "Interior sin rótula", "axis_azimuth": 0, "punto": "eje de unidad (no el motor)", "ncu": 1, "gw": 1, "desig": "1.8.43", "axis_tilt": 0, "max_angle": 55, "backtrack": true, "gcr": 0.397, "cross_axis_tilt": 0}}, {"type": "Feature", "geometry": {"type": "Point", "coordinates": [-0.7989326, 41.5773995]}, "properties": {"rol": "seguidor", "id": "40", "tipo": "Interior sin rótula", "axis_azimuth": 0, "punto": "eje de unidad (no el motor)", "ncu": 1, "gw": 1, "desig": "1.7.40", "axis_tilt": 0, "max_angle": 55, "backtrack": true, "gcr": 0.397, "cross_axis_tilt": 0}}, {"type": "Feature", "geometry": {"type": "Point", "coordinates": [-0.7990764, 41.5774023]}, "properties": {"rol": "seguidor", "id": "37", "tipo": "Interior sin rótula", "axis_azimuth": 0, "punto": "eje de unidad (no el motor)", "ncu": 1, "gw": 1, "desig": "1.7.37", "axis_tilt": 0, "max_angle": 55, "backtrack": true, "gcr": 0.397, "cross_axis_tilt": 0}}, {"type": "Feature", "geometry": {"type": "Point", "coordinates": [-0.7992202, 41.577405]}, "properties": {"rol": "seguidor", "id": "35", "tipo": "Interior sin rótula", "axis_azimuth": 0, "punto": "eje de unidad (no el motor)", "ncu": 1, "gw": 1, "desig": "1.6.35", "axis_tilt": 0, "max_angle": 55, "backtrack": true, "gcr": 0.397, "cross_axis_tilt": 0}}, {"type": "Feature", "geometry": {"type": "Point", "coordinates": [-0.7993641, 41.5774078]}, "properties": {"rol": "seguidor", "id": "33", "tipo": "Interior sin rótula", "axis_azimuth": 0, "punto": "eje de unidad (no el motor)", "ncu": 1, "gw": 1, "desig": "1.6.33", "axis_tilt": 0, "max_angle": 55, "backtrack": true, "gcr": 0.397, "cross_axis_tilt": 0}}, {"type": "Feature", "geometry": {"type": "Point", "coordinates": [-0.7995079, 41.5774105]}, "properties": {"rol": "seguidor", "id": "31", "tipo": "Interior sin rótula", "axis_azimuth": 0, "punto": "eje de unidad (no el motor)", "ncu": 1, "gw": 1, "desig": "1.6.31", "axis_tilt": 0, "max_angle": 55, "backtrack": true, "gcr": 0.397, "cross_axis_tilt": 0}}, {"type": "Feature", "geometry": {"type": "Point", "coordinates": [-0.7996518, 41.5774133]}, "properties": {"rol": "seguidor", "id": "29", "tipo": "Interior sin rótula", "axis_azimuth": 0, "punto": "eje de unidad (no el motor)", "ncu": 1, "gw": 1, "desig": "1.5.29", "axis_tilt": 0, "max_angle": 55, "backtrack": true, "gcr": 0.397, "cross_axis_tilt": 0}}, {"type": "Feature", "geometry": {"type": "Point", "coordinates": [-0.7997956, 41.577416]}, "properties": {"rol": "seguidor", "id": "27", "tipo": "Interior sin rótula", "axis_azimuth": 0, "punto": "eje de unidad (no el motor)", "ncu": 1, "gw": 1, "desig": "1.5.27", "axis_tilt": 0, "max_angle": 55, "backtrack": true, "gcr": 0.397, "cross_axis_tilt": 0}}, {"type": "Feature", "geometry": {"type": "Point", "coordinates": [-0.7999394, 41.5774188]}, "properties": {"rol": "seguidor", "id": "25", "tipo": "Interior sin rótula", "axis_azimuth": 0, "punto": "eje de unidad (no el motor)", "ncu": 1, "gw": 1, "desig": "1.5.25", "axis_tilt": 0, "max_angle": 55, "backtrack": true, "gcr": 0.397, "cross_axis_tilt": 0}}, {"type": "Feature", "geometry": {"type": "Point", "coordinates": [-0.8000833, 41.5774215]}, "properties": {"rol": "seguidor", "id": "23", "tipo": "Interior sin rótula", "axis_azimuth": 0, "punto": "eje de unidad (no el motor)", "ncu": 1, "gw": 1, "desig": "1.4.23", "axis_tilt": 0, "max_angle": 55, "backtrack": true, "gcr": 0.397, "cross_axis_tilt": 0}}, {"type": "Feature", "geometry": {"type": "Point", "coordinates": [-0.8002271, 41.5774243]}, "properties": {"rol": "seguidor", "id": "21", "tipo": "Interior sin rótula", "axis_azimuth": 0, "punto": "eje de unidad (no el motor)", "ncu": 1, "gw": 1, "desig": "1.4.21", "axis_tilt": 0, "max_angle": 55, "backtrack": true, "gcr": 0.397, "cross_axis_tilt": 0}}, {"type": "Feature", "geometry": {"type": "Point", "coordinates": [-0.800371, 41.577427]}, "properties": {"rol": "seguidor", "id": "19", "tipo": "Interior sin rótula", "axis_azimuth": 0, "punto": "eje de unidad (no el motor)", "ncu": 1, "gw": 1, "desig": "1.4.19", "axis_tilt": 0, "max_angle": 55, "backtrack": true, "gcr": 0.397, "cross_axis_tilt": 0}}, {"type": "Feature", "geometry": {"type": "Point", "coordinates": [-0.8005148, 41.5774298]}, "properties": {"rol": "seguidor", "id": "17", "tipo": "Interior sin rótula", "axis_azimuth": 0, "punto": "eje de unidad (no el motor)", "ncu": 1, "gw": 1, "desig": "1.3.17", "axis_tilt": 0, "max_angle": 55, "backtrack": true, "gcr": 0.397, "cross_axis_tilt": 0}}, {"type": "Feature", "geometry": {"type": "Point", "coordinates": [-0.8018292, 41.5768696]}, "properties": {"rol": "seguidor", "id": "2", "tipo": "Interior sin rótula", "axis_azimuth": 0, "punto": "eje de unidad (no el motor)", "ncu": 1, "gw": 1, "desig": "1.1.2", "axis_tilt": 0, "max_angle": 55, "backtrack": true, "gcr": 0.397, "cross_axis_tilt": 0}}, {"type": "Feature", "geometry": {"type": "Point", "coordinates": [-0.8016854, 41.5768669]}, "properties": {"rol": "seguidor", "id": "3", "tipo": "Interior sin rótula", "axis_azimuth": 0, "punto": "eje de unidad (no el motor)", "ncu": 1, "gw": 1, "desig": "1.1.3", "axis_tilt": 0, "max_angle": 55, "backtrack": true, "gcr": 0.397, "cross_axis_tilt": 0}}, {"type": "Feature", "geometry": {"type": "Point", "coordinates": [-0.8015416, 41.5768641]}, "properties": {"rol": "seguidor", "id": "4", "tipo": "Interior sin rótula", "axis_azimuth": 0, "punto": "eje de unidad (no el motor)", "ncu": 1, "gw": 1, "desig": "1.1.4", "axis_tilt": 0, "max_angle": 55, "backtrack": true, "gcr": 0.397, "cross_axis_tilt": 0}}, {"type": "Feature", "geometry": {"type": "Point", "coordinates": [-0.8013977, 41.5768614]}, "properties": {"rol": "seguidor", "id": "6", "tipo": "Interior sin rótula", "axis_azimuth": 0, "punto": "eje de unidad (no el motor)", "ncu": 1, "gw": 1, "desig": "1.1.6", "axis_tilt": 0, "max_angle": 55, "backtrack": true, "gcr": 0.397, "cross_axis_tilt": 0}}, {"type": "Feature", "geometry": {"type": "Point", "coordinates": [-0.8012539, 41.5768586]}, "properties": {"rol": "seguidor", "id": "8", "tipo": "Interior sin rótula", "axis_azimuth": 0, "punto": "eje de unidad (no el motor)", "ncu": 1, "gw": 1, "desig": "1.2.8", "axis_tilt": 0, "max_angle": 55, "backtrack": true, "gcr": 0.397, "cross_axis_tilt": 0}}, {"type": "Feature", "geometry": {"type": "Point", "coordinates": [-0.80111, 41.5768559]}, "properties": {"rol": "seguidor", "id": "10", "tipo": "Interior sin rótula", "axis_azimuth": 0, "punto": "eje de unidad (no el motor)", "ncu": 1, "gw": 1, "desig": "1.2.10", "axis_tilt": 0, "max_angle": 55, "backtrack": true, "gcr": 0.397, "cross_axis_tilt": 0}}, {"type": "Feature", "geometry": {"type": "Point", "coordinates": [-0.8009662, 41.5768531]}, "properties": {"rol": "seguidor", "id": "12", "tipo": "Interior sin rótula", "axis_azimuth": 0, "punto": "eje de unidad (no el motor)", "ncu": 1, "gw": 1, "desig": "1.2.12", "axis_tilt": 0, "max_angle": 55, "backtrack": true, "gcr": 0.397, "cross_axis_tilt": 0}}, {"type": "Feature", "geometry": {"type": "Point", "coordinates": [-0.8008223, 41.5768503]}, "properties": {"rol": "seguidor", "id": "14", "tipo": "Interior sin rótula", "axis_azimuth": 0, "punto": "eje de unidad (no el motor)", "ncu": 1, "gw": 1, "desig": "1.3.14", "axis_tilt": 0, "max_angle": 55, "backtrack": true, "gcr": 0.397, "cross_axis_tilt": 0}}, {"type": "Feature", "geometry": {"type": "Point", "coordinates": [-0.7996716, 41.5768283]}, "properties": {"rol": "seguidor", "id": "30", "tipo": "Interior sin rótula", "axis_azimuth": 0, "punto": "eje de unidad (no el motor)", "ncu": 1, "gw": 1, "desig": "1.5.30", "axis_tilt": 0, "max_angle": 55, "backtrack": true, "gcr": 0.397, "cross_axis_tilt": 0}}, {"type": "Feature", "geometry": {"type": "Point", "coordinates": [-0.7995278, 41.5768256]}, "properties": {"rol": "seguidor", "id": "32", "tipo": "Interior sin rótula", "axis_azimuth": 0, "punto": "eje de unidad (no el motor)", "ncu": 1, "gw": 1, "desig": "1.6.32", "axis_tilt": 0, "max_angle": 55, "backtrack": true, "gcr": 0.397, "cross_axis_tilt": 0}}, {"type": "Feature", "geometry": {"type": "Point", "coordinates": [-0.7993839, 41.5768228]}, "properties": {"rol": "seguidor", "id": "34", "tipo": "Interior sin rótula", "axis_azimuth": 0, "punto": "eje de unidad (no el motor)", "ncu": 1, "gw": 1, "desig": "1.6.34", "axis_tilt": 0, "max_angle": 55, "backtrack": true, "gcr": 0.397, "cross_axis_tilt": 0}}, {"type": "Feature", "geometry": {"type": "Point", "coordinates": [-0.7992401, 41.5768201]}, "properties": {"rol": "seguidor", "id": "36", "tipo": "Interior sin rótula", "axis_azimuth": 0, "punto": "eje de unidad (no el motor)", "ncu": 1, "gw": 1, "desig": "1.6.36", "axis_tilt": 0, "max_angle": 55, "backtrack": true, "gcr": 0.397, "cross_axis_tilt": 0}}, {"type": "Feature", "geometry": {"type": "Point", "coordinates": [-0.7990963, 41.5768173]}, "properties": {"rol": "seguidor", "id": "38", "tipo": "Interior sin rótula", "axis_azimuth": 0, "punto": "eje de unidad (no el motor)", "ncu": 1, "gw": 1, "desig": "1.7.38", "axis_tilt": 0, "max_angle": 55, "backtrack": true, "gcr": 0.397, "cross_axis_tilt": 0}}, {"type": "Feature", "geometry": {"type": "Point", "coordinates": [-0.7989524, 41.5768145]}, "properties": {"rol": "seguidor", "id": "41", "tipo": "Interior sin rótula", "axis_azimuth": 0, "punto": "eje de unidad (no el motor)", "ncu": 1, "gw": 1, "desig": "1.7.41", "axis_tilt": 0, "max_angle": 55, "backtrack": true, "gcr": 0.397, "cross_axis_tilt": 0}}, {"type": "Feature", "geometry": {"type": "Point", "coordinates": [-0.7988086, 41.5768118]}, "properties": {"rol": "seguidor", "id": "44", "tipo": "Interior sin rótula", "axis_azimuth": 0, "punto": "eje de unidad (no el motor)", "ncu": 1, "gw": 1, "desig": "1.8.44", "axis_tilt": 0, "max_angle": 55, "backtrack": true, "gcr": 0.397, "cross_axis_tilt": 0}}, {"type": "Feature", "geometry": {"type": "Point", "coordinates": [-0.7986647, 41.576809]}, "properties": {"rol": "seguidor", "id": "47", "tipo": "Interior sin rótula", "axis_azimuth": 0, "punto": "eje de unidad (no el motor)", "ncu": 1, "gw": 1, "desig": "1.8.47", "axis_tilt": 0, "max_angle": 55, "backtrack": true, "gcr": 0.397, "cross_axis_tilt": 0}}, {"type": "Feature", "geometry": {"type": "Point", "coordinates": [-0.7985209, 41.5768063]}, "properties": {"rol": "seguidor", "id": "50", "tipo": "Interior sin rótula", "axis_azimuth": 0, "punto": "eje de unidad (no el motor)", "ncu": 1, "gw": 1, "desig": "1.9.50", "axis_tilt": 0, "max_angle": 55, "backtrack": true, "gcr": 0.397, "cross_axis_tilt": 0}}, {"type": "Feature", "geometry": {"type": "Point", "coordinates": [-0.7978017, 41.5767925]}, "properties": {"rol": "seguidor", "id": "65", "tipo": "Interior sin rótula", "axis_azimuth": 0, "punto": "eje de unidad (no el motor)", "ncu": 1, "gw": 2, "desig": "1.11.65", "axis_tilt": 0, "max_angle": 55, "backtrack": true, "gcr": 0.397, "cross_axis_tilt": 0}}, {"type": "Feature", "geometry": {"type": "Point", "coordinates": [-0.7976579, 41.5767897]}, "properties": {"rol": "seguidor", "id": "68", "tipo": "Interior sin rótula", "axis_azimuth": 0, "punto": "eje de unidad (no el motor)", "ncu": 1, "gw": 2, "desig": "1.12.68", "axis_tilt": 0, "max_angle": 55, "backtrack": true, "gcr": 0.397, "cross_axis_tilt": 0}}, {"type": "Feature", "geometry": {"type": "Point", "coordinates": [-0.797514, 41.576787]}, "properties": {"rol": "seguidor", "id": "71", "tipo": "Interior sin rótula", "axis_azimuth": 0, "punto": "eje de unidad (no el motor)", "ncu": 1, "gw": 2, "desig": "1.12.71", "axis_tilt": 0, "max_angle": 55, "backtrack": true, "gcr": 0.397, "cross_axis_tilt": 0}}, {"type": "Feature", "geometry": {"type": "Point", "coordinates": [-0.7973702, 41.5767842]}, "properties": {"rol": "seguidor", "id": "74", "tipo": "Interior sin rótula", "axis_azimuth": 0, "punto": "eje de unidad (no el motor)", "ncu": 1, "gw": 2, "desig": "1.13.74", "axis_tilt": 0, "max_angle": 55, "backtrack": true, "gcr": 0.397, "cross_axis_tilt": 0}}, {"type": "Feature", "geometry": {"type": "Point", "coordinates": [-0.7972263, 41.5767815]}, "properties": {"rol": "seguidor", "id": "77", "tipo": "Interior sin rótula", "axis_azimuth": 0, "punto": "eje de unidad (no el motor)", "ncu": 1, "gw": 2, "desig": "1.13.77", "axis_tilt": 0, "max_angle": 55, "backtrack": true, "gcr": 0.397, "cross_axis_tilt": 0}}, {"type": "Feature", "geometry": {"type": "Point", "coordinates": [-0.7970825, 41.5767787]}, "properties": {"rol": "seguidor", "id": "80", "tipo": "Interior sin rótula", "axis_azimuth": 0, "punto": "eje de unidad (no el motor)", "ncu": 1, "gw": 2, "desig": "1.14.80", "axis_tilt": 0, "max_angle": 55, "backtrack": true, "gcr": 0.397, "cross_axis_tilt": 0}}, {"type": "Feature", "geometry": {"type": "Point", "coordinates": [-0.7960756, 41.5767594]}, "properties": {"rol": "seguidor", "id": "101", "tipo": "Interior sin rótula", "axis_azimuth": 0, "punto": "eje de unidad (no el motor)", "ncu": 1, "gw": 2, "desig": "1.17.101", "axis_tilt": 0, "max_angle": 55, "backtrack": true, "gcr": 0.397, "cross_axis_tilt": 0}}, {"type": "Feature", "geometry": {"type": "Point", "coordinates": [-0.8008442, 41.5762059]}, "properties": {"rol": "seguidor", "id": "4", "tipo": "Interior sin rótula", "axis_azimuth": 0, "punto": "eje de unidad (no el motor)", "ncu": 2, "gw": 1, "desig": "2.1.4", "axis_tilt": 0, "max_angle": 55, "backtrack": true, "gcr": 0.397, "cross_axis_tilt": 0}}, {"type": "Feature", "geometry": {"type": "Point", "coordinates": [-0.8007004, 41.5762031]}, "properties": {"rol": "seguidor", "id": "5", "tipo": "Interior sin rótula", "axis_azimuth": 0, "punto": "eje de unidad (no el motor)", "ncu": 2, "gw": 1, "desig": "2.1.5", "axis_tilt": 0, "max_angle": 55, "backtrack": true, "gcr": 0.397, "cross_axis_tilt": 0}}, {"type": "Feature", "geometry": {"type": "Point", "coordinates": [-0.8005565, 41.5762004]}, "properties": {"rol": "seguidor", "id": "6", "tipo": "Interior sin rótula", "axis_azimuth": 0, "punto": "eje de unidad (no el motor)", "ncu": 2, "gw": 1, "desig": "2.1.6", "axis_tilt": 0, "max_angle": 55, "backtrack": true, "gcr": 0.397, "cross_axis_tilt": 0}}, {"type": "Feature", "geometry": {"type": "Point", "coordinates": [-0.8004127, 41.5761976]}, "properties": {"rol": "seguidor", "id": "7", "tipo": "Interior sin rótula", "axis_azimuth": 0, "punto": "eje de unidad (no el motor)", "ncu": 2, "gw": 1, "desig": "2.1.7", "axis_tilt": 0, "max_angle": 55, "backtrack": true, "gcr": 0.397, "cross_axis_tilt": 0}}, {"type": "Feature", "geometry": {"type": "Point", "coordinates": [-0.8002689, 41.5761949]}, "properties": {"rol": "seguidor", "id": "8", "tipo": "Interior sin rótula", "axis_azimuth": 0, "punto": "eje de unidad (no el motor)", "ncu": 2, "gw": 1, "desig": "2.2.8", "axis_tilt": 0, "max_angle": 55, "backtrack": true, "gcr": 0.397, "cross_axis_tilt": 0}}, {"type": "Feature", "geometry": {"type": "Point", "coordinates": [-0.800125, 41.5761921]}, "properties": {"rol": "seguidor", "id": "9", "tipo": "Interior sin rótula", "axis_azimuth": 0, "punto": "eje de unidad (no el motor)", "ncu": 2, "gw": 1, "desig": "2.2.9", "axis_tilt": 0, "max_angle": 55, "backtrack": true, "gcr": 0.397, "cross_axis_tilt": 0}}, {"type": "Feature", "geometry": {"type": "Point", "coordinates": [-0.798399, 41.5761591]}, "properties": {"rol": "seguidor", "id": "34", "tipo": "Interior sin rótula", "axis_azimuth": 0, "punto": "eje de unidad (no el motor)", "ncu": 2, "gw": 1, "desig": "2.6.34", "axis_tilt": 0, "max_angle": 55, "backtrack": true, "gcr": 0.397, "cross_axis_tilt": 0}}, {"type": "Feature", "geometry": {"type": "Point", "coordinates": [-0.7982551, 41.5761563]}, "properties": {"rol": "seguidor", "id": "37", "tipo": "Interior sin rótula", "axis_azimuth": 0, "punto": "eje de unidad (no el motor)", "ncu": 2, "gw": 1, "desig": "2.7.37", "axis_tilt": 0, "max_angle": 55, "backtrack": true, "gcr": 0.397, "cross_axis_tilt": 0}}, {"type": "Feature", "geometry": {"type": "Point", "coordinates": [-0.7981113, 41.5761536]}, "properties": {"rol": "seguidor", "id": "40", "tipo": "Interior sin rótula", "axis_azimuth": 0, "punto": "eje de unidad (no el motor)", "ncu": 2, "gw": 1, "desig": "2.7.40", "axis_tilt": 0, "max_angle": 55, "backtrack": true, "gcr": 0.397, "cross_axis_tilt": 0}}, {"type": "Feature", "geometry": {"type": "Point", "coordinates": [-0.7979674, 41.5761508]}, "properties": {"rol": "seguidor", "id": "43", "tipo": "Interior sin rótula", "axis_azimuth": 0, "punto": "eje de unidad (no el motor)", "ncu": 2, "gw": 1, "desig": "2.8.43", "axis_tilt": 0, "max_angle": 55, "backtrack": true, "gcr": 0.397, "cross_axis_tilt": 0}}, {"type": "Feature", "geometry": {"type": "Point", "coordinates": [-0.7978236, 41.5761481]}, "properties": {"rol": "seguidor", "id": "46", "tipo": "Interior sin rótula", "axis_azimuth": 0, "punto": "eje de unidad (no el motor)", "ncu": 2, "gw": 2, "desig": "2.8.46", "axis_tilt": 0, "max_angle": 55, "backtrack": true, "gcr": 0.397, "cross_axis_tilt": 0}}, {"type": "Feature", "geometry": {"type": "Point", "coordinates": [-0.7976798, 41.5761453]}, "properties": {"rol": "seguidor", "id": "49", "tipo": "Interior sin rótula", "axis_azimuth": 0, "punto": "eje de unidad (no el motor)", "ncu": 2, "gw": 2, "desig": "2.9.49", "axis_tilt": 0, "max_angle": 55, "backtrack": true, "gcr": 0.397, "cross_axis_tilt": 0}}, {"type": "Feature", "geometry": {"type": "Point", "coordinates": [-0.7975359, 41.5761425]}, "properties": {"rol": "seguidor", "id": "52", "tipo": "Interior sin rótula", "axis_azimuth": 0, "punto": "eje de unidad (no el motor)", "ncu": 2, "gw": 2, "desig": "2.9.52", "axis_tilt": 0, "max_angle": 55, "backtrack": true, "gcr": 0.397, "cross_axis_tilt": 0}}, {"type": "Feature", "geometry": {"type": "Point", "coordinates": [-0.7973921, 41.5761398]}, "properties": {"rol": "seguidor", "id": "56", "tipo": "Interior sin rótula", "axis_azimuth": 0, "punto": "eje de unidad (no el motor)", "ncu": 2, "gw": 2, "desig": "2.10.56", "axis_tilt": 0, "max_angle": 55, "backtrack": true, "gcr": 0.397, "cross_axis_tilt": 0}}, {"type": "Feature", "geometry": {"type": "Point", "coordinates": [-0.7972482, 41.576137]}, "properties": {"rol": "seguidor", "id": "60", "tipo": "Interior sin rótula", "axis_azimuth": 0, "punto": "eje de unidad (no el motor)", "ncu": 2, "gw": 2, "desig": "2.10.60", "axis_tilt": 0, "max_angle": 55, "backtrack": true, "gcr": 0.397, "cross_axis_tilt": 0}}, {"type": "Feature", "geometry": {"type": "Point", "coordinates": [-0.7971044, 41.5761343]}, "properties": {"rol": "seguidor", "id": "64", "tipo": "Interior sin rótula", "axis_azimuth": 0, "punto": "eje de unidad (no el motor)", "ncu": 2, "gw": 2, "desig": "2.11.64", "axis_tilt": 0, "max_angle": 55, "backtrack": true, "gcr": 0.397, "cross_axis_tilt": 0}}, {"type": "Feature", "geometry": {"type": "Point", "coordinates": [-0.7969606, 41.5761315]}, "properties": {"rol": "seguidor", "id": "68", "tipo": "Interior sin rótula", "axis_azimuth": 0, "punto": "eje de unidad (no el motor)", "ncu": 2, "gw": 2, "desig": "2.11.68", "axis_tilt": 0, "max_angle": 55, "backtrack": true, "gcr": 0.397, "cross_axis_tilt": 0}}, {"type": "Feature", "geometry": {"type": "Point", "coordinates": [-0.7968167, 41.5761288]}, "properties": {"rol": "seguidor", "id": "72", "tipo": "Interior sin rótula", "axis_azimuth": 0, "punto": "eje de unidad (no el motor)", "ncu": 2, "gw": 2, "desig": "2.12.72", "axis_tilt": 0, "max_angle": 55, "backtrack": true, "gcr": 0.397, "cross_axis_tilt": 0}}, {"type": "Feature", "geometry": {"type": "Point", "coordinates": [-0.7997134, 41.5755989]}, "properties": {"rol": "seguidor", "id": "14", "tipo": "Interior sin rótula", "axis_azimuth": 0, "punto": "eje de unidad (no el motor)", "ncu": 2, "gw": 1, "desig": "2.3.14", "axis_tilt": 0, "max_angle": 55, "backtrack": true, "gcr": 0.397, "cross_axis_tilt": 0}}, {"type": "Feature", "geometry": {"type": "Point", "coordinates": [-0.7995695, 41.5755962]}, "properties": {"rol": "seguidor", "id": "16", "tipo": "Interior sin rótula", "axis_azimuth": 0, "punto": "eje de unidad (no el motor)", "ncu": 2, "gw": 1, "desig": "2.3.16", "axis_tilt": 0, "max_angle": 55, "backtrack": true, "gcr": 0.397, "cross_axis_tilt": 0}}, {"type": "Feature", "geometry": {"type": "Point", "coordinates": [-0.7994257, 41.5755934]}, "properties": {"rol": "seguidor", "id": "18", "tipo": "Interior sin rótula", "axis_azimuth": 0, "punto": "eje de unidad (no el motor)", "ncu": 2, "gw": 1, "desig": "2.3.18", "axis_tilt": 0, "max_angle": 55, "backtrack": true, "gcr": 0.397, "cross_axis_tilt": 0}}, {"type": "Feature", "geometry": {"type": "Point", "coordinates": [-0.7992819, 41.5755907]}, "properties": {"rol": "seguidor", "id": "20", "tipo": "Interior sin rótula", "axis_azimuth": 0, "punto": "eje de unidad (no el motor)", "ncu": 2, "gw": 1, "desig": "2.4.20", "axis_tilt": 0, "max_angle": 55, "backtrack": true, "gcr": 0.397, "cross_axis_tilt": 0}}, {"type": "Feature", "geometry": {"type": "Point", "coordinates": [-0.799138, 41.5755879]}, "properties": {"rol": "seguidor", "id": "22", "tipo": "Interior sin rótula", "axis_azimuth": 0, "punto": "eje de unidad (no el motor)", "ncu": 2, "gw": 1, "desig": "2.4.22", "axis_tilt": 0, "max_angle": 55, "backtrack": true, "gcr": 0.397, "cross_axis_tilt": 0}}, {"type": "Feature", "geometry": {"type": "Point", "coordinates": [-0.7989942, 41.5755851]}, "properties": {"rol": "seguidor", "id": "24", "tipo": "Interior sin rótula", "axis_azimuth": 0, "punto": "eje de unidad (no el motor)", "ncu": 2, "gw": 1, "desig": "2.4.24", "axis_tilt": 0, "max_angle": 55, "backtrack": true, "gcr": 0.397, "cross_axis_tilt": 0}}, {"type": "Feature", "geometry": {"type": "Point", "coordinates": [-0.7988503, 41.5755824]}, "properties": {"rol": "seguidor", "id": "26", "tipo": "Interior sin rótula", "axis_azimuth": 0, "punto": "eje de unidad (no el motor)", "ncu": 2, "gw": 1, "desig": "2.5.26", "axis_tilt": 0, "max_angle": 55, "backtrack": true, "gcr": 0.397, "cross_axis_tilt": 0}}, {"type": "Feature", "geometry": {"type": "Point", "coordinates": [-0.7987065, 41.5755796]}, "properties": {"rol": "seguidor", "id": "29", "tipo": "Interior sin rótula", "axis_azimuth": 0, "punto": "eje de unidad (no el motor)", "ncu": 2, "gw": 1, "desig": "2.5.29", "axis_tilt": 0, "max_angle": 55, "backtrack": true, "gcr": 0.397, "cross_axis_tilt": 0}}, {"type": "Feature", "geometry": {"type": "Point", "coordinates": [-0.7985627, 41.5755769]}, "properties": {"rol": "seguidor", "id": "32", "tipo": "Interior sin rótula", "axis_azimuth": 0, "punto": "eje de unidad (no el motor)", "ncu": 2, "gw": 1, "desig": "2.6.32", "axis_tilt": 0, "max_angle": 55, "backtrack": true, "gcr": 0.397, "cross_axis_tilt": 0}}, {"type": "Feature", "geometry": {"type": "Point", "coordinates": [-0.7984188, 41.5755741]}, "properties": {"rol": "seguidor", "id": "35", "tipo": "Interior sin rótula", "axis_azimuth": 0, "punto": "eje de unidad (no el motor)", "ncu": 2, "gw": 1, "desig": "2.6.35", "axis_tilt": 0, "max_angle": 55, "backtrack": true, "gcr": 0.397, "cross_axis_tilt": 0}}, {"type": "Feature", "geometry": {"type": "Point", "coordinates": [-0.798275, 41.5755714]}, "properties": {"rol": "seguidor", "id": "38", "tipo": "Interior sin rótula", "axis_azimuth": 0, "punto": "eje de unidad (no el motor)", "ncu": 2, "gw": 1, "desig": "2.7.38", "axis_tilt": 0, "max_angle": 55, "backtrack": true, "gcr": 0.397, "cross_axis_tilt": 0}}, {"type": "Feature", "geometry": {"type": "Point", "coordinates": [-0.7981312, 41.5755686]}, "properties": {"rol": "seguidor", "id": "41", "tipo": "Interior sin rótula", "axis_azimuth": 0, "punto": "eje de unidad (no el motor)", "ncu": 2, "gw": 1, "desig": "2.7.41", "axis_tilt": 0, "max_angle": 55, "backtrack": true, "gcr": 0.397, "cross_axis_tilt": 0}}, {"type": "Feature", "geometry": {"type": "Point", "coordinates": [-0.7979873, 41.5755659]}, "properties": {"rol": "seguidor", "id": "44", "tipo": "Interior sin rótula", "axis_azimuth": 0, "punto": "eje de unidad (no el motor)", "ncu": 2, "gw": 1, "desig": "2.8.44", "axis_tilt": 0, "max_angle": 55, "backtrack": true, "gcr": 0.397, "cross_axis_tilt": 0}}, {"type": "Feature", "geometry": {"type": "Point", "coordinates": [-0.7978435, 41.5755631]}, "properties": {"rol": "seguidor", "id": "47", "tipo": "Interior sin rótula", "axis_azimuth": 0, "punto": "eje de unidad (no el motor)", "ncu": 2, "gw": 2, "desig": "2.8.47", "axis_tilt": 0, "max_angle": 55, "backtrack": true, "gcr": 0.397, "cross_axis_tilt": 0}}, {"type": "Feature", "geometry": {"type": "Point", "coordinates": [-0.7965489, 41.5755383]}, "properties": {"rol": "seguidor", "id": "81", "tipo": "Interior sin rótula", "axis_azimuth": 0, "punto": "eje de unidad (no el motor)", "ncu": 2, "gw": 2, "desig": "2.13.81", "axis_tilt": 0, "max_angle": 55, "backtrack": true, "gcr": 0.397, "cross_axis_tilt": 0}}, {"type": "Feature", "geometry": {"type": "Point", "coordinates": [-0.7964051, 41.5755355]}, "properties": {"rol": "seguidor", "id": "85", "tipo": "Interior sin rótula", "axis_azimuth": 0, "punto": "eje de unidad (no el motor)", "ncu": 2, "gw": 2, "desig": "2.13.85", "axis_tilt": 0, "max_angle": 55, "backtrack": true, "gcr": 0.397, "cross_axis_tilt": 0}}, {"type": "Feature", "geometry": {"type": "Point", "coordinates": [-0.7962613, 41.5755328]}, "properties": {"rol": "seguidor", "id": "89", "tipo": "Interior sin rótula", "axis_azimuth": 0, "punto": "eje de unidad (no el motor)", "ncu": 2, "gw": 2, "desig": "2.14.89", "axis_tilt": 0, "max_angle": 55, "backtrack": true, "gcr": 0.397, "cross_axis_tilt": 0}}, {"type": "Feature", "geometry": {"type": "Point", "coordinates": [-0.7961174, 41.57553]}, "properties": {"rol": "seguidor", "id": "94", "tipo": "Interior sin rótula", "axis_azimuth": 0, "punto": "eje de unidad (no el motor)", "ncu": 2, "gw": 2, "desig": "2.14.94", "axis_tilt": 0, "max_angle": 55, "backtrack": true, "gcr": 0.397, "cross_axis_tilt": 0}}, {"type": "Feature", "geometry": {"type": "Point", "coordinates": [-0.7984387, 41.5749892]}, "properties": {"rol": "seguidor", "id": "36", "tipo": "Interior sin rótula", "axis_azimuth": 0, "punto": "eje de unidad (no el motor)", "ncu": 2, "gw": 1, "desig": "2.6.36", "axis_tilt": 0, "max_angle": 55, "backtrack": true, "gcr": 0.397, "cross_axis_tilt": 0}}, {"type": "Feature", "geometry": {"type": "Point", "coordinates": [-0.7982949, 41.5749864]}, "properties": {"rol": "seguidor", "id": "39", "tipo": "Interior sin rótula", "axis_azimuth": 0, "punto": "eje de unidad (no el motor)", "ncu": 2, "gw": 1, "desig": "2.7.39", "axis_tilt": 0, "max_angle": 55, "backtrack": true, "gcr": 0.397, "cross_axis_tilt": 0}}, {"type": "Feature", "geometry": {"type": "Point", "coordinates": [-0.798151, 41.5749837]}, "properties": {"rol": "seguidor", "id": "42", "tipo": "Interior sin rótula", "axis_azimuth": 0, "punto": "eje de unidad (no el motor)", "ncu": 2, "gw": 1, "desig": "2.7.42", "axis_tilt": 0, "max_angle": 55, "backtrack": true, "gcr": 0.397, "cross_axis_tilt": 0}}, {"type": "Feature", "geometry": {"type": "Point", "coordinates": [-0.7980072, 41.5749809]}, "properties": {"rol": "seguidor", "id": "45", "tipo": "Interior sin rótula", "axis_azimuth": 0, "punto": "eje de unidad (no el motor)", "ncu": 2, "gw": 1, "desig": "2.8.45", "axis_tilt": 0, "max_angle": 55, "backtrack": true, "gcr": 0.397, "cross_axis_tilt": 0}}, {"type": "Feature", "geometry": {"type": "Point", "coordinates": [-0.7978634, 41.5749781]}, "properties": {"rol": "seguidor", "id": "48", "tipo": "Interior sin rótula", "axis_azimuth": 0, "punto": "eje de unidad (no el motor)", "ncu": 2, "gw": 2, "desig": "2.8.48", "axis_tilt": 0, "max_angle": 55, "backtrack": true, "gcr": 0.397, "cross_axis_tilt": 0}}, {"type": "Feature", "geometry": {"type": "Point", "coordinates": [-0.7977195, 41.5749754]}, "properties": {"rol": "seguidor", "id": "51", "tipo": "Interior sin rótula", "axis_azimuth": 0, "punto": "eje de unidad (no el motor)", "ncu": 2, "gw": 2, "desig": "2.9.51", "axis_tilt": 0, "max_angle": 55, "backtrack": true, "gcr": 0.397, "cross_axis_tilt": 0}}, {"type": "Feature", "geometry": {"type": "Point", "coordinates": [-0.7975757, 41.5749726]}, "properties": {"rol": "seguidor", "id": "54", "tipo": "Interior sin rótula", "axis_azimuth": 0, "punto": "eje de unidad (no el motor)", "ncu": 2, "gw": 2, "desig": "2.9.54", "axis_tilt": 0, "max_angle": 55, "backtrack": true, "gcr": 0.397, "cross_axis_tilt": 0}}, {"type": "Feature", "geometry": {"type": "Point", "coordinates": [-0.7974318, 41.5749699]}, "properties": {"rol": "seguidor", "id": "58", "tipo": "Interior sin rótula", "axis_azimuth": 0, "punto": "eje de unidad (no el motor)", "ncu": 2, "gw": 2, "desig": "2.10.58", "axis_tilt": 0, "max_angle": 55, "backtrack": true, "gcr": 0.397, "cross_axis_tilt": 0}}, {"type": "Feature", "geometry": {"type": "Point", "coordinates": [-0.7962812, 41.5749478]}, "properties": {"rol": "seguidor", "id": "90", "tipo": "Interior sin rótula", "axis_azimuth": 0, "punto": "eje de unidad (no el motor)", "ncu": 2, "gw": 2, "desig": "2.14.90", "axis_tilt": 0, "max_angle": 55, "backtrack": true, "gcr": 0.397, "cross_axis_tilt": 0}}, {"type": "Feature", "geometry": {"type": "Point", "coordinates": [-0.7961373, 41.5749451]}, "properties": {"rol": "seguidor", "id": "95", "tipo": "Interior sin rótula", "axis_azimuth": 0, "punto": "eje de unidad (no el motor)", "ncu": 2, "gw": 2, "desig": "2.15.95", "axis_tilt": 0, "max_angle": 55, "backtrack": true, "gcr": 0.397, "cross_axis_tilt": 0}}, {"type": "Feature", "geometry": {"type": "Point", "coordinates": [-0.7971666, 41.5743033]}, "properties": {"rol": "seguidor", "id": "67", "tipo": "Interior sin rótula", "axis_azimuth": 0, "punto": "eje de unidad (no el motor)", "ncu": 2, "gw": 2, "desig": "2.16.67", "axis_tilt": 0, "max_angle": 55, "backtrack": true, "gcr": 0.397, "cross_axis_tilt": 0}}, {"type": "Feature", "geometry": {"type": "Point", "coordinates": [-0.7970228, 41.5743005]}, "properties": {"rol": "seguidor", "id": "71", "tipo": "Interior sin rótula", "axis_azimuth": 0, "punto": "eje de unidad (no el motor)", "ncu": 2, "gw": 2, "desig": "2.16.71", "axis_tilt": 0, "max_angle": 55, "backtrack": true, "gcr": 0.397, "cross_axis_tilt": 0}}, {"type": "Feature", "geometry": {"type": "Point", "coordinates": [-0.796879, 41.5742978]}, "properties": {"rol": "seguidor", "id": "75", "tipo": "Interior sin rótula", "axis_azimuth": 0, "punto": "eje de unidad (no el motor)", "ncu": 2, "gw": 2, "desig": "2.16.75", "axis_tilt": 0, "max_angle": 55, "backtrack": true, "gcr": 0.397, "cross_axis_tilt": 0}}, {"type": "Feature", "geometry": {"type": "Point", "coordinates": [-0.7967351, 41.574295]}, "properties": {"rol": "seguidor", "id": "79", "tipo": "Interior sin rótula", "axis_azimuth": 0, "punto": "eje de unidad (no el motor)", "ncu": 2, "gw": 2, "desig": "2.17.79", "axis_tilt": 0, "max_angle": 55, "backtrack": true, "gcr": 0.397, "cross_axis_tilt": 0}}, {"type": "Feature", "geometry": {"type": "Point", "coordinates": [-0.7965913, 41.5742922]}, "properties": {"rol": "seguidor", "id": "83", "tipo": "Interior sin rótula", "axis_azimuth": 0, "punto": "eje de unidad (no el motor)", "ncu": 2, "gw": 2, "desig": "2.17.83", "axis_tilt": 0, "max_angle": 55, "backtrack": true, "gcr": 0.397, "cross_axis_tilt": 0}}, {"type": "Feature", "geometry": {"type": "Point", "coordinates": [-0.7964475, 41.5742895]}, "properties": {"rol": "seguidor", "id": "87", "tipo": "Interior sin rótula", "axis_azimuth": 0, "punto": "eje de unidad (no el motor)", "ncu": 2, "gw": 2, "desig": "2.17.87", "axis_tilt": 0, "max_angle": 55, "backtrack": true, "gcr": 0.397, "cross_axis_tilt": 0}}, {"type": "Feature", "geometry": {"type": "Point", "coordinates": [-0.7963036, 41.5742867]}, "properties": {"rol": "seguidor", "id": "91", "tipo": "Interior sin rótula", "axis_azimuth": 0, "punto": "eje de unidad (no el motor)", "ncu": 2, "gw": 2, "desig": "2.17.91", "axis_tilt": 0, "max_angle": 55, "backtrack": true, "gcr": 0.397, "cross_axis_tilt": 0}}, {"type": "Feature", "geometry": {"type": "Point", "coordinates": [-0.7961598, 41.574284]}, "properties": {"rol": "seguidor", "id": "96", "tipo": "Interior sin rótula", "axis_azimuth": 0, "punto": "eje de unidad (no el motor)", "ncu": 2, "gw": 2, "desig": "2.17.96", "axis_tilt": 0, "max_angle": 55, "backtrack": true, "gcr": 0.397, "cross_axis_tilt": 0}}, {"type": "Feature", "geometry": {"type": "Point", "coordinates": [-0.796016, 41.5742812]}, "properties": {"rol": "seguidor", "id": "100", "tipo": "Interior sin rótula", "axis_azimuth": 0, "punto": "eje de unidad (no el motor)", "ncu": 2, "gw": 2, "desig": "2.18.100", "axis_tilt": 0, "max_angle": 55, "backtrack": true, "gcr": 0.397, "cross_axis_tilt": 0}}, {"type": "Feature", "geometry": {"type": "Point", "coordinates": [-0.7958721, 41.5742784]}, "properties": {"rol": "seguidor", "id": "104", "tipo": "Interior sin rótula", "axis_azimuth": 0, "punto": "eje de unidad (no el motor)", "ncu": 2, "gw": 2, "desig": "2.18.104", "axis_tilt": 0, "max_angle": 55, "backtrack": true, "gcr": 0.397, "cross_axis_tilt": 0}}, {"type": "Feature", "geometry": {"type": "Point", "coordinates": [-0.7981727, 41.5766155]}, "properties": {"rol": "NCU", "nombre": "NCU 1"}}, {"type": "Feature", "geometry": {"type": "Point", "coordinates": [-0.7979543, 41.5746074]}, "properties": {"rol": "NCU", "nombre": "NCU 2"}}, {"type": "Feature", "geometry": {"type": "Point", "coordinates": [-0.7988452, 41.5786405]}, "properties": {"rol": "HSU", "nombre": "HSU1", "ncu": 1, "gw": 1, "esclavo": 230}}, {"type": "Feature", "geometry": {"type": "Point", "coordinates": [-0.7952319, 41.5775958]}, "properties": {"rol": "HSU", "nombre": "HSU 2", "ncu": 1, "gw": 2, "esclavo": 231}}, {"type": "Feature", "geometry": {"type": "Point", "coordinates": [-0.8015146, 41.5763958]}, "properties": {"rol": "HSU", "nombre": "HSU 3", "ncu": 2, "gw": 1, "esclavo": 230}}, {"type": "Feature", "geometry": {"type": "Point", "coordinates": [-0.7966973, 41.5737952]}, "properties": {"rol": "HSU", "nombre": "HSU 4", "ncu": 2, "gw": 2, "esclavo": 231}}, {"type": "Feature", "geometry": {"type": "LineString", "coordinates": [[-0.8028788, 41.5773698], [-0.8027234, 41.5772996], [-0.8026994, 41.5772991], [-0.8026754, 41.5772987], [-0.8026514, 41.5772981], [-0.8026275, 41.5772976], [-0.8026035, 41.5772972], [-0.8025795, 41.5772967], [-0.8025555, 41.5772963], [-0.8025316, 41.5772958], [-0.8025229, 41.5772956], [-0.8025094, 41.5772957], [-0.8024922, 41.577297], [-0.8024883, 41.5772975], [-0.8024841, 41.5772981], [-0.8024735, 41.5772999], [-0.8024677, 41.5773011], [-0.8024586, 41.5773032], [-0.8024478, 41.5773065], [-0.8024423, 41.5773083], [-0.8024289, 41.5773135], [-0.8024276, 41.5773141], [-0.8024254, 41.577315], [-0.8024098, 41.5773219], [-0.8024084, 41.5773225], [-0.8023877, 41.5773316], [-0.802367, 41.5773407], [-0.8023463, 41.5773498], [-0.8023256, 41.5773589], [-0.8023049, 41.577368], [-0.8022842, 41.5773771], [-0.8022635, 41.5773862], [-0.8022508, 41.5773918], [-0.8022438, 41.577395], [-0.8022405, 41.5773966], [-0.8022307, 41.577402], [-0.8022262, 41.5774046], [-0.8022074, 41.5774158], [-0.8021885, 41.5774269], [-0.8021697, 41.5774379], [-0.8021507, 41.5774491], [-0.8021319, 41.5774602], [-0.802113, 41.5774713], [-0.8021077, 41.5774744], [-0.8020942, 41.5774824], [-0.8020752, 41.5774935], [-0.8020563, 41.5775047], [-0.8020375, 41.5775158], [-0.8020186, 41.5775268], [-0.8019998, 41.577538], [-0.8019889, 41.5775444], [-0.8019808, 41.5775491], [-0.801962, 41.5775602], [-0.8019431, 41.5775713], [-0.8019243, 41.5775824], [-0.8019054, 41.5775935], [-0.8018865, 41.5776046], [-0.8018676, 41.5776157], [-0.8018488, 41.5776268], [-0.8018299, 41.577638], [-0.8018109, 41.577649], [-0.8017921, 41.5776601], [-0.8017733, 41.5776713], [-0.8017544, 41.5776824], [-0.8017356, 41.5776934], [-0.8017166, 41.5777046], [-0.8016977, 41.5777157], [-0.8016789, 41.5777268], [-0.8016759, 41.5777286], [-0.8016575, 41.5777383], [-0.8016493, 41.5777421], [-0.801634, 41.5777481], [-0.801634, 41.5777482], [-0.8016335, 41.5777483], [-0.8016206, 41.5777526], [-0.8016106, 41.5777556], [-0.8015883, 41.5777623], [-0.8015661, 41.5777691], [-0.8015438, 41.5777758], [-0.8015217, 41.5777826], [-0.8014994, 41.5777893], [-0.8014772, 41.577796], [-0.8014549, 41.5778027], [-0.8014326, 41.5778095], [-0.8014104, 41.5778162], [-0.8013881, 41.577823], [-0.8013827, 41.5778247], [-0.8013691, 41.5778287], [-0.8013656, 41.5778298], [-0.8013401, 41.5778359], [-0.8013398, 41.5778359], [-0.8013216, 41.5778388], [-0.8013137, 41.5778397], [-0.8013094, 41.5778401], [-0.8012895, 41.5778418], [-0.8012657, 41.5778438], [-0.8012417, 41.5778458], [-0.8012179, 41.5778478], [-0.8011941, 41.5778499], [-0.8011703, 41.5778519], [-0.8011558, 41.5778531], [-0.8011464, 41.5778539], [-0.8011226, 41.577856], [-0.8010988, 41.577858], [-0.801075, 41.57786], [-0.8010512, 41.577862], [-0.8010274, 41.5778641], [-0.8010035, 41.5778661], [-0.8009796, 41.5778681], [-0.8009558, 41.5778701], [-0.800932, 41.5778722], [-0.8009081, 41.5778741], [-0.8008843, 41.5778762], [-0.8008605, 41.5778782], [-0.8008367, 41.5778802], [-0.8008328, 41.5778805], [-0.8008217, 41.5778813], [-0.800819, 41.5778814], [-0.8008104, 41.5778816], [-0.8008104, 41.5778816], [-0.8007864, 41.5778819], [-0.8007625, 41.5778822], [-0.8007385, 41.5778824], [-0.8007145, 41.5778826], [-0.8006905, 41.5778829], [-0.8006665, 41.5778831], [-0.8006425, 41.5778834], [-0.8006185, 41.5778836], [-0.8005946, 41.5778839], [-0.8005706, 41.5778842], [-0.8005466, 41.5778843], [-0.8005396, 41.5778845], [-0.8005226, 41.5778846], [-0.8004986, 41.5778849], [-0.8004746, 41.5778851], [-0.8004508, 41.5778854], [-0.8004268, 41.5778856], [-0.8004028, 41.5778859], [-0.8003788, 41.5778861], [-0.8003548, 41.5778863], [-0.8003308, 41.5778866], [-0.8003068, 41.5778869], [-0.8002829, 41.5778871], [-0.8002589, 41.5778874], [-0.8002349, 41.5778876], [-0.8002109, 41.5778879], [-0.8001869, 41.5778881], [-0.8001629, 41.5778883], [-0.800139, 41.5778886], [-0.800115, 41.5778889], [-0.8001011, 41.577889], [-0.800091, 41.5778891], [-0.800067, 41.5778894], [-0.800043, 41.5778896], [-0.800019, 41.5778898], [-0.7999961, 41.5778901], [-0.799995, 41.5778901], [-0.7999712, 41.5778903], [-0.7999671, 41.5778904], [-0.7999472, 41.5778906], [-0.7999385, 41.5778907], [-0.7999232, 41.5778909], [-0.7998992, 41.5778911], [-0.7998752, 41.5778914], [-0.7998512, 41.5778916], [-0.7998273, 41.5778918], [-0.7998033, 41.5778921], [-0.7997793, 41.5778923], [-0.7997553, 41.5778926], [-0.7997518, 41.5778926], [-0.7997313, 41.5778929], [-0.7997073, 41.5778931], [-0.7996833, 41.5778933], [-0.7996594, 41.5778936], [-0.7996354, 41.5778938], [-0.7996114, 41.5778941], [-0.7995874, 41.5778943], [-0.7995634, 41.5778946], [-0.7995394, 41.5778949], [-0.7995156, 41.577895], [-0.7994916, 41.5778953], [-0.7994785, 41.5778955], [-0.7994676, 41.5778956], [-0.7994436, 41.5778958], [-0.7994196, 41.5778961], [-0.7993956, 41.5778963], [-0.7993716, 41.5778966], [-0.7993477, 41.5778968], [-0.7993237, 41.577897], [-0.7993206, 41.5778971], [-0.7992997, 41.5778973], [-0.7992997, 41.5778973], [-0.7992757, 41.5778975], [-0.7992662, 41.5778976], [-0.7992517, 41.5778982], [-0.799247, 41.5778986], [-0.7992305, 41.5779008], [-0.7992289, 41.5779011], [-0.7992155, 41.5779041], [-0.7992107, 41.5779053], [-0.7992103, 41.5779054], [-0.7992096, 41.5779056], [-0.7991959, 41.57791], [-0.799192, 41.5779114], [-0.7991913, 41.5779117], [-0.7991928, 41.5778675], [-0.7991969, 41.5778666], [-0.799198, 41.5778664], [-0.7991983, 41.5778664], [-0.7992048, 41.5778652], [-0.7992229, 41.577863], [-0.7992248, 41.5778629], [-0.7992463, 41.5778619], [-0.7992511, 41.5778618], [-0.7992657, 41.5778616], [-0.799275, 41.5778615], [-0.799299, 41.5778613], [-0.7992991, 41.5778613], [-0.7993199, 41.5778611], [-0.799323, 41.5778611], [-0.799347, 41.5778608], [-0.799371, 41.5778606], [-0.799395, 41.5778603], [-0.7994189, 41.57786], [-0.7994429, 41.5778598], [-0.7994669, 41.5778595], [-0.7994778, 41.5778595], [-0.7994909, 41.5778594], [-0.7995149, 41.5778591], [-0.7995389, 41.5778588], [-0.7995629, 41.5778586], [-0.7995867, 41.5778583], [-0.7996107, 41.577858], [-0.7996347, 41.5778578], [-0.7996587, 41.5778576], [-0.7996827, 41.5778574], [-0.7997067, 41.5778571], [-0.7997306, 41.5778568], [-0.7997513, 41.5778566], [-0.7997546, 41.5778566], [-0.7997786, 41.5778563], [-0.7998026, 41.577856], [-0.7998266, 41.5778559], [-0.7998506, 41.5778556], [-0.7998746, 41.5778553], [-0.7998985, 41.5778551], [-0.7999225, 41.5778548], [-0.7999378, 41.5778547], [-0.7999465, 41.5778546], [-0.7999664, 41.5778544], [-0.7999705, 41.5778543], [-0.7999945, 41.5778541], [-0.7999954, 41.5778541], [-0.8000185, 41.5778539], [-0.8000423, 41.5778536], [-0.8000663, 41.5778533], [-0.8000903, 41.5778531], [-0.8001005, 41.577853], [-0.8001143, 41.5778528], [-0.8001383, 41.5778526], [-0.8001623, 41.5778524], [-0.8001863, 41.5778521], [-0.8002102, 41.5778519], [-0.8002342, 41.5778516], [-0.8002582, 41.5778513], [-0.8002822, 41.5778511], [-0.8003062, 41.5778508], [-0.8003302, 41.5778507], [-0.8003541, 41.5778504], [-0.8003781, 41.5778501], [-0.8004021, 41.5778499], [-0.8004261, 41.5778496], [-0.8004501, 41.5778493], [-0.8004741, 41.5778491], [-0.8004981, 41.5778488], [-0.8005219, 41.5778486], [-0.8005389, 41.5778484], [-0.8005459, 41.5778484], [-0.8005699, 41.5778481], [-0.8005939, 41.5778479], [-0.8006179, 41.5778476], [-0.8006419, 41.5778473], [-0.8006658, 41.5778471], [-0.8006898, 41.5778469], [-0.8007138, 41.5778466], [-0.8007378, 41.5778464], [-0.8007618, 41.5778461], [-0.8007858, 41.5778459], [-0.8008097, 41.5778456], [-0.8008097, 41.5778456], [-0.8008165, 41.5778455], [-0.8008186, 41.5778454], [-0.8008275, 41.5778448], [-0.8008313, 41.5778445], [-0.8008551, 41.5778424], [-0.8008789, 41.5778404], [-0.8009028, 41.5778384], [-0.8009266, 41.5778364], [-0.8009504, 41.5778343], [-0.8009742, 41.5778324], [-0.800998, 41.5778303], [-0.801022, 41.5778282], [-0.8010458, 41.5778262], [-0.8010696, 41.5778242], [-0.8010934, 41.5778222], [-0.8011172, 41.5778201], [-0.8011411, 41.5778182], [-0.8011504, 41.5778174], [-0.8011649, 41.5778161], [-0.8011887, 41.5778141], [-0.8012125, 41.5778121], [-0.8012363, 41.5778101], [-0.8012603, 41.577808], [-0.8012841, 41.577806], [-0.8013041, 41.5778043], [-0.8013074, 41.577804], [-0.8013137, 41.5778033], [-0.801328, 41.577801], [-0.8013282, 41.577801], [-0.8013484, 41.5777962], [-0.8013511, 41.5777953], [-0.8013647, 41.5777913], [-0.8013702, 41.5777896], [-0.8013925, 41.5777828], [-0.8014147, 41.5777761], [-0.801437, 41.5777693], [-0.8014591, 41.5777626], [-0.8014814, 41.5777559], [-0.8015036, 41.5777492], [-0.8015259, 41.5777424], [-0.8015482, 41.5777357], [-0.8015704, 41.5777289], [-0.8015927, 41.5777222], [-0.8016026, 41.5777192], [-0.8016129, 41.5777158], [-0.8016132, 41.5777157], [-0.8016133, 41.5777156], [-0.8016253, 41.5777109], [-0.8016318, 41.5777079], [-0.8016463, 41.5777002], [-0.8016493, 41.5776985], [-0.8016681, 41.5776874], [-0.8016871, 41.5776762], [-0.8017059, 41.5776651], [-0.8017248, 41.5776541], [-0.8017436, 41.5776429], [-0.8017626, 41.5776318], [-0.8017814, 41.5776207], [-0.8018003, 41.5776096], [-0.8018191, 41.5775985], [-0.801838, 41.5775874], [-0.801857, 41.5775763], [-0.8018758, 41.5775652], [-0.8018947, 41.5775541], [-0.8019135, 41.5775429], [-0.8019324, 41.5775319], [-0.8019513, 41.5775207], [-0.8019594, 41.577516], [-0.8019702, 41.5775096], [-0.801989, 41.5774985], [-0.8020079, 41.5774874], [-0.8020268, 41.5774763], [-0.8020457, 41.5774652], [-0.8020645, 41.577454], [-0.8020781, 41.5774461], [-0.8020834, 41.577443], [-0.8021022, 41.5774319], [-0.8021212, 41.5774207], [-0.80214, 41.5774096], [-0.8021589, 41.5773986], [-0.8021777, 41.5773874], [-0.8021966, 41.5773763], [-0.8022011, 41.5773737], [-0.8022136, 41.5773668], [-0.8022177, 41.5773647], [-0.8022266, 41.5773607], [-0.8022393, 41.5773551], [-0.80226, 41.577346], [-0.8022807, 41.5773369], [-0.8023014, 41.5773278], [-0.8023221, 41.5773187], [-0.8023428, 41.5773097], [-0.8023635, 41.5773005], [-0.8023842, 41.5772915], [-0.8023855, 41.5772909], [-0.8024011, 41.577284], [-0.8024033, 41.577283], [-0.802405, 41.5772823], [-0.8024219, 41.5772757], [-0.8024291, 41.5772733], [-0.8024428, 41.5772693], [-0.8024542, 41.5772665], [-0.8024616, 41.577265], [-0.802475, 41.5772628], [-0.8024803, 41.577262], [-0.8024851, 41.5772614], [-0.802507, 41.5772599], [-0.8025242, 41.5772596], [-0.8025328, 41.5772598], [-0.8025568, 41.5772603], [-0.8025807, 41.5772607], [-0.8026047, 41.5772612], [-0.8026287, 41.5772616], [-0.8026527, 41.5772621], [-0.8026766, 41.5772626], [-0.8027006, 41.5772631], [-0.8027246, 41.5772636], [-0.8027486, 41.577264], [-0.8027725, 41.5772645], [-0.8029249, 41.5772268], [-0.8030826, 41.5770778], [-0.803139, 41.5771114], [-0.803028, 41.5772162], [-0.8029893, 41.5772976]]}, "properties": {"rol": "camino"}}, {"type": "Feature", "geometry": {"type": "LineString", "coordinates": [[-0.8018482, 41.5765248], [-0.8023222, 41.5765338], [-0.801921, 41.5763269]]}, "properties": {"rol": "camino"}}, {"type": "Feature", "geometry": {"type": "LineString", "coordinates": [[-0.7977267, 41.574599], [-0.7976033, 41.5746501], [-0.7955401, 41.5746105], [-0.795541, 41.5745835], [-0.7975737, 41.5746225], [-0.7976793, 41.5745846], [-0.7977503, 41.5745067]]}, "properties": {"rol": "camino"}}, {"type": "Feature", "geometry": {"type": "LineString", "coordinates": [[-0.7977503, 41.5745067], [-0.7978553, 41.5743652], [-0.7978313, 41.5742191], [-0.7978142, 41.5742036], [-0.7977492, 41.5741701], [-0.7977696, 41.5741478], [-0.8028377, 41.5767669]]}, "properties": {"rol": "camino"}}, {"type": "Feature", "geometry": {"type": "LineString", "coordinates": [[-0.801798, 41.5765238], [-0.8018537, 41.5762925], [-0.7982546, 41.574438], [-0.797944, 41.574432], [-0.7978043, 41.574539]]}, "properties": {"rol": "camino"}}, {"type": "Feature", "geometry": {"type": "LineString", "coordinates": [[-0.8028176, 41.5767892], [-0.8023767, 41.5765619], [-0.796029, 41.5764403]]}, "properties": {"rol": "camino"}}, {"type": "Feature", "geometry": {"type": "LineString", "coordinates": [[-0.7991915, 41.5779027], [-0.7991125, 41.5779117], [-0.7990872, 41.577933], [-0.7990707, 41.5779914], [-0.7990632, 41.5782115], [-0.7990504, 41.5782623], [-0.7989974, 41.5783231], [-0.798955, 41.5783493], [-0.798901, 41.5783665], [-0.796702, 41.5783243], [-0.7966293, 41.5783143], [-0.7957199, 41.5780139], [-0.7956417, 41.5779687], [-0.7954473, 41.5777863], [-0.795412, 41.5777378], [-0.795401, 41.5776831], [-0.7954244, 41.5769959], [-0.7954275, 41.5769727], [-0.795435, 41.5769502], [-0.7956959, 41.5764011], [-0.7958184, 41.5761835], [-0.7958536, 41.576189], [-0.7958267, 41.5762417], [-0.7958216, 41.5762923], [-0.7958377, 41.5763203], [-0.7958787, 41.5763539], [-0.795933, 41.5763795], [-0.7960299, 41.5764133], [-0.796029, 41.5764403]]}, "properties": {"rol": "camino"}}]}