{"type": "FeatureCollection", "name": "fayon", "crs_note": "EPSG:4326 (GeoJSON siempre en WGS84). El layout está en EPSG:25831", "generado_por": "tools/geojson_activo.py", "que_es": "La planta como ACTIVO: parcela, seguidores con su montaje, NCU, HSU, repetidores y caminos. No confundir con <planta>_real.geojson, que es la malla de radio medida.", "montaje": {"tipo": "SingleAxisTrackerMount", "axis_tilt": 0, "axis_azimuth": 0, "max_angle": 55, "backtrack": true, "gcr": 0.4018, "cross_axis_tilt": 0, "module_height": null, "night_stow_deg": 5, "pitch": 6, "cuerda": 2.411, "modulos_en_vertical": 1}, "montaje_origen": {"pitch": "medido · mesa.pasoFila", "cuerda": "derivado · mesa.modH 2.411 × 1V del nombre del bloque", "gcr": "derivado · cuerda 2.411 / paso 6", "axis_azimuth": "canon · eje N-S (0), que es lo que mide el DWG", "tipo": "del layout · la planta es de seguidores", "axis_tilt": "canon · el eje se genera horizontal; el terreno se aplica aparte (bt3d)", "max_angle": "declarado por la casa · 55° en TODAS las plantas (2026-08-21). Coincide con el CANONICAL_MAX_ANGLE_DEG del core y con lo unico medido, la plantilla TCU de El Burgo", "backtrack": "canon · CANONICAL_BACKTRACK, y es lo que ejecutan las fichas", "cross_axis_tilt": "canon · 0, que es lo que pasa el JS a singleaxis", "module_height": "null · no se ha medido la altura del tubo en ninguna planta", "night_stow_deg": "canon · 5° al este, dato de proyecto", "modulos_en_vertical": "medido · del nombre del bloque del DWG"}, "meteo_nota": null, "reps_nota": null, "features": [{"type": "Feature", "geometry": {"type": "Polygon", "coordinates": [[[0.3253392, 41.2269466], [0.3253438, 41.2269808], [0.325345, 41.2270142], [0.3253351, 41.2270427], [0.3252058, 41.2270928], [0.3250844, 41.2271395], [0.3248182, 41.2272243], [0.3246395, 41.2272693], [0.3243697, 41.2273456], [0.3241452, 41.227409], [0.324048, 41.2274223], [0.3239542, 41.2274301], [0.3237186, 41.2274396], [0.3236121, 41.2274477], [0.3235904, 41.2275505], [0.3235671, 41.2276531], [0.3234448, 41.2277079], [0.3233614, 41.2277452], [0.3232396, 41.2277995], [0.323131, 41.2278487], [0.3231197, 41.2278512], [0.3230725, 41.2278225], [0.3230582, 41.22779], [0.3230268, 41.2277222], [0.3253392, 41.2269466]]]}, "properties": {"rol": "parcela", "origen": "vallado del DWG"}}, {"type": "Feature", "geometry": {"type": "Polygon", "coordinates": [[[0.3229656, 41.22773], [0.3229615, 41.2277026], [0.3229517, 41.2276732], [0.3229433, 41.2276395], [0.3229372, 41.2276125], [0.3229964, 41.2275585], [0.3230235, 41.2275338], [0.3230501, 41.2275069], [0.3230791, 41.2274763], [0.3231014, 41.2274462], [0.3231215, 41.2274099], [0.3231308, 41.2273804], [0.3231234, 41.227343], [0.3231118, 41.2273113], [0.3230912, 41.2272798], [0.3230683, 41.2272499], [0.3230442, 41.2272211], [0.3230219, 41.2271916], [0.3229992, 41.2271601], [0.3229789, 41.2271292], [0.3229672, 41.2270977], [0.3229671, 41.2270656], [0.3229698, 41.2270296], [0.3229777, 41.2269956], [0.3229914, 41.226963], [0.3230274, 41.2269007], [0.3230543, 41.2268688], [0.3230801, 41.2268437], [0.3231093, 41.2268138], [0.3231359, 41.2267831], [0.3231641, 41.2267597], [0.3231909, 41.2267267], [0.323234, 41.2266666], [0.3232807, 41.2266031], [0.3233085, 41.2265744], [0.3233463, 41.2265485], [0.3234253, 41.226512], [0.3235106, 41.2264807], [0.3236428, 41.2264384], [0.3236823, 41.226424], [0.3237207, 41.226408], [0.3237921, 41.226367], [0.323832, 41.2263452], [0.3238705, 41.2263249], [0.3239135, 41.2263069], [0.3239555, 41.2262929], [0.3240001, 41.226286], [0.32409, 41.2262742], [0.3241849, 41.2262567], [0.3242748, 41.2262358], [0.324405, 41.2261998], [0.3244943, 41.2261708], [0.3245784, 41.2261446], [0.3246712, 41.226118], [0.3247127, 41.2261657], [0.3247624, 41.226225], [0.3248133, 41.226285], [0.3248879, 41.2263723], [0.3249624, 41.2264605], [0.3250147, 41.2265212], [0.3250388, 41.2265462], [0.3251033, 41.2266004], [0.3251607, 41.2266554], [0.3251878, 41.2266826], [0.3252418, 41.2267406], [0.3252894, 41.2267969], [0.3253386, 41.2268553], [0.3253791, 41.2269036], [0.3253951, 41.2269287], [0.3229656, 41.22773]]]}, "properties": {"rol": "parcela", "origen": "vallado del DWG"}}, {"type": "Feature", "geometry": {"type": "Point", "coordinates": [0.3232206, 41.2270484]}, "properties": {"rol": "seguidor", "id": "TK001", "tipo": "medio", "axis_azimuth": 0, "punto": "eje de unidad (no el motor)", "ncu": 1, "gw": 1, "axis_tilt": 0, "max_angle": 55, "backtrack": true, "gcr": 0.4018, "cross_axis_tilt": 0}}, {"type": "Feature", "geometry": {"type": "Point", "coordinates": [0.3233462, 41.2274023]}, "properties": {"rol": "seguidor", "id": "TK002", "tipo": "medio", "axis_azimuth": 0, "punto": "eje de unidad (no el motor)", "ncu": 1, "gw": 1, "axis_tilt": 0, "max_angle": 55, "backtrack": true, "gcr": 0.4018, "cross_axis_tilt": 0}}, {"type": "Feature", "geometry": {"type": "Point", "coordinates": [0.3233657, 41.2269246]}, "properties": {"rol": "seguidor", "id": "TK003", "tipo": "completo", "axis_azimuth": 0, "punto": "eje de unidad (no el motor)", "ncu": 1, "gw": 1, "axis_tilt": 0, "max_angle": 55, "backtrack": true, "gcr": 0.4018, "cross_axis_tilt": 0}}, {"type": "Feature", "geometry": {"type": "Point", "coordinates": [0.3234933, 41.2272329]}, "properties": {"rol": "seguidor", "id": "TK004", "tipo": "medio", "axis_azimuth": 0, "punto": "eje de unidad (no el motor)", "ncu": 1, "gw": 1, "axis_tilt": 0, "max_angle": 55, "backtrack": true, "gcr": 0.4018, "cross_axis_tilt": 0}}, {"type": "Feature", "geometry": {"type": "Point", "coordinates": [0.3235124, 41.2267647]}, "properties": {"rol": "seguidor", "id": "TK005", "tipo": "medio", "axis_azimuth": 0, "punto": "eje de unidad (no el motor)", "ncu": 1, "gw": 1, "axis_tilt": 0, "max_angle": 55, "backtrack": true, "gcr": 0.4018, "cross_axis_tilt": 0}}, {"type": "Feature", "geometry": {"type": "Point", "coordinates": [0.3236389, 41.2271726]}, "properties": {"rol": "seguidor", "id": "TK006", "tipo": "medio", "axis_azimuth": 0, "punto": "eje de unidad (no el motor)", "ncu": 1, "gw": 1, "axis_tilt": 0, "max_angle": 55, "backtrack": true, "gcr": 0.4018, "cross_axis_tilt": 0}}, {"type": "Feature", "geometry": {"type": "Point", "coordinates": [0.3236567, 41.226736]}, "properties": {"rol": "seguidor", "id": "TK007", "tipo": "medio", "axis_azimuth": 0, "punto": "eje de unidad (no el motor)", "ncu": 1, "gw": 1, "axis_tilt": 0, "max_angle": 55, "backtrack": true, "gcr": 0.4018, "cross_axis_tilt": 0}}, {"type": "Feature", "geometry": {"type": "Point", "coordinates": [0.3237828, 41.2271533]}, "properties": {"rol": "seguidor", "id": "TK008", "tipo": "medio", "axis_azimuth": 0, "punto": "eje de unidad (no el motor)", "ncu": 1, "gw": 1, "axis_tilt": 0, "max_angle": 55, "backtrack": true, "gcr": 0.4018, "cross_axis_tilt": 0}}, {"type": "Feature", "geometry": {"type": "Point", "coordinates": [0.3238017, 41.2266893]}, "properties": {"rol": "seguidor", "id": "TK009", "tipo": "medio", "axis_azimuth": 0, "punto": "eje de unidad (no el motor)", "ncu": 1, "gw": 1, "axis_tilt": 0, "max_angle": 55, "backtrack": true, "gcr": 0.4018, "cross_axis_tilt": 0}}, {"type": "Feature", "geometry": {"type": "Point", "coordinates": [0.3239262, 41.2271566]}, "properties": {"rol": "seguidor", "id": "TK010", "tipo": "medio", "axis_azimuth": 0, "punto": "eje de unidad (no el motor)", "ncu": 1, "gw": 1, "axis_tilt": 0, "max_angle": 55, "backtrack": true, "gcr": 0.4018, "cross_axis_tilt": 0}}, {"type": "Feature", "geometry": {"type": "Point", "coordinates": [0.3239468, 41.2266516]}, "properties": {"rol": "seguidor", "id": "TK011", "tipo": "completo", "axis_azimuth": 0, "punto": "eje de unidad (no el motor)", "ncu": 1, "gw": 1, "axis_tilt": 0, "max_angle": 55, "backtrack": true, "gcr": 0.4018, "cross_axis_tilt": 0}}, {"type": "Feature", "geometry": {"type": "Point", "coordinates": [0.3240701, 41.2271022]}, "properties": {"rol": "seguidor", "id": "TK012", "tipo": "completo", "axis_azimuth": 0, "punto": "eje de unidad (no el motor)", "ncu": 1, "gw": 1, "axis_tilt": 0, "max_angle": 55, "backtrack": true, "gcr": 0.4018, "cross_axis_tilt": 0}}, {"type": "Feature", "geometry": {"type": "Point", "coordinates": [0.3240915, 41.2265777]}, "properties": {"rol": "seguidor", "id": "TK013", "tipo": "completo", "axis_azimuth": 0, "punto": "eje de unidad (no el motor)", "ncu": 1, "gw": 1, "axis_tilt": 0, "max_angle": 55, "backtrack": true, "gcr": 0.4018, "cross_axis_tilt": 0}}, {"type": "Feature", "geometry": {"type": "Point", "coordinates": [0.324216, 41.2270715]}, "properties": {"rol": "seguidor", "id": "TK014", "tipo": "completo", "axis_azimuth": 0, "punto": "eje de unidad (no el motor)", "ncu": 1, "gw": 1, "axis_tilt": 0, "max_angle": 55, "backtrack": true, "gcr": 0.4018, "cross_axis_tilt": 0}}, {"type": "Feature", "geometry": {"type": "Point", "coordinates": [0.324237, 41.2265566]}, "properties": {"rol": "seguidor", "id": "TK015", "tipo": "completo", "axis_azimuth": 0, "punto": "eje de unidad (no el motor)", "ncu": 1, "gw": 1, "axis_tilt": 0, "max_angle": 55, "backtrack": true, "gcr": 0.4018, "cross_axis_tilt": 0}}, {"type": "Feature", "geometry": {"type": "Point", "coordinates": [0.3243607, 41.227033]}, "properties": {"rol": "seguidor", "id": "TK016", "tipo": "completo", "axis_azimuth": 0, "punto": "eje de unidad (no el motor)", "ncu": 1, "gw": 1, "axis_tilt": 0, "max_angle": 55, "backtrack": true, "gcr": 0.4018, "cross_axis_tilt": 0}}, {"type": "Feature", "geometry": {"type": "Point", "coordinates": [0.3243817, 41.2265175]}, "properties": {"rol": "seguidor", "id": "TK017", "tipo": "medio", "axis_azimuth": 0, "punto": "eje de unidad (no el motor)", "ncu": 1, "gw": 1, "axis_tilt": 0, "max_angle": 55, "backtrack": true, "gcr": 0.4018, "cross_axis_tilt": 0}}, {"type": "Feature", "geometry": {"type": "Point", "coordinates": [0.3245055, 41.2269938]}, "properties": {"rol": "seguidor", "id": "TK018", "tipo": "completo", "axis_azimuth": 0, "punto": "eje de unidad (no el motor)", "ncu": 1, "gw": 1, "axis_tilt": 0, "max_angle": 55, "backtrack": true, "gcr": 0.4018, "cross_axis_tilt": 0}}, {"type": "Feature", "geometry": {"type": "Point", "coordinates": [0.3245264, 41.2264797]}, "properties": {"rol": "seguidor", "id": "TK019", "tipo": "completo", "axis_azimuth": 0, "punto": "eje de unidad (no el motor)", "ncu": 1, "gw": 1, "axis_tilt": 0, "max_angle": 55, "backtrack": true, "gcr": 0.4018, "cross_axis_tilt": 0}}, {"type": "Feature", "geometry": {"type": "Point", "coordinates": [0.3246503, 41.2269538]}, "properties": {"rol": "seguidor", "id": "TK020", "tipo": "completo", "axis_azimuth": 0, "punto": "eje de unidad (no el motor)", "ncu": 1, "gw": 1, "axis_tilt": 0, "max_angle": 55, "backtrack": true, "gcr": 0.4018, "cross_axis_tilt": 0}}, {"type": "Feature", "geometry": {"type": "Point", "coordinates": [0.3246703, 41.2264626]}, "properties": {"rol": "seguidor", "id": "TK021", "tipo": "medio", "axis_azimuth": 0, "punto": "eje de unidad (no el motor)", "ncu": 1, "gw": 1, "axis_tilt": 0, "max_angle": 55, "backtrack": true, "gcr": 0.4018, "cross_axis_tilt": 0}}, {"type": "Feature", "geometry": {"type": "Point", "coordinates": [0.3247949, 41.2269168]}, "properties": {"rol": "seguidor", "id": "TK022", "tipo": "completo", "axis_azimuth": 0, "punto": "eje de unidad (no el motor)", "ncu": 1, "gw": 1, "axis_tilt": 0, "max_angle": 55, "backtrack": true, "gcr": 0.4018, "cross_axis_tilt": 0}}, {"type": "Feature", "geometry": {"type": "Point", "coordinates": [0.3249398, 41.2268753]}, "properties": {"rol": "seguidor", "id": "TK023", "tipo": "completo", "axis_azimuth": 0, "punto": "eje de unidad (no el motor)", "ncu": 1, "gw": 1, "axis_tilt": 0, "max_angle": 55, "backtrack": true, "gcr": 0.4018, "cross_axis_tilt": 0}}, {"type": "Feature", "geometry": {"type": "Point", "coordinates": [0.3250829, 41.2268748]}, "properties": {"rol": "seguidor", "id": "TK024", "tipo": "medio", "axis_azimuth": 0, "punto": "eje de unidad (no el motor)", "ncu": 1, "gw": 1, "axis_tilt": 0, "max_angle": 55, "backtrack": true, "gcr": 0.4018, "cross_axis_tilt": 0}}, {"type": "Feature", "geometry": {"type": "Point", "coordinates": [0.3247708, 41.2265516]}, "properties": {"rol": "NCU", "nombre": "NCU 1"}}, {"type": "Feature", "geometry": {"type": "Point", "coordinates": [0.3247462, 41.2264958]}, "properties": {"rol": "HSU", "nombre": "HSU1", "ncu": 1, "ncu_origen": "única NCU de la planta («NCU 1»): no se deduce, se constata", "gw": null, "gw_origen": null, "esclavo": null, "esclavo_origen": null}}]}