{"type": "FeatureCollection", "name": "polvorin", "crs_note": "EPSG:4326 (GeoJSON siempre en WGS84). El layout está en EPSG:25829", "generado_por": "tools/geojson_activo.py", "que_es": "La planta como ACTIVO: parcela, seguidores con su montaje, NCU, HSU y caminos. No confundir con <planta>_real.geojson, que es la malla de radio medida.", "montaje": {"tipo": "SingleAxisTrackerMount", "axis_tilt": 0, "axis_azimuth": 0, "max_angle": 55, "backtrack": true, "gcr": 0.397, "cross_axis_tilt": 0, "module_height": null, "night_stow_deg": 5, "pitch": null, "cuerda": 2.384, "modulos_en_vertical": null}, "montaje_origen": {"pitch": null, "cuerda": "derivado · mesa.modH 2.384, suponiendo 1V (el bloque no dice la V)", "gcr": "canon · CANONICAL_GCR del proyecto, no medido en esta planta", "axis_azimuth": "canon · eje N-S (0), que es lo que mide el DWG", "tipo": "del layout · la planta es de seguidores", "axis_tilt": "canon · el eje se genera horizontal; el terreno se aplica aparte (bt3d)", "max_angle": "declarado por la casa · 55° en TODAS las plantas (2026-08-21). Coincide con el CANONICAL_MAX_ANGLE_DEG del core y con lo unico medido, la plantilla TCU de El Burgo", "backtrack": "canon · CANONICAL_BACKTRACK, y es lo que ejecutan las fichas", "cross_axis_tilt": "canon · 0, que es lo que pasa el JS a singleaxis", "module_height": "null · no se ha medido la altura del tubo en ninguna planta", "night_stow_deg": "canon · 5° al este, dato de proyecto", "modulos_en_vertical": "null · el bloque no dice la V"}, "meteo_nota": null, "features": [{"type": "Feature", "geometry": {"type": "Polygon", "coordinates": [[[-6.997109, 38.8413422], [-6.9969898, 38.8414782], [-6.9968866, 38.8415945], [-6.997109, 38.8413422]]]}, "properties": {"rol": "parcela", "origen": "vallado del DWG"}}, {"type": "Feature", "geometry": {"type": "Polygon", "coordinates": [[[-7.0019498, 38.8412945], [-7.0019863, 38.8412319], [-7.0020333, 38.8411272], [-7.0021004, 38.8410365], [-7.0022137, 38.840871], [-7.0023069, 38.8407467], [-7.0024154, 38.8405905], [-7.0024379, 38.8405638], [-7.0007772, 38.839931], [-7.0000633, 38.8396586], [-6.9986886, 38.8391135], [-6.9986886, 38.8391135], [-6.9985938, 38.8392588], [-6.9984874, 38.8394242], [-6.998405, 38.8395504], [-6.9983434, 38.839645], [-6.9982887, 38.8397293], [-6.9982182, 38.8398382], [-6.9981876, 38.8398855], [-7.0019498, 38.8412945]]]}, "properties": {"rol": "parcela", "origen": "vallado del DWG"}}, {"type": "Feature", "geometry": {"type": "Polygon", "coordinates": [[[-6.9981876, 38.8398855], [-6.9980793, 38.8400549], [-6.9979489, 38.8403843], [-6.9978414, 38.8405782], [-6.9975345, 38.8409042], [-6.997373, 38.8410437], [-6.997109, 38.8413422], [-6.9981876, 38.8398855]]]}, "properties": {"rol": "parcela", "origen": "vallado del DWG"}}, {"type": "Feature", "geometry": {"type": "Polygon", "coordinates": [[[-7.001678, 38.8417138], [-7.0015007, 38.8420073], [-7.0014496, 38.8420064], [-7.0013793, 38.8420463], [-7.001279, 38.8421385], [-7.0012352, 38.8422024], [-7.0010334, 38.8422183], [-7.0008624, 38.8422522], [-7.0007436, 38.8423306], [-7.000615, 38.8423781], [-7.0005221, 38.8424188], [-7.0003336, 38.8424152], [-7.0002328, 38.8423741], [-7.000051, 38.8423106], [-6.9997443, 38.8422941], [-6.9997082, 38.8422935], [-6.9995717, 38.8423534], [-6.9993557, 38.8423431], [-6.9991139, 38.8423775], [-6.9988391, 38.8423642], [-6.9987647, 38.8423202], [-6.9987298, 38.8423196], [-6.9986736, 38.8423453], [-6.998475, 38.8423419], [-6.9984315, 38.8422811], [-6.9982339, 38.8422671], [-6.9982189, 38.8422416], [-6.9981832, 38.8422405], [-6.9980764, 38.8422214], [-6.9979724, 38.842185], [-6.997721, 38.8421265], [-6.9976889, 38.8421227], [-6.9976621, 38.8421317], [-6.9976234, 38.8421654], [-6.9974565, 38.8421906], [-6.9972777, 38.8421792], [-6.9971556, 38.8420632], [-6.9970248, 38.842061], [-6.9968762, 38.841963], [-6.9968866, 38.8415945], [-6.9971089, 38.8413422], [-7.0001431, 38.8413942], [-7.0001349, 38.8416874], [-7.001678, 38.8417138]]]}, "properties": {"rol": "parcela", "origen": "vallado del DWG"}}, {"type": "Feature", "geometry": {"type": "Polygon", "coordinates": [[[-7.001678, 38.8417138], [-7.0001349, 38.8416874], [-7.0001431, 38.8413942], [-6.9971089, 38.8413422], [-7.001678, 38.8417138]]]}, "properties": {"rol": "parcela", "origen": "vallado del DWG"}}, {"type": "Feature", "geometry": {"type": "Polygon", "coordinates": [[[-7.001678, 38.8417138], [-7.0018872, 38.8414019], [-7.0019498, 38.8412945], [-7.001678, 38.8417138]]]}, "properties": {"rol": "parcela", "origen": "vallado del DWG"}}, {"type": "Feature", "geometry": {"type": "Point", "coordinates": [-6.9994537, 38.8417806]}, "properties": {"rol": "seguidor", "id": "TK0001", "tipo": "completo", "axis_azimuth": 0, "punto": "eje de unidad (no el motor)", "ncu": 2, "gw": 2, "axis_tilt": 0, "max_angle": 55, "backtrack": true, "gcr": 0.397, "cross_axis_tilt": 0}}, {"type": "Feature", "geometry": {"type": "Point", "coordinates": [-6.9993501, 38.8417788]}, "properties": {"rol": "seguidor", "id": "TK0002", "tipo": "completo", "axis_azimuth": 0, "punto": "eje de unidad (no el motor)", "ncu": 2, "gw": 2, "axis_tilt": 0, "max_angle": 55, "backtrack": true, "gcr": 0.397, "cross_axis_tilt": 0}}, {"type": "Feature", "geometry": {"type": "Point", "coordinates": [-7.0002626, 38.8412914]}, "properties": {"rol": "seguidor", "id": "TK0003", "tipo": "completo", "axis_azimuth": 0, "punto": "eje de unidad (no el motor)", "ncu": 1, "gw": 1, "axis_tilt": 0, "max_angle": 55, "backtrack": true, "gcr": 0.397, "cross_axis_tilt": 0}}, {"type": "Feature", "geometry": {"type": "Point", "coordinates": [-6.9992465, 38.8417771]}, "properties": {"rol": "seguidor", "id": "TK0004", "tipo": "completo", "axis_azimuth": 0, "punto": "eje de unidad (no el motor)", "ncu": 2, "gw": 2, "axis_tilt": 0, "max_angle": 55, "backtrack": true, "gcr": 0.397, "cross_axis_tilt": 0}}, {"type": "Feature", "geometry": {"type": "Point", "coordinates": [-6.9991428, 38.8417753]}, "properties": {"rol": "seguidor", "id": "TK0005", "tipo": "completo", "axis_azimuth": 0, "punto": "eje de unidad (no el motor)", "ncu": 2, "gw": 2, "axis_tilt": 0, "max_angle": 55, "backtrack": true, "gcr": 0.397, "cross_axis_tilt": 0}}, {"type": "Feature", "geometry": {"type": "Point", "coordinates": [-6.9990392, 38.8417735]}, "properties": {"rol": "seguidor", "id": "TK0006", "tipo": "completo", "axis_azimuth": 0, "punto": "eje de unidad (no el motor)", "ncu": 2, "gw": 2, "axis_tilt": 0, "max_angle": 55, "backtrack": true, "gcr": 0.397, "cross_axis_tilt": 0}}, {"type": "Feature", "geometry": {"type": "Point", "coordinates": [-6.9988319, 38.8417699]}, "properties": {"rol": "seguidor", "id": "TK0007", "tipo": "completo", "axis_azimuth": 0, "punto": "eje de unidad (no el motor)", "ncu": 2, "gw": 2, "axis_tilt": 0, "max_angle": 55, "backtrack": true, "gcr": 0.397, "cross_axis_tilt": 0}}, {"type": "Feature", "geometry": {"type": "Point", "coordinates": [-6.9987256, 38.8417681]}, "properties": {"rol": "seguidor", "id": "TK0008", "tipo": "completo", "axis_azimuth": 0, "punto": "eje de unidad (no el motor)", "ncu": 2, "gw": 2, "axis_tilt": 0, "max_angle": 55, "backtrack": true, "gcr": 0.397, "cross_axis_tilt": 0}}, {"type": "Feature", "geometry": {"type": "Point", "coordinates": [-6.998622, 38.8417663]}, "properties": {"rol": "seguidor", "id": "TK0009", "tipo": "completo", "axis_azimuth": 0, "punto": "eje de unidad (no el motor)", "ncu": 2, "gw": 2, "axis_tilt": 0, "max_angle": 55, "backtrack": true, "gcr": 0.397, "cross_axis_tilt": 0}}, {"type": "Feature", "geometry": {"type": "Point", "coordinates": [-6.9985183, 38.8417646]}, "properties": {"rol": "seguidor", "id": "TK0010", "tipo": "completo", "axis_azimuth": 0, "punto": "eje de unidad (no el motor)", "ncu": 2, "gw": 2, "axis_tilt": 0, "max_angle": 55, "backtrack": true, "gcr": 0.397, "cross_axis_tilt": 0}}, {"type": "Feature", "geometry": {"type": "Point", "coordinates": [-6.9984147, 38.8417628]}, "properties": {"rol": "seguidor", "id": "TK0011", "tipo": "completo", "axis_azimuth": 0, "punto": "eje de unidad (no el motor)", "ncu": 2, "gw": 2, "axis_tilt": 0, "max_angle": 55, "backtrack": true, "gcr": 0.397, "cross_axis_tilt": 0}}, {"type": "Feature", "geometry": {"type": "Point", "coordinates": [-6.998311, 38.841761]}, "properties": {"rol": "seguidor", "id": "TK0012", "tipo": "completo", "axis_azimuth": 0, "punto": "eje de unidad (no el motor)", "ncu": 2, "gw": 2, "axis_tilt": 0, "max_angle": 55, "backtrack": true, "gcr": 0.397, "cross_axis_tilt": 0}}, {"type": "Feature", "geometry": {"type": "Point", "coordinates": [-6.9982074, 38.8417592]}, "properties": {"rol": "seguidor", "id": "TK0013", "tipo": "completo", "axis_azimuth": 0, "punto": "eje de unidad (no el motor)", "ncu": 2, "gw": 2, "axis_tilt": 0, "max_angle": 55, "backtrack": true, "gcr": 0.397, "cross_axis_tilt": 0}}, {"type": "Feature", "geometry": {"type": "Point", "coordinates": [-6.9997611, 38.8417859]}, "properties": {"rol": "seguidor", "id": "TK0014", "tipo": "completo", "axis_azimuth": 0, "punto": "eje de unidad (no el motor)", "ncu": 2, "gw": 2, "axis_tilt": 0, "max_angle": 55, "backtrack": true, "gcr": 0.397, "cross_axis_tilt": 0}}, {"type": "Feature", "geometry": {"type": "Point", "coordinates": [-6.9996575, 38.8417841]}, "properties": {"rol": "seguidor", "id": "TK0015", "tipo": "completo", "axis_azimuth": 0, "punto": "eje de unidad (no el motor)", "ncu": 2, "gw": 2, "axis_tilt": 0, "max_angle": 55, "backtrack": true, "gcr": 0.397, "cross_axis_tilt": 0}}, {"type": "Feature", "geometry": {"type": "Point", "coordinates": [-6.9998648, 38.8417876]}, "properties": {"rol": "seguidor", "id": "TK0016", "tipo": "completo", "axis_azimuth": 0, "punto": "eje de unidad (no el motor)", "ncu": 2, "gw": 2, "axis_tilt": 0, "max_angle": 55, "backtrack": true, "gcr": 0.397, "cross_axis_tilt": 0}}, {"type": "Feature", "geometry": {"type": "Point", "coordinates": [-6.9999684, 38.8417894]}, "properties": {"rol": "seguidor", "id": "TK0017", "tipo": "completo", "axis_azimuth": 0, "punto": "eje de unidad (no el motor)", "ncu": 2, "gw": 2, "axis_tilt": 0, "max_angle": 55, "backtrack": true, "gcr": 0.397, "cross_axis_tilt": 0}}, {"type": "Feature", "geometry": {"type": "Point", "coordinates": [-7.0000721, 38.8417912]}, "properties": {"rol": "seguidor", "id": "TK0018", "tipo": "completo", "axis_azimuth": 0, "punto": "eje de unidad (no el motor)", "ncu": 2, "gw": 2, "axis_tilt": 0, "max_angle": 55, "backtrack": true, "gcr": 0.397, "cross_axis_tilt": 0}}, {"type": "Feature", "geometry": {"type": "Point", "coordinates": [-7.0003663, 38.8412932]}, "properties": {"rol": "seguidor", "id": "TK0019", "tipo": "completo", "axis_azimuth": 0, "punto": "eje de unidad (no el motor)", "ncu": 1, "gw": 1, "axis_tilt": 0, "max_angle": 55, "backtrack": true, "gcr": 0.397, "cross_axis_tilt": 0}}, {"type": "Feature", "geometry": {"type": "Point", "coordinates": [-7.0004699, 38.8412949]}, "properties": {"rol": "seguidor", "id": "TK0020", "tipo": "completo", "axis_azimuth": 0, "punto": "eje de unidad (no el motor)", "ncu": 1, "gw": 1, "axis_tilt": 0, "max_angle": 55, "backtrack": true, "gcr": 0.397, "cross_axis_tilt": 0}}, {"type": "Feature", "geometry": {"type": "Point", "coordinates": [-7.0005735, 38.8412967]}, "properties": {"rol": "seguidor", "id": "TK0021", "tipo": "completo", "axis_azimuth": 0, "punto": "eje de unidad (no el motor)", "ncu": 1, "gw": 1, "axis_tilt": 0, "max_angle": 55, "backtrack": true, "gcr": 0.397, "cross_axis_tilt": 0}}, {"type": "Feature", "geometry": {"type": "Point", "coordinates": [-7.0006772, 38.8412985]}, "properties": {"rol": "seguidor", "id": "TK0022", "tipo": "completo", "axis_azimuth": 0, "punto": "eje de unidad (no el motor)", "ncu": 1, "gw": 1, "axis_tilt": 0, "max_angle": 55, "backtrack": true, "gcr": 0.397, "cross_axis_tilt": 0}}, {"type": "Feature", "geometry": {"type": "Point", "coordinates": [-7.0007808, 38.8413003]}, "properties": {"rol": "seguidor", "id": "TK0023", "tipo": "completo", "axis_azimuth": 0, "punto": "eje de unidad (no el motor)", "ncu": 1, "gw": 1, "axis_tilt": 0, "max_angle": 55, "backtrack": true, "gcr": 0.397, "cross_axis_tilt": 0}}, {"type": "Feature", "geometry": {"type": "Point", "coordinates": [-7.0008845, 38.841302]}, "properties": {"rol": "seguidor", "id": "TK0024", "tipo": "completo", "axis_azimuth": 0, "punto": "eje de unidad (no el motor)", "ncu": 1, "gw": 1, "axis_tilt": 0, "max_angle": 55, "backtrack": true, "gcr": 0.397, "cross_axis_tilt": 0}}, {"type": "Feature", "geometry": {"type": "Point", "coordinates": [-7.0009881, 38.8413038]}, "properties": {"rol": "seguidor", "id": "TK0025", "tipo": "completo", "axis_azimuth": 0, "punto": "eje de unidad (no el motor)", "ncu": 1, "gw": 1, "axis_tilt": 0, "max_angle": 55, "backtrack": true, "gcr": 0.397, "cross_axis_tilt": 0}}, {"type": "Feature", "geometry": {"type": "Point", "coordinates": [-7.0010917, 38.8413056]}, "properties": {"rol": "seguidor", "id": "TK0026", "tipo": "completo", "axis_azimuth": 0, "punto": "eje de unidad (no el motor)", "ncu": 1, "gw": 1, "axis_tilt": 0, "max_angle": 55, "backtrack": true, "gcr": 0.397, "cross_axis_tilt": 0}}, {"type": "Feature", "geometry": {"type": "Point", "coordinates": [-7.0011954, 38.8413074]}, "properties": {"rol": "seguidor", "id": "TK0027", "tipo": "completo", "axis_azimuth": 0, "punto": "eje de unidad (no el motor)", "ncu": 1, "gw": 1, "axis_tilt": 0, "max_angle": 55, "backtrack": true, "gcr": 0.397, "cross_axis_tilt": 0}}, {"type": "Feature", "geometry": {"type": "Point", "coordinates": [-7.001299, 38.8413091]}, "properties": {"rol": "seguidor", "id": "TK0028", "tipo": "completo", "axis_azimuth": 0, "punto": "eje de unidad (no el motor)", "ncu": 1, "gw": 1, "axis_tilt": 0, "max_angle": 55, "backtrack": true, "gcr": 0.397, "cross_axis_tilt": 0}}, {"type": "Feature", "geometry": {"type": "Point", "coordinates": [-7.0001672, 38.8409964]}, "properties": {"rol": "seguidor", "id": "TK0029", "tipo": "completo", "axis_azimuth": 0, "punto": "eje de unidad (no el motor)", "ncu": 1, "gw": 1, "axis_tilt": 0, "max_angle": 55, "backtrack": true, "gcr": 0.397, "cross_axis_tilt": 0}}, {"type": "Feature", "geometry": {"type": "Point", "coordinates": [-7.0000635, 38.8409947]}, "properties": {"rol": "seguidor", "id": "TK0030", "tipo": "completo", "axis_azimuth": 0, "punto": "eje de unidad (no el motor)", "ncu": 1, "gw": 1, "axis_tilt": 0, "max_angle": 55, "backtrack": true, "gcr": 0.397, "cross_axis_tilt": 0}}, {"type": "Feature", "geometry": {"type": "Point", "coordinates": [-6.9999599, 38.8409929]}, "properties": {"rol": "seguidor", "id": "TK0031", "tipo": "completo", "axis_azimuth": 0, "punto": "eje de unidad (no el motor)", "ncu": 1, "gw": 1, "axis_tilt": 0, "max_angle": 55, "backtrack": true, "gcr": 0.397, "cross_axis_tilt": 0}}, {"type": "Feature", "geometry": {"type": "Point", "coordinates": [-6.9998563, 38.8409911]}, "properties": {"rol": "seguidor", "id": "TK0032", "tipo": "completo", "axis_azimuth": 0, "punto": "eje de unidad (no el motor)", "ncu": 1, "gw": 1, "axis_tilt": 0, "max_angle": 55, "backtrack": true, "gcr": 0.397, "cross_axis_tilt": 0}}, {"type": "Feature", "geometry": {"type": "Point", "coordinates": [-6.9997526, 38.8409893]}, "properties": {"rol": "seguidor", "id": "TK0033", "tipo": "completo", "axis_azimuth": 0, "punto": "eje de unidad (no el motor)", "ncu": 1, "gw": 1, "axis_tilt": 0, "max_angle": 55, "backtrack": true, "gcr": 0.397, "cross_axis_tilt": 0}}, {"type": "Feature", "geometry": {"type": "Point", "coordinates": [-6.9995453, 38.8409858]}, "properties": {"rol": "seguidor", "id": "TK0034", "tipo": "completo", "axis_azimuth": 0, "punto": "eje de unidad (no el motor)", "ncu": 1, "gw": 1, "axis_tilt": 0, "max_angle": 55, "backtrack": true, "gcr": 0.397, "cross_axis_tilt": 0}}, {"type": "Feature", "geometry": {"type": "Point", "coordinates": [-6.9994417, 38.840984]}, "properties": {"rol": "seguidor", "id": "TK0035", "tipo": "completo", "axis_azimuth": 0, "punto": "eje de unidad (no el motor)", "ncu": 1, "gw": 1, "axis_tilt": 0, "max_angle": 55, "backtrack": true, "gcr": 0.397, "cross_axis_tilt": 0}}, {"type": "Feature", "geometry": {"type": "Point", "coordinates": [-6.9993381, 38.8409822]}, "properties": {"rol": "seguidor", "id": "TK0036", "tipo": "completo", "axis_azimuth": 0, "punto": "eje de unidad (no el motor)", "ncu": 1, "gw": 1, "axis_tilt": 0, "max_angle": 55, "backtrack": true, "gcr": 0.397, "cross_axis_tilt": 0}}, {"type": "Feature", "geometry": {"type": "Point", "coordinates": [-6.9992344, 38.8409804]}, "properties": {"rol": "seguidor", "id": "TK0037", "tipo": "completo", "axis_azimuth": 0, "punto": "eje de unidad (no el motor)", "ncu": 1, "gw": 1, "axis_tilt": 0, "max_angle": 55, "backtrack": true, "gcr": 0.397, "cross_axis_tilt": 0}}, {"type": "Feature", "geometry": {"type": "Point", "coordinates": [-6.9991308, 38.8409787]}, "properties": {"rol": "seguidor", "id": "TK0038", "tipo": "completo", "axis_azimuth": 0, "punto": "eje de unidad (no el motor)", "ncu": 1, "gw": 1, "axis_tilt": 0, "max_angle": 55, "backtrack": true, "gcr": 0.397, "cross_axis_tilt": 0}}, {"type": "Feature", "geometry": {"type": "Point", "coordinates": [-6.9990271, 38.8409769]}, "properties": {"rol": "seguidor", "id": "TK0039", "tipo": "completo", "axis_azimuth": 0, "punto": "eje de unidad (no el motor)", "ncu": 1, "gw": 1, "axis_tilt": 0, "max_angle": 55, "backtrack": true, "gcr": 0.397, "cross_axis_tilt": 0}}, {"type": "Feature", "geometry": {"type": "Point", "coordinates": [-6.9989235, 38.8409751]}, "properties": {"rol": "seguidor", "id": "TK0040", "tipo": "completo", "axis_azimuth": 0, "punto": "eje de unidad (no el motor)", "ncu": 1, "gw": 1, "axis_tilt": 0, "max_angle": 55, "backtrack": true, "gcr": 0.397, "cross_axis_tilt": 0}}, {"type": "Feature", "geometry": {"type": "Point", "coordinates": [-6.9988198, 38.8409733]}, "properties": {"rol": "seguidor", "id": "TK0041", "tipo": "completo", "axis_azimuth": 0, "punto": "eje de unidad (no el motor)", "ncu": 1, "gw": 1, "axis_tilt": 0, "max_angle": 55, "backtrack": true, "gcr": 0.397, "cross_axis_tilt": 0}}, {"type": "Feature", "geometry": {"type": "Point", "coordinates": [-6.9987162, 38.8409716]}, "properties": {"rol": "seguidor", "id": "TK0042", "tipo": "completo", "axis_azimuth": 0, "punto": "eje de unidad (no el motor)", "ncu": 1, "gw": 1, "axis_tilt": 0, "max_angle": 55, "backtrack": true, "gcr": 0.397, "cross_axis_tilt": 0}}, {"type": "Feature", "geometry": {"type": "Point", "coordinates": [-6.9986126, 38.8409698]}, "properties": {"rol": "seguidor", "id": "TK0043", "tipo": "completo", "axis_azimuth": 0, "punto": "eje de unidad (no el motor)", "ncu": 1, "gw": 1, "axis_tilt": 0, "max_angle": 55, "backtrack": true, "gcr": 0.397, "cross_axis_tilt": 0}}, {"type": "Feature", "geometry": {"type": "Point", "coordinates": [-6.9985089, 38.840968]}, "properties": {"rol": "seguidor", "id": "TK0044", "tipo": "completo", "axis_azimuth": 0, "punto": "eje de unidad (no el motor)", "ncu": 1, "gw": 1, "axis_tilt": 0, "max_angle": 55, "backtrack": true, "gcr": 0.397, "cross_axis_tilt": 0}}, {"type": "Feature", "geometry": {"type": "Point", "coordinates": [-6.9984053, 38.8409662]}, "properties": {"rol": "seguidor", "id": "TK0045", "tipo": "completo", "axis_azimuth": 0, "punto": "eje de unidad (no el motor)", "ncu": 1, "gw": 1, "axis_tilt": 0, "max_angle": 55, "backtrack": true, "gcr": 0.397, "cross_axis_tilt": 0}}, {"type": "Feature", "geometry": {"type": "Point", "coordinates": [-6.9983016, 38.8409645]}, "properties": {"rol": "seguidor", "id": "TK0046", "tipo": "completo", "axis_azimuth": 0, "punto": "eje de unidad (no el motor)", "ncu": 1, "gw": 1, "axis_tilt": 0, "max_angle": 55, "backtrack": true, "gcr": 0.397, "cross_axis_tilt": 0}}, {"type": "Feature", "geometry": {"type": "Point", "coordinates": [-6.998198, 38.8409627]}, "properties": {"rol": "seguidor", "id": "TK0047", "tipo": "completo", "axis_azimuth": 0, "punto": "eje de unidad (no el motor)", "ncu": 1, "gw": 1, "axis_tilt": 0, "max_angle": 55, "backtrack": true, "gcr": 0.397, "cross_axis_tilt": 0}}, {"type": "Feature", "geometry": {"type": "Point", "coordinates": [-6.9980944, 38.8409609]}, "properties": {"rol": "seguidor", "id": "TK0048", "tipo": "completo", "axis_azimuth": 0, "punto": "eje de unidad (no el motor)", "ncu": 1, "gw": 1, "axis_tilt": 0, "max_angle": 55, "backtrack": true, "gcr": 0.397, "cross_axis_tilt": 0}}, {"type": "Feature", "geometry": {"type": "Point", "coordinates": [-6.9979907, 38.8409591]}, "properties": {"rol": "seguidor", "id": "TK0049", "tipo": "completo", "axis_azimuth": 0, "punto": "eje de unidad (no el motor)", "ncu": 1, "gw": 1, "axis_tilt": 0, "max_angle": 55, "backtrack": true, "gcr": 0.397, "cross_axis_tilt": 0}}, {"type": "Feature", "geometry": {"type": "Point", "coordinates": [-6.9981038, 38.8417575]}, "properties": {"rol": "seguidor", "id": "TK0050", "tipo": "completo", "axis_azimuth": 0, "punto": "eje de unidad (no el motor)", "ncu": 2, "gw": 2, "axis_tilt": 0, "max_angle": 55, "backtrack": true, "gcr": 0.397, "cross_axis_tilt": 0}}, {"type": "Feature", "geometry": {"type": "Point", "coordinates": [-6.9989382, 38.8417718]}, "properties": {"rol": "seguidor", "id": "TK0051", "tipo": "completo", "axis_azimuth": 0, "punto": "eje de unidad (no el motor)", "ncu": 2, "gw": 2, "axis_tilt": 0, "max_angle": 55, "backtrack": true, "gcr": 0.397, "cross_axis_tilt": 0}}, {"type": "Feature", "geometry": {"type": "Point", "coordinates": [-6.9970437, 38.8417607]}, "properties": {"rol": "seguidor", "id": "TK0052", "tipo": "Medio", "axis_azimuth": 0, "punto": "eje de unidad (no el motor)", "ncu": 2, "gw": 2, "axis_tilt": 0, "max_angle": 55, "backtrack": true, "gcr": 0.397, "cross_axis_tilt": 0}}, {"type": "Feature", "geometry": {"type": "Point", "coordinates": [-7.0007947, 38.8419069]}, "properties": {"rol": "seguidor", "id": "TK0053", "tipo": "Medio", "axis_azimuth": 0, "punto": "eje de unidad (no el motor)", "ncu": 2, "gw": 2, "axis_tilt": 0, "max_angle": 55, "backtrack": true, "gcr": 0.397, "cross_axis_tilt": 0}}, {"type": "Feature", "geometry": {"type": "Point", "coordinates": [-7.0008983, 38.8419086]}, "properties": {"rol": "seguidor", "id": "TK0054", "tipo": "Medio", "axis_azimuth": 0, "punto": "eje de unidad (no el motor)", "ncu": 2, "gw": 2, "axis_tilt": 0, "max_angle": 55, "backtrack": true, "gcr": 0.397, "cross_axis_tilt": 0}}, {"type": "Feature", "geometry": {"type": "Point", "coordinates": [-7.0010019, 38.8419104]}, "properties": {"rol": "seguidor", "id": "TK0055", "tipo": "Medio", "axis_azimuth": 0, "punto": "eje de unidad (no el motor)", "ncu": 1, "gw": 1, "axis_tilt": 0, "max_angle": 55, "backtrack": true, "gcr": 0.397, "cross_axis_tilt": 0}}, {"type": "Feature", "geometry": {"type": "Point", "coordinates": [-7.0011056, 38.8419122]}, "properties": {"rol": "seguidor", "id": "TK0056", "tipo": "Medio", "axis_azimuth": 0, "punto": "eje de unidad (no el motor)", "ncu": 1, "gw": 1, "axis_tilt": 0, "max_angle": 55, "backtrack": true, "gcr": 0.397, "cross_axis_tilt": 0}}, {"type": "Feature", "geometry": {"type": "Point", "coordinates": [-7.0013152, 38.8418327]}, "properties": {"rol": "seguidor", "id": "TK0057", "tipo": "Medio", "axis_azimuth": 0, "punto": "eje de unidad (no el motor)", "ncu": 1, "gw": 1, "axis_tilt": 0, "max_angle": 55, "backtrack": true, "gcr": 0.397, "cross_axis_tilt": 0}}, {"type": "Feature", "geometry": {"type": "Point", "coordinates": [-7.0014188, 38.8418344]}, "properties": {"rol": "seguidor", "id": "TK0058", "tipo": "Medio", "axis_azimuth": 0, "punto": "eje de unidad (no el motor)", "ncu": 1, "gw": 1, "axis_tilt": 0, "max_angle": 55, "backtrack": true, "gcr": 0.397, "cross_axis_tilt": 0}}, {"type": "Feature", "geometry": {"type": "Point", "coordinates": [-7.0012092, 38.841914]}, "properties": {"rol": "seguidor", "id": "TK0059", "tipo": "Medio", "axis_azimuth": 0, "punto": "eje de unidad (no el motor)", "ncu": 1, "gw": 1, "axis_tilt": 0, "max_angle": 55, "backtrack": true, "gcr": 0.397, "cross_axis_tilt": 0}}, {"type": "Feature", "geometry": {"type": "Point", "coordinates": [-6.9994418, 38.8422066]}, "properties": {"rol": "seguidor", "id": "TK0060", "tipo": "Medio", "axis_azimuth": 0, "punto": "eje de unidad (no el motor)", "ncu": 2, "gw": 2, "axis_tilt": 0, "max_angle": 55, "backtrack": true, "gcr": 0.397, "cross_axis_tilt": 0}}, {"type": "Feature", "geometry": {"type": "Point", "coordinates": [-6.9993385, 38.8421929]}, "properties": {"rol": "seguidor", "id": "TK0061", "tipo": "Medio", "axis_azimuth": 0, "punto": "eje de unidad (no el motor)", "ncu": 2, "gw": 2, "axis_tilt": 0, "max_angle": 55, "backtrack": true, "gcr": 0.397, "cross_axis_tilt": 0}}, {"type": "Feature", "geometry": {"type": "Point", "coordinates": [-7.0007877, 38.8421548]}, "properties": {"rol": "seguidor", "id": "TK0062", "tipo": "Medio", "axis_azimuth": 0, "punto": "eje de unidad (no el motor)", "ncu": 2, "gw": 2, "axis_tilt": 0, "max_angle": 55, "backtrack": true, "gcr": 0.397, "cross_axis_tilt": 0}}, {"type": "Feature", "geometry": {"type": "Point", "coordinates": [-7.0008917, 38.8421447]}, "properties": {"rol": "seguidor", "id": "TK0063", "tipo": "Medio", "axis_azimuth": 0, "punto": "eje de unidad (no el motor)", "ncu": 2, "gw": 2, "axis_tilt": 0, "max_angle": 55, "backtrack": true, "gcr": 0.397, "cross_axis_tilt": 0}}, {"type": "Feature", "geometry": {"type": "Point", "coordinates": [-6.9995937, 38.8422092]}, "properties": {"rol": "seguidor", "id": "TK0064", "tipo": "Medio", "axis_azimuth": 0, "punto": "eje de unidad (no el motor)", "ncu": 2, "gw": 2, "axis_tilt": 0, "max_angle": 55, "backtrack": true, "gcr": 0.397, "cross_axis_tilt": 0}}, {"type": "Feature", "geometry": {"type": "Point", "coordinates": [-6.9996977, 38.8421991]}, "properties": {"rol": "seguidor", "id": "TK0065", "tipo": "Medio", "axis_azimuth": 0, "punto": "eje de unidad (no el motor)", "ncu": 2, "gw": 2, "axis_tilt": 0, "max_angle": 55, "backtrack": true, "gcr": 0.397, "cross_axis_tilt": 0}}, {"type": "Feature", "geometry": {"type": "Point", "coordinates": [-6.9995539, 38.8417823]}, "properties": {"rol": "seguidor", "id": "TK0066", "tipo": "completo", "axis_azimuth": 0, "punto": "eje de unidad (no el motor)", "ncu": 2, "gw": 2, "axis_tilt": 0, "max_angle": 55, "backtrack": true, "gcr": 0.397, "cross_axis_tilt": 0}}, {"type": "Feature", "geometry": {"type": "Point", "coordinates": [-7.0001701, 38.8419912]}, "properties": {"rol": "seguidor", "id": "TK0067", "tipo": "Medio", "axis_azimuth": 0, "punto": "eje de unidad (no el motor)", "ncu": 2, "gw": 2, "axis_tilt": 0, "max_angle": 55, "backtrack": true, "gcr": 0.397, "cross_axis_tilt": 0}}, {"type": "Feature", "geometry": {"type": "Point", "coordinates": [-7.0002738, 38.841993]}, "properties": {"rol": "seguidor", "id": "TK0068", "tipo": "Medio", "axis_azimuth": 0, "punto": "eje de unidad (no el motor)", "ncu": 2, "gw": 2, "axis_tilt": 0, "max_angle": 55, "backtrack": true, "gcr": 0.397, "cross_axis_tilt": 0}}, {"type": "Feature", "geometry": {"type": "Point", "coordinates": [-7.0003774, 38.8419947]}, "properties": {"rol": "seguidor", "id": "TK0069", "tipo": "Medio", "axis_azimuth": 0, "punto": "eje de unidad (no el motor)", "ncu": 2, "gw": 2, "axis_tilt": 0, "max_angle": 55, "backtrack": true, "gcr": 0.397, "cross_axis_tilt": 0}}, {"type": "Feature", "geometry": {"type": "Point", "coordinates": [-7.0004811, 38.8419965]}, "properties": {"rol": "seguidor", "id": "TK0070", "tipo": "Medio", "axis_azimuth": 0, "punto": "eje de unidad (no el motor)", "ncu": 2, "gw": 2, "axis_tilt": 0, "max_angle": 55, "backtrack": true, "gcr": 0.397, "cross_axis_tilt": 0}}, {"type": "Feature", "geometry": {"type": "Point", "coordinates": [-7.0005847, 38.8419983]}, "properties": {"rol": "seguidor", "id": "TK0071", "tipo": "Medio", "axis_azimuth": 0, "punto": "eje de unidad (no el motor)", "ncu": 2, "gw": 2, "axis_tilt": 0, "max_angle": 55, "backtrack": true, "gcr": 0.397, "cross_axis_tilt": 0}}, {"type": "Feature", "geometry": {"type": "Point", "coordinates": [-7.0006884, 38.8420001]}, "properties": {"rol": "seguidor", "id": "TK0072", "tipo": "Medio", "axis_azimuth": 0, "punto": "eje de unidad (no el motor)", "ncu": 2, "gw": 2, "axis_tilt": 0, "max_angle": 55, "backtrack": true, "gcr": 0.397, "cross_axis_tilt": 0}}, {"type": "Feature", "geometry": {"type": "Point", "coordinates": [-6.9975636, 38.8417103]}, "properties": {"rol": "seguidor", "id": "TK0073", "tipo": "Medio", "axis_azimuth": 0, "punto": "eje de unidad (no el motor)", "ncu": 2, "gw": 2, "axis_tilt": 0, "max_angle": 55, "backtrack": true, "gcr": 0.397, "cross_axis_tilt": 0}}, {"type": "Feature", "geometry": {"type": "Point", "coordinates": [-6.9976672, 38.841712]}, "properties": {"rol": "seguidor", "id": "TK0074", "tipo": "Medio", "axis_azimuth": 0, "punto": "eje de unidad (no el motor)", "ncu": 2, "gw": 2, "axis_tilt": 0, "max_angle": 55, "backtrack": true, "gcr": 0.397, "cross_axis_tilt": 0}}, {"type": "Feature", "geometry": {"type": "Point", "coordinates": [-6.9977709, 38.8417138]}, "properties": {"rol": "seguidor", "id": "TK0075", "tipo": "Medio", "axis_azimuth": 0, "punto": "eje de unidad (no el motor)", "ncu": 2, "gw": 2, "axis_tilt": 0, "max_angle": 55, "backtrack": true, "gcr": 0.397, "cross_axis_tilt": 0}}, {"type": "Feature", "geometry": {"type": "Point", "coordinates": [-6.9978745, 38.8417156]}, "properties": {"rol": "seguidor", "id": "TK0076", "tipo": "Medio", "axis_azimuth": 0, "punto": "eje de unidad (no el motor)", "ncu": 2, "gw": 2, "axis_tilt": 0, "max_angle": 55, "backtrack": true, "gcr": 0.397, "cross_axis_tilt": 0}}, {"type": "Feature", "geometry": {"type": "Point", "coordinates": [-6.9979782, 38.8417174]}, "properties": {"rol": "seguidor", "id": "TK0077", "tipo": "Medio", "axis_azimuth": 0, "punto": "eje de unidad (no el motor)", "ncu": 2, "gw": 2, "axis_tilt": 0, "max_angle": 55, "backtrack": true, "gcr": 0.397, "cross_axis_tilt": 0}}, {"type": "Feature", "geometry": {"type": "Point", "coordinates": [-6.997149, 38.8417032]}, "properties": {"rol": "seguidor", "id": "TK0078", "tipo": "Medio", "axis_azimuth": 0, "punto": "eje de unidad (no el motor)", "ncu": 2, "gw": 2, "axis_tilt": 0, "max_angle": 55, "backtrack": true, "gcr": 0.397, "cross_axis_tilt": 0}}, {"type": "Feature", "geometry": {"type": "Point", "coordinates": [-6.9972527, 38.8417049]}, "properties": {"rol": "seguidor", "id": "TK0079", "tipo": "Medio", "axis_azimuth": 0, "punto": "eje de unidad (no el motor)", "ncu": 2, "gw": 2, "axis_tilt": 0, "max_angle": 55, "backtrack": true, "gcr": 0.397, "cross_axis_tilt": 0}}, {"type": "Feature", "geometry": {"type": "Point", "coordinates": [-6.9973563, 38.8417067]}, "properties": {"rol": "seguidor", "id": "TK0080", "tipo": "Medio", "axis_azimuth": 0, "punto": "eje de unidad (no el motor)", "ncu": 2, "gw": 2, "axis_tilt": 0, "max_angle": 55, "backtrack": true, "gcr": 0.397, "cross_axis_tilt": 0}}, {"type": "Feature", "geometry": {"type": "Point", "coordinates": [-6.99746, 38.8417085]}, "properties": {"rol": "seguidor", "id": "TK0081", "tipo": "Medio", "axis_azimuth": 0, "punto": "eje de unidad (no el motor)", "ncu": 2, "gw": 2, "axis_tilt": 0, "max_angle": 55, "backtrack": true, "gcr": 0.397, "cross_axis_tilt": 0}}, {"type": "Feature", "geometry": {"type": "Point", "coordinates": [-6.999649, 38.8409876]}, "properties": {"rol": "seguidor", "id": "TK0082", "tipo": "completo", "axis_azimuth": 0, "punto": "eje de unidad (no el motor)", "ncu": 1, "gw": 1, "axis_tilt": 0, "max_angle": 55, "backtrack": true, "gcr": 0.397, "cross_axis_tilt": 0}}, {"type": "Feature", "geometry": {"type": "Point", "coordinates": [-7.0002843, 38.8405158]}, "properties": {"rol": "seguidor", "id": "TK0083", "tipo": "completo", "axis_azimuth": 0, "punto": "eje de unidad (no el motor)", "ncu": 1, "gw": 1, "axis_tilt": 0, "max_angle": 55, "backtrack": true, "gcr": 0.397, "cross_axis_tilt": 0}}, {"type": "Feature", "geometry": {"type": "Point", "coordinates": [-7.0003873, 38.8405422]}, "properties": {"rol": "seguidor", "id": "TK0084", "tipo": "completo", "axis_azimuth": 0, "punto": "eje de unidad (no el motor)", "ncu": 1, "gw": 1, "axis_tilt": 0, "max_angle": 55, "backtrack": true, "gcr": 0.397, "cross_axis_tilt": 0}}, {"type": "Feature", "geometry": {"type": "Point", "coordinates": [-7.0004909, 38.8405439]}, "properties": {"rol": "seguidor", "id": "TK0085", "tipo": "completo", "axis_azimuth": 0, "punto": "eje de unidad (no el motor)", "ncu": 1, "gw": 1, "axis_tilt": 0, "max_angle": 55, "backtrack": true, "gcr": 0.397, "cross_axis_tilt": 0}}, {"type": "Feature", "geometry": {"type": "Point", "coordinates": [-7.0005946, 38.8405457]}, "properties": {"rol": "seguidor", "id": "TK0086", "tipo": "completo", "axis_azimuth": 0, "punto": "eje de unidad (no el motor)", "ncu": 1, "gw": 1, "axis_tilt": 0, "max_angle": 55, "backtrack": true, "gcr": 0.397, "cross_axis_tilt": 0}}, {"type": "Feature", "geometry": {"type": "Point", "coordinates": [-7.0006982, 38.8405475]}, "properties": {"rol": "seguidor", "id": "TK0087", "tipo": "completo", "axis_azimuth": 0, "punto": "eje de unidad (no el motor)", "ncu": 1, "gw": 1, "axis_tilt": 0, "max_angle": 55, "backtrack": true, "gcr": 0.397, "cross_axis_tilt": 0}}, {"type": "Feature", "geometry": {"type": "Point", "coordinates": [-7.0008029, 38.840512]}, "properties": {"rol": "seguidor", "id": "TK0088", "tipo": "completo", "axis_azimuth": 0, "punto": "eje de unidad (no el motor)", "ncu": 1, "gw": 1, "axis_tilt": 0, "max_angle": 55, "backtrack": true, "gcr": 0.397, "cross_axis_tilt": 0}}, {"type": "Feature", "geometry": {"type": "Point", "coordinates": [-7.0009065, 38.840515]}, "properties": {"rol": "seguidor", "id": "TK0089", "tipo": "completo", "axis_azimuth": 0, "punto": "eje de unidad (no el motor)", "ncu": 1, "gw": 1, "axis_tilt": 0, "max_angle": 55, "backtrack": true, "gcr": 0.397, "cross_axis_tilt": 0}}, {"type": "Feature", "geometry": {"type": "Point", "coordinates": [-7.0010102, 38.8405148]}, "properties": {"rol": "seguidor", "id": "TK0090", "tipo": "completo", "axis_azimuth": 0, "punto": "eje de unidad (no el motor)", "ncu": 1, "gw": 1, "axis_tilt": 0, "max_angle": 55, "backtrack": true, "gcr": 0.397, "cross_axis_tilt": 0}}, {"type": "Feature", "geometry": {"type": "Point", "coordinates": [-7.0011138, 38.8405166]}, "properties": {"rol": "seguidor", "id": "TK0091", "tipo": "completo", "axis_azimuth": 0, "punto": "eje de unidad (no el motor)", "ncu": 1, "gw": 1, "axis_tilt": 0, "max_angle": 55, "backtrack": true, "gcr": 0.397, "cross_axis_tilt": 0}}, {"type": "Feature", "geometry": {"type": "Point", "coordinates": [-7.0012171, 38.8405316]}, "properties": {"rol": "seguidor", "id": "TK0092", "tipo": "completo", "axis_azimuth": 0, "punto": "eje de unidad (no el motor)", "ncu": 1, "gw": 1, "axis_tilt": 0, "max_angle": 55, "backtrack": true, "gcr": 0.397, "cross_axis_tilt": 0}}, {"type": "Feature", "geometry": {"type": "Point", "coordinates": [-7.00132, 38.8405581]}, "properties": {"rol": "seguidor", "id": "TK0093", "tipo": "completo", "axis_azimuth": 0, "punto": "eje de unidad (no el motor)", "ncu": 1, "gw": 1, "axis_tilt": 0, "max_angle": 55, "backtrack": true, "gcr": 0.397, "cross_axis_tilt": 0}}, {"type": "Feature", "geometry": {"type": "Point", "coordinates": [-7.0001895, 38.8402004]}, "properties": {"rol": "seguidor", "id": "TK0094", "tipo": "completo", "axis_azimuth": 0, "punto": "eje de unidad (no el motor)", "ncu": 1, "gw": 1, "axis_tilt": 0, "max_angle": 55, "backtrack": true, "gcr": 0.397, "cross_axis_tilt": 0}}, {"type": "Feature", "geometry": {"type": "Point", "coordinates": [-6.9995706, 38.8400913]}, "properties": {"rol": "seguidor", "id": "TK0095", "tipo": "completo", "axis_azimuth": 0, "punto": "eje de unidad (no el motor)", "ncu": 1, "gw": 1, "axis_tilt": 0, "max_angle": 55, "backtrack": true, "gcr": 0.397, "cross_axis_tilt": 0}}, {"type": "Feature", "geometry": {"type": "Point", "coordinates": [-6.9991531, 38.8401799]}, "properties": {"rol": "seguidor", "id": "TK0096", "tipo": "completo", "axis_azimuth": 0, "punto": "eje de unidad (no el motor)", "ncu": 1, "gw": 1, "axis_tilt": 0, "max_angle": 55, "backtrack": true, "gcr": 0.397, "cross_axis_tilt": 0}}, {"type": "Feature", "geometry": {"type": "Point", "coordinates": [-6.9990494, 38.8401809]}, "properties": {"rol": "seguidor", "id": "TK0097", "tipo": "completo", "axis_azimuth": 0, "punto": "eje de unidad (no el motor)", "ncu": 1, "gw": 1, "axis_tilt": 0, "max_angle": 55, "backtrack": true, "gcr": 0.397, "cross_axis_tilt": 0}}, {"type": "Feature", "geometry": {"type": "Point", "coordinates": [-6.9989458, 38.8401791]}, "properties": {"rol": "seguidor", "id": "TK0098", "tipo": "completo", "axis_azimuth": 0, "punto": "eje de unidad (no el motor)", "ncu": 1, "gw": 1, "axis_tilt": 0, "max_angle": 55, "backtrack": true, "gcr": 0.397, "cross_axis_tilt": 0}}, {"type": "Feature", "geometry": {"type": "Point", "coordinates": [-6.9988422, 38.8401773]}, "properties": {"rol": "seguidor", "id": "TK0099", "tipo": "completo", "axis_azimuth": 0, "punto": "eje de unidad (no el motor)", "ncu": 1, "gw": 1, "axis_tilt": 0, "max_angle": 55, "backtrack": true, "gcr": 0.397, "cross_axis_tilt": 0}}, {"type": "Feature", "geometry": {"type": "Point", "coordinates": [-6.9987385, 38.8401756]}, "properties": {"rol": "seguidor", "id": "TK0100", "tipo": "completo", "axis_azimuth": 0, "punto": "eje de unidad (no el motor)", "ncu": 1, "gw": 1, "axis_tilt": 0, "max_angle": 55, "backtrack": true, "gcr": 0.397, "cross_axis_tilt": 0}}, {"type": "Feature", "geometry": {"type": "Point", "coordinates": [-6.9986349, 38.8401738]}, "properties": {"rol": "seguidor", "id": "TK0101", "tipo": "completo", "axis_azimuth": 0, "punto": "eje de unidad (no el motor)", "ncu": 1, "gw": 1, "axis_tilt": 0, "max_angle": 55, "backtrack": true, "gcr": 0.397, "cross_axis_tilt": 0}}, {"type": "Feature", "geometry": {"type": "Point", "coordinates": [-6.9985312, 38.840172]}, "properties": {"rol": "seguidor", "id": "TK0102", "tipo": "completo", "axis_azimuth": 0, "punto": "eje de unidad (no el motor)", "ncu": 1, "gw": 1, "axis_tilt": 0, "max_angle": 55, "backtrack": true, "gcr": 0.397, "cross_axis_tilt": 0}}, {"type": "Feature", "geometry": {"type": "Point", "coordinates": [-6.9984276, 38.8401702]}, "properties": {"rol": "seguidor", "id": "TK0103", "tipo": "completo", "axis_azimuth": 0, "punto": "eje de unidad (no el motor)", "ncu": 1, "gw": 1, "axis_tilt": 0, "max_angle": 55, "backtrack": true, "gcr": 0.397, "cross_axis_tilt": 0}}, {"type": "Feature", "geometry": {"type": "Point", "coordinates": [-6.9983224, 38.8401956]}, "properties": {"rol": "seguidor", "id": "TK0104", "tipo": "completo", "axis_azimuth": 0, "punto": "eje de unidad (no el motor)", "ncu": 1, "gw": 1, "axis_tilt": 0, "max_angle": 55, "backtrack": true, "gcr": 0.397, "cross_axis_tilt": 0}}, {"type": "Feature", "geometry": {"type": "Point", "coordinates": [-7.0014222, 38.8406131]}, "properties": {"rol": "seguidor", "id": "TK0105", "tipo": "completo", "axis_azimuth": 0, "punto": "eje de unidad (no el motor)", "ncu": 1, "gw": 1, "axis_tilt": 0, "max_angle": 55, "backtrack": true, "gcr": 0.397, "cross_axis_tilt": 0}}, {"type": "Feature", "geometry": {"type": "Point", "coordinates": [-7.0015246, 38.8406583]}, "properties": {"rol": "seguidor", "id": "TK0106", "tipo": "completo", "axis_azimuth": 0, "punto": "eje de unidad (no el motor)", "ncu": 1, "gw": 1, "axis_tilt": 0, "max_angle": 55, "backtrack": true, "gcr": 0.397, "cross_axis_tilt": 0}}, {"type": "Feature", "geometry": {"type": "Point", "coordinates": [-7.0016268, 38.8407113]}, "properties": {"rol": "seguidor", "id": "TK0107", "tipo": "completo", "axis_azimuth": 0, "punto": "eje de unidad (no el motor)", "ncu": 1, "gw": 1, "axis_tilt": 0, "max_angle": 55, "backtrack": true, "gcr": 0.397, "cross_axis_tilt": 0}}, {"type": "Feature", "geometry": {"type": "Point", "coordinates": [-7.0017291, 38.8407604]}, "properties": {"rol": "seguidor", "id": "TK0108", "tipo": "completo", "axis_azimuth": 0, "punto": "eje de unidad (no el motor)", "ncu": 1, "gw": 1, "axis_tilt": 0, "max_angle": 55, "backtrack": true, "gcr": 0.397, "cross_axis_tilt": 0}}, {"type": "Feature", "geometry": {"type": "Point", "coordinates": [-7.0018323, 38.8407813]}, "properties": {"rol": "seguidor", "id": "TK0109", "tipo": "completo", "axis_azimuth": 0, "punto": "eje de unidad (no el motor)", "ncu": 1, "gw": 1, "axis_tilt": 0, "max_angle": 55, "backtrack": true, "gcr": 0.397, "cross_axis_tilt": 0}}, {"type": "Feature", "geometry": {"type": "Point", "coordinates": [-7.0019351, 38.8408113]}, "properties": {"rol": "seguidor", "id": "TK0110", "tipo": "completo", "axis_azimuth": 0, "punto": "eje de unidad (no el motor)", "ncu": 1, "gw": 1, "axis_tilt": 0, "max_angle": 55, "backtrack": true, "gcr": 0.397, "cross_axis_tilt": 0}}, {"type": "Feature", "geometry": {"type": "Point", "coordinates": [-6.9997777, 38.8400948]}, "properties": {"rol": "seguidor", "id": "TK0111", "tipo": "completo", "axis_azimuth": 0, "punto": "eje de unidad (no el motor)", "ncu": 1, "gw": 1, "axis_tilt": 0, "max_angle": 55, "backtrack": true, "gcr": 0.397, "cross_axis_tilt": 0}}, {"type": "Feature", "geometry": {"type": "Point", "coordinates": [-7.0000858, 38.8401986]}, "properties": {"rol": "seguidor", "id": "TK0112", "tipo": "completo", "axis_azimuth": 0, "punto": "eje de unidad (no el motor)", "ncu": 1, "gw": 1, "axis_tilt": 0, "max_angle": 55, "backtrack": true, "gcr": 0.397, "cross_axis_tilt": 0}}, {"type": "Feature", "geometry": {"type": "Point", "coordinates": [-6.999464, 38.840188]}, "properties": {"rol": "seguidor", "id": "TK0113", "tipo": "completo", "axis_azimuth": 0, "punto": "eje de unidad (no el motor)", "ncu": 1, "gw": 1, "axis_tilt": 0, "max_angle": 55, "backtrack": true, "gcr": 0.397, "cross_axis_tilt": 0}}, {"type": "Feature", "geometry": {"type": "Point", "coordinates": [-6.9993604, 38.8401862]}, "properties": {"rol": "seguidor", "id": "TK0114", "tipo": "completo", "axis_azimuth": 0, "punto": "eje de unidad (no el motor)", "ncu": 1, "gw": 1, "axis_tilt": 0, "max_angle": 55, "backtrack": true, "gcr": 0.397, "cross_axis_tilt": 0}}, {"type": "Feature", "geometry": {"type": "Point", "coordinates": [-6.9992567, 38.8401844]}, "properties": {"rol": "seguidor", "id": "TK0115", "tipo": "completo", "axis_azimuth": 0, "punto": "eje de unidad (no el motor)", "ncu": 1, "gw": 1, "axis_tilt": 0, "max_angle": 55, "backtrack": true, "gcr": 0.397, "cross_axis_tilt": 0}}, {"type": "Feature", "geometry": {"type": "Point", "coordinates": [-6.9999822, 38.8401969]}, "properties": {"rol": "seguidor", "id": "TK0116", "tipo": "completo", "axis_azimuth": 0, "punto": "eje de unidad (no el motor)", "ncu": 1, "gw": 1, "axis_tilt": 0, "max_angle": 55, "backtrack": true, "gcr": 0.397, "cross_axis_tilt": 0}}, {"type": "Feature", "geometry": {"type": "Point", "coordinates": [-6.9998786, 38.8401951]}, "properties": {"rol": "seguidor", "id": "TK0117", "tipo": "completo", "axis_azimuth": 0, "punto": "eje de unidad (no el motor)", "ncu": 1, "gw": 1, "axis_tilt": 0, "max_angle": 55, "backtrack": true, "gcr": 0.397, "cross_axis_tilt": 0}}, {"type": "Feature", "geometry": {"type": "Point", "coordinates": [-7.0015063, 38.8413143]}, "properties": {"rol": "seguidor", "id": "TK0118", "tipo": "Medio", "axis_azimuth": 0, "punto": "eje de unidad (no el motor)", "ncu": 1, "gw": 1, "axis_tilt": 0, "max_angle": 55, "backtrack": true, "gcr": 0.397, "cross_axis_tilt": 0}}, {"type": "Feature", "geometry": {"type": "Point", "coordinates": [-7.0014027, 38.8413125]}, "properties": {"rol": "seguidor", "id": "TK0119", "tipo": "Medio", "axis_azimuth": 0, "punto": "eje de unidad (no el motor)", "ncu": 1, "gw": 1, "axis_tilt": 0, "max_angle": 55, "backtrack": true, "gcr": 0.397, "cross_axis_tilt": 0}}, {"type": "Feature", "geometry": {"type": "Point", "coordinates": [-6.999723, 38.8405495]}, "properties": {"rol": "NCU", "nombre": "NCU 1"}}, {"type": "Feature", "geometry": {"type": "Point", "coordinates": [-6.9988392, 38.8421861]}, "properties": {"rol": "NCU", "nombre": "NCU 2"}}, {"type": "Feature", "geometry": {"type": "Point", "coordinates": [-6.997651, 38.8409533]}, "properties": {"rol": "HSU", "nombre": "HSU 1", "ncu": 1, "ncu_origen": "DERIVADO, no medido: NCU del seguidor más cercano (a 30 m; el de la 2, a 84 m, margen x2.86). Regla validada 14/14 contra El Burgo, Benante y Panbianco. Confirmar en campo", "gw": null, "esclavo": null}}, {"type": "Feature", "geometry": {"type": "Point", "coordinates": [-7.0011714, 38.8421514]}, "properties": {"rol": "HSU", "nombre": "HSU 2", "ncu": null, "ncu_origen": null, "gw": null, "esclavo": null}}]}