{"type": "FeatureCollection", "name": "tunez", "crs_note": "EPSG:4326 (GeoJSON siempre en WGS84). El layout está en EPSG:32632", "generado_por": "tools/geojson_activo.py", "que_es": "La planta como ACTIVO: parcela, seguidores con su montaje, NCU, HSU, repetidores y caminos. No confundir con <planta>_real.geojson, que es la malla de radio medida.", "montaje": {"tipo": "SingleAxisTrackerMount", "axis_tilt": 0, "axis_azimuth": 0, "max_angle": 55, "backtrack": true, "gcr": 0.397, "cross_axis_tilt": 0, "module_height": null, "night_stow_deg": 5, "pitch": null, "cuerda": null, "modulos_en_vertical": null}, "montaje_origen": {"pitch": null, "cuerda": "null · esta planta no trae bloque `mesa` ni plantilla del fabricante", "gcr": "canon · CANONICAL_GCR del proyecto, no medido en esta planta", "axis_azimuth": "canon · eje N-S (0), que es lo que mide el DWG", "tipo": "del layout · la planta es de seguidores", "axis_tilt": "canon · el eje se genera horizontal; el terreno se aplica aparte (bt3d)", "max_angle": "declarado por la casa · 55° en TODAS las plantas (2026-08-21). Coincide con el CANONICAL_MAX_ANGLE_DEG del core y con lo unico medido, la plantilla TCU de El Burgo", "backtrack": "canon · CANONICAL_BACKTRACK, y es lo que ejecutan las fichas", "cross_axis_tilt": "canon · 0, que es lo que pasa el JS a singleaxis", "module_height": "null · no se ha medido la altura del tubo en ninguna planta", "night_stow_deg": "canon · 5° al este, dato de proyecto", "modulos_en_vertical": "null · el bloque no dice la V"}, "meteo_nota": null, "reps_nota": null, "features": [{"type": "Feature", "geometry": {"type": "Polygon", "coordinates": [[[9.8729629, 33.8786143], [9.8728881, 33.8787256], [9.8727098, 33.878989], [9.8726204, 33.8791569], [9.8726153, 33.8792577], [9.8730757, 33.8796099], [9.8739269, 33.880365], [9.8740381, 33.8802165], [9.87411, 33.8801197], [9.8743283, 33.8797169], [9.8744425, 33.8791725], [9.8744566, 33.8789532], [9.8729629, 33.8786143]]]}, "properties": {"rol": "parcela", "origen": "vallado del DWG"}}, {"type": "Feature", "geometry": {"type": "Point", "coordinates": [9.8739085, 33.8800647]}, "properties": {"rol": "mesa_fija", "id": "String 1.1.1 · 2V14", "surface_tilt": 20, "surface_azimuth": 180, "modulos": 28, "filas": 2, "columnas": 14}}, {"type": "Feature", "geometry": {"type": "Point", "coordinates": [9.8737648, 33.8799851]}, "properties": {"rol": "mesa_fija", "id": "String 1.1.2 · 2V14", "surface_tilt": 20, "surface_azimuth": 180, "modulos": 28, "filas": 2, "columnas": 14}}, {"type": "Feature", "geometry": {"type": "Point", "coordinates": [9.8739667, 33.8799836]}, "properties": {"rol": "mesa_fija", "id": "String 1.1.3 · 2V14", "surface_tilt": 20, "surface_azimuth": 180, "modulos": 28, "filas": 2, "columnas": 14}}, {"type": "Feature", "geometry": {"type": "Point", "coordinates": [9.8736354, 33.8799054]}, "properties": {"rol": "mesa_fija", "id": "String 1.2.1 · 2V14", "surface_tilt": 20, "surface_azimuth": 180, "modulos": 28, "filas": 2, "columnas": 14}}, {"type": "Feature", "geometry": {"type": "Point", "coordinates": [9.8738373, 33.8799039]}, "properties": {"rol": "mesa_fija", "id": "String 1.2.2 · 2V14", "surface_tilt": 20, "surface_azimuth": 180, "modulos": 28, "filas": 2, "columnas": 14}}, {"type": "Feature", "geometry": {"type": "Point", "coordinates": [9.8740392, 33.8799025]}, "properties": {"rol": "mesa_fija", "id": "String 1.2.3 · 2V14", "surface_tilt": 20, "surface_azimuth": 180, "modulos": 28, "filas": 2, "columnas": 14}}, {"type": "Feature", "geometry": {"type": "Point", "coordinates": [9.8734912, 33.8798259]}, "properties": {"rol": "mesa_fija", "id": "String 1.3.1 · 2V6", "surface_tilt": 20, "surface_azimuth": 180, "modulos": 12, "filas": 2, "columnas": 6}}, {"type": "Feature", "geometry": {"type": "Point", "coordinates": [9.8736346, 33.8798248]}, "properties": {"rol": "mesa_fija", "id": "String 1.3.2 · 2V14", "surface_tilt": 20, "surface_azimuth": 180, "modulos": 28, "filas": 2, "columnas": 14}}, {"type": "Feature", "geometry": {"type": "Point", "coordinates": [9.8738365, 33.8798234]}, "properties": {"rol": "mesa_fija", "id": "String 1.3.3 · 2V14", "surface_tilt": 20, "surface_azimuth": 180, "modulos": 28, "filas": 2, "columnas": 14}}, {"type": "Feature", "geometry": {"type": "Point", "coordinates": [9.8740384, 33.879822]}, "properties": {"rol": "mesa_fija", "id": "String 1.4.1 · 2V14", "surface_tilt": 20, "surface_azimuth": 180, "modulos": 28, "filas": 2, "columnas": 14}}, {"type": "Feature", "geometry": {"type": "Point", "coordinates": [9.873432, 33.8797456]}, "properties": {"rol": "mesa_fija", "id": "String 1.4.2 · 2V14", "surface_tilt": 20, "surface_azimuth": 180, "modulos": 28, "filas": 2, "columnas": 14}}, {"type": "Feature", "geometry": {"type": "Point", "coordinates": [9.8736337, 33.8797442]}, "properties": {"rol": "mesa_fija", "id": "String 1.4.3 · 2V14", "surface_tilt": 20, "surface_azimuth": 180, "modulos": 28, "filas": 2, "columnas": 14}}, {"type": "Feature", "geometry": {"type": "Point", "coordinates": [9.8738357, 33.8797428]}, "properties": {"rol": "mesa_fija", "id": "String 1.5.1 · 2V14", "surface_tilt": 20, "surface_azimuth": 180, "modulos": 28, "filas": 2, "columnas": 14}}, {"type": "Feature", "geometry": {"type": "Point", "coordinates": [9.8740376, 33.8797414]}, "properties": {"rol": "mesa_fija", "id": "String 1.5.2 · 2V14", "surface_tilt": 20, "surface_azimuth": 180, "modulos": 28, "filas": 2, "columnas": 14}}, {"type": "Feature", "geometry": {"type": "Point", "coordinates": [9.8729118, 33.8790709]}, "properties": {"rol": "seguidor", "id": "TK001", "tipo": "completo", "axis_azimuth": 0, "punto": "eje de unidad (no el motor)", "ncu": 1, "gw": 1, "axis_tilt": 0, "max_angle": 55, "backtrack": true, "gcr": 0.397, "cross_axis_tilt": 0}}, {"type": "Feature", "geometry": {"type": "Point", "coordinates": [9.873047, 33.87907]}, "properties": {"rol": "seguidor", "id": "TK002", "tipo": "completo", "axis_azimuth": 0, "punto": "eje de unidad (no el motor)", "ncu": 1, "gw": 1, "axis_tilt": 0, "max_angle": 55, "backtrack": true, "gcr": 0.397, "cross_axis_tilt": 0}}, {"type": "Feature", "geometry": {"type": "Point", "coordinates": [9.8731821, 33.8790689]}, "properties": {"rol": "seguidor", "id": "TK003", "tipo": "completo", "axis_azimuth": 0, "punto": "eje de unidad (no el motor)", "ncu": 1, "gw": 1, "axis_tilt": 0, "max_angle": 55, "backtrack": true, "gcr": 0.397, "cross_axis_tilt": 0}}, {"type": "Feature", "geometry": {"type": "Point", "coordinates": [9.8732539, 33.8794782]}, "properties": {"rol": "seguidor", "id": "TK004", "tipo": "completo", "axis_azimuth": 0, "punto": "eje de unidad (no el motor)", "ncu": 1, "gw": 1, "axis_tilt": 0, "max_angle": 55, "backtrack": true, "gcr": 0.397, "cross_axis_tilt": 0}}, {"type": "Feature", "geometry": {"type": "Point", "coordinates": [9.8733173, 33.8790678]}, "properties": {"rol": "seguidor", "id": "TK005", "tipo": "completo", "axis_azimuth": 0, "punto": "eje de unidad (no el motor)", "ncu": 1, "gw": 1, "axis_tilt": 0, "max_angle": 55, "backtrack": true, "gcr": 0.397, "cross_axis_tilt": 0}}, {"type": "Feature", "geometry": {"type": "Point", "coordinates": [9.873389, 33.8794771]}, "properties": {"rol": "seguidor", "id": "TK006", "tipo": "completo", "axis_azimuth": 0, "punto": "eje de unidad (no el motor)", "ncu": 1, "gw": 1, "axis_tilt": 0, "max_angle": 55, "backtrack": true, "gcr": 0.397, "cross_axis_tilt": 0}}, {"type": "Feature", "geometry": {"type": "Point", "coordinates": [9.8734524, 33.8790668]}, "properties": {"rol": "seguidor", "id": "TK007", "tipo": "completo", "axis_azimuth": 0, "punto": "eje de unidad (no el motor)", "ncu": 1, "gw": 1, "axis_tilt": 0, "max_angle": 55, "backtrack": true, "gcr": 0.397, "cross_axis_tilt": 0}}, {"type": "Feature", "geometry": {"type": "Point", "coordinates": [9.8735242, 33.879476]}, "properties": {"rol": "seguidor", "id": "TK008", "tipo": "completo", "axis_azimuth": 0, "punto": "eje de unidad (no el motor)", "ncu": 1, "gw": 1, "axis_tilt": 0, "max_angle": 55, "backtrack": true, "gcr": 0.397, "cross_axis_tilt": 0}}, {"type": "Feature", "geometry": {"type": "Point", "coordinates": [9.8735876, 33.8790657]}, "properties": {"rol": "seguidor", "id": "TK009", "tipo": "completo", "axis_azimuth": 0, "punto": "eje de unidad (no el motor)", "ncu": 1, "gw": 1, "axis_tilt": 0, "max_angle": 55, "backtrack": true, "gcr": 0.397, "cross_axis_tilt": 0}}, {"type": "Feature", "geometry": {"type": "Point", "coordinates": [9.8736593, 33.8794753]}, "properties": {"rol": "seguidor", "id": "TK010", "tipo": "completo", "axis_azimuth": 0, "punto": "eje de unidad (no el motor)", "ncu": 1, "gw": 1, "axis_tilt": 0, "max_angle": 55, "backtrack": true, "gcr": 0.397, "cross_axis_tilt": 0}}, {"type": "Feature", "geometry": {"type": "Point", "coordinates": [9.8737227, 33.8790649]}, "properties": {"rol": "seguidor", "id": "TK011", "tipo": "completo", "axis_azimuth": 0, "punto": "eje de unidad (no el motor)", "ncu": 1, "gw": 1, "axis_tilt": 0, "max_angle": 55, "backtrack": true, "gcr": 0.397, "cross_axis_tilt": 0}}, {"type": "Feature", "geometry": {"type": "Point", "coordinates": [9.8737945, 33.8794743]}, "properties": {"rol": "seguidor", "id": "TK012", "tipo": "completo", "axis_azimuth": 0, "punto": "eje de unidad (no el motor)", "ncu": 1, "gw": 1, "axis_tilt": 0, "max_angle": 55, "backtrack": true, "gcr": 0.397, "cross_axis_tilt": 0}}, {"type": "Feature", "geometry": {"type": "Point", "coordinates": [9.8738579, 33.879064]}, "properties": {"rol": "seguidor", "id": "TK013", "tipo": "completo", "axis_azimuth": 0, "punto": "eje de unidad (no el motor)", "ncu": 1, "gw": 1, "axis_tilt": 0, "max_angle": 55, "backtrack": true, "gcr": 0.397, "cross_axis_tilt": 0}}, {"type": "Feature", "geometry": {"type": "Point", "coordinates": [9.8739296, 33.8794733]}, "properties": {"rol": "seguidor", "id": "TK014", "tipo": "completo", "axis_azimuth": 0, "punto": "eje de unidad (no el motor)", "ncu": 1, "gw": 1, "axis_tilt": 0, "max_angle": 55, "backtrack": true, "gcr": 0.397, "cross_axis_tilt": 0}}, {"type": "Feature", "geometry": {"type": "Point", "coordinates": [9.873993, 33.8790629]}, "properties": {"rol": "seguidor", "id": "TK015", "tipo": "completo", "axis_azimuth": 0, "punto": "eje de unidad (no el motor)", "ncu": 1, "gw": 1, "axis_tilt": 0, "max_angle": 55, "backtrack": true, "gcr": 0.397, "cross_axis_tilt": 0}}, {"type": "Feature", "geometry": {"type": "Point", "coordinates": [9.8740648, 33.8794721]}, "properties": {"rol": "seguidor", "id": "TK016", "tipo": "completo", "axis_azimuth": 0, "punto": "eje de unidad (no el motor)", "ncu": 1, "gw": 1, "axis_tilt": 0, "max_angle": 55, "backtrack": true, "gcr": 0.397, "cross_axis_tilt": 0}}, {"type": "Feature", "geometry": {"type": "Point", "coordinates": [9.8741282, 33.8790619]}, "properties": {"rol": "seguidor", "id": "TK017", "tipo": "completo", "axis_azimuth": 0, "punto": "eje de unidad (no el motor)", "ncu": 1, "gw": 1, "axis_tilt": 0, "max_angle": 55, "backtrack": true, "gcr": 0.397, "cross_axis_tilt": 0}}, {"type": "Feature", "geometry": {"type": "Point", "coordinates": [9.8741999, 33.8794711]}, "properties": {"rol": "seguidor", "id": "TK018", "tipo": "completo", "axis_azimuth": 0, "punto": "eje de unidad (no el motor)", "ncu": 1, "gw": 1, "axis_tilt": 0, "max_angle": 55, "backtrack": true, "gcr": 0.397, "cross_axis_tilt": 0}}, {"type": "Feature", "geometry": {"type": "Point", "coordinates": [9.8742633, 33.8790608]}, "properties": {"rol": "seguidor", "id": "TK019", "tipo": "completo", "axis_azimuth": 0, "punto": "eje de unidad (no el motor)", "ncu": 1, "gw": 1, "axis_tilt": 0, "max_angle": 55, "backtrack": true, "gcr": 0.397, "cross_axis_tilt": 0}}, {"type": "Feature", "geometry": {"type": "Point", "coordinates": [9.8729805, 33.8793124]}, "properties": {"rol": "NCU", "nombre": "NCU 1"}}, {"type": "Feature", "geometry": {"type": "Point", "coordinates": [9.872982, 33.8793371]}, "properties": {"rol": "HSU", "nombre": "HSU1", "ncu": 1, "ncu_origen": "toolbox · SCADA/tools/tcu-toolbox/plantas/24021-tunez.json, del Excel de coordenadas de la planta", "gw": 1, "gw_origen": "toolbox · SCADA/tools/tcu-toolbox/plantas/24021-tunez.json, del Excel de coordenadas de la planta", "esclavo": null, "esclavo_origen": null}}, {"type": "Feature", "geometry": {"type": "LineString", "coordinates": [[9.8728906, 33.8792706], [9.8742844, 33.8792596]]}, "properties": {"rol": "camino"}}, {"type": "Feature", "geometry": {"type": "LineString", "coordinates": [[9.872891, 33.8793067], [9.8742384, 33.879296]]}, "properties": {"rol": "camino"}}, {"type": "Feature", "geometry": {"type": "LineString", "coordinates": [[9.8728868, 33.8788886], [9.8742783, 33.8788787]]}, "properties": {"rol": "camino"}}, {"type": "Feature", "geometry": {"type": "LineString", "coordinates": [[9.8729825, 33.8788518], [9.874278, 33.8788426]]}, "properties": {"rol": "camino"}}, {"type": "Feature", "geometry": {"type": "LineString", "coordinates": [[9.8732341, 33.8796653], [9.8742355, 33.8796582]]}, "properties": {"rol": "camino"}}, {"type": "Feature", "geometry": {"type": "LineString", "coordinates": [[9.8732345, 33.8797013], [9.8742358, 33.8796942]]}, "properties": {"rol": "camino"}}]}